{
"type": "FeatureCollection",
"name": "bike_points",
"crs": { "type": "name", "properties": { "name": "urn:ogc:def:crs:OGC:1.3:CRS84" } },
"xy_coordinate_resolution": 1e-06,
"features": [
{ "type": "Feature", "properties": { "kind": "parking" }, "geometry": { "type": "Point", "coordinates": [ 22.957602, 40.570638 ] } },
{ "type": "Feature", "properties": { "kind": "parking" }, "geometry": { "type": "Point", "coordinates": [ 22.965629, 40.575388 ] } },
{ "type": "Feature", "properties": { "kind": "parking" }, "geometry": { "type": "Point", "coordinates": [ 22.965757, 40.575496 ] } },
{ "type": "Feature", "properties": { "kind": "parking" }, "geometry": { "type": "Point", "coordinates": [ 23.021893, 40.58521 ] } },
{ "type": "Feature", "properties": { "kind": "parking" }, "geometry": { "type": "Point", "coordinates": [ 22.969534, 40.592695 ] } },
{ "type": "Feature", "properties": { "kind": "parking" }, "geometry": { "type": "Point", "coordinates": [ 22.968851, 40.593159 ] } },
{ "type": "Feature", "properties": { "kind": "parking" }, "geometry": { "type": "Point", "coordinates": [ 22.954158, 40.59544 ] } },
{ "type": "Feature", "properties": { "kind": "parking" }, "geometry": { "type": "Point", "coordinates": [ 22.953241, 40.606238 ] } },
{ "type": "Feature", "properties": { "kind": "parking" }, "geometry": { "type": "Point", "coordinates": [ 22.954154, 40.620436 ] } },
{ "type": "Feature", "properties": { "kind": "parking" }, "geometry": { "type": "Point", "coordinates": [ 22.956598, 40.62204 ] } },
{ "type": "Feature", "properties": { "kind": "parking" }, "geometry": { "type": "Point", "coordinates": [ 22.949855, 40.603371 ] } },
{ "type": "Feature", "properties": { "kind": "parking" }, "geometry": { "type": "Point", "coordinates": [ 22.950022, 40.604755 ] } },
{ "type": "Feature", "properties": { "kind": "parking" }, "geometry": { "type": "Point", "coordinates": [ 22.94995, 40.604759 ] } },
{ "type": "Feature", "properties": { "kind": "parking" }, "geometry": { "type": "Point", "coordinates": [ 22.952871, 40.605128 ] } },
{ "type": "Feature", "properties": { "kind": "parking" }, "geometry": { "type": "Point", "coordinates": [ 22.950212, 40.605872 ] } },
{ "type": "Feature", "properties": { "kind": "parking" }, "geometry": { "type": "Point", "coordinates": [ 22.950442, 40.607191 ] } },
{ "type": "Feature", "properties": { "kind": "parking" }, "geometry": { "type": "Point", "coordinates": [ 22.950684, 40.608963 ] } },
{ "type": "Feature", "properties": { "kind": "parking" }, "geometry": { "type": "Point", "coordinates": [ 22.950832, 40.609919 ] } },
{ "type": "Feature", "properties": { "kind": "parking" }, "geometry": { "type": "Point", "coordinates": [ 22.950971, 40.610763 ] } },
{ "type": "Feature", "properties": { "kind": "parking" }, "geometry": { "type": "Point", "coordinates": [ 22.951152, 40.612482 ] } },
{ "type": "Feature", "properties": { "kind": "parking" }, "geometry": { "type": "Point", "coordinates": [ 22.949558, 40.600148 ] } },
{ "type": "Feature", "properties": { "kind": "parking" }, "geometry": { "type": "Point", "coordinates": [ 22.949234, 40.625953 ] } },
{ "type": "Feature", "properties": { "kind": "parking" }, "geometry": { "type": "Point", "coordinates": [ 22.948706, 40.626273 ] } },
{ "type": "Feature", "properties": { "kind": "parking" }, "geometry": { "type": "Point", "coordinates": [ 22.949165, 40.626676 ] } },
{ "type": "Feature", "properties": { "kind": "parking" }, "geometry": { "type": "Point", "coordinates": [ 22.946507, 40.628142 ] } },
{ "type": "Feature", "properties": { "kind": "parking" }, "geometry": { "type": "Point", "coordinates": [ 22.94932, 40.629429 ] } },
{ "type": "Feature", "properties": { "kind": "parking" }, "geometry": { "type": "Point", "coordinates": [ 22.947836, 40.629793 ] } },
{ "type": "Feature", "properties": { "kind": "parking" }, "geometry": { "type": "Point", "coordinates": [ 22.945386, 40.631148 ] } },
{ "type": "Feature", "properties": { "kind": "parking" }, "geometry": { "type": "Point", "coordinates": [ 22.947198, 40.631695 ] } },
{ "type": "Feature", "properties": { "kind": "parking" }, "geometry": { "type": "Point", "coordinates": [ 22.944592, 40.631924 ] } },
{ "type": "Feature", "properties": { "kind": "parking" }, "geometry": { "type": "Point", "coordinates": [ 22.951803, 40.617745 ] } },
{ "type": "Feature", "properties": { "kind": "parking" }, "geometry": { "type": "Point", "coordinates": [ 22.95192, 40.619252 ] } },
{ "type": "Feature", "properties": { "kind": "parking" }, "geometry": { "type": "Point", "coordinates": [ 22.951443, 40.623137 ] } },
{ "type": "Feature", "properties": { "kind": "parking" }, "geometry": { "type": "Point", "coordinates": [ 22.949828, 40.625517 ] } },
{ "type": "Feature", "properties": { "kind": "parking" }, "geometry": { "type": "Point", "coordinates": [ 22.94972, 40.626339 ] } },
{ "type": "Feature", "properties": { "kind": "parking" }, "geometry": { "type": "Point", "coordinates": [ 22.949994, 40.627642 ] } },
{ "type": "Feature", "properties": { "kind": "parking" }, "geometry": { "type": "Point", "coordinates": [ 22.950533, 40.630768 ] } },
{ "type": "Feature", "properties": { "kind": "parking" }, "geometry": { "type": "Point", "coordinates": [ 22.951431, 40.631725 ] } },
{ "type": "Feature", "properties": { "kind": "parking" }, "geometry": { "type": "Point", "coordinates": [ 22.951348, 40.631772 ] } },
{ "type": "Feature", "properties": { "kind": "parking" }, "geometry": { "type": "Point", "coordinates": [ 22.952367, 40.632895 ] } },
{ "type": "Feature", "properties": { "kind": "parking" }, "geometry": { "type": "Point", "coordinates": [ 22.952824, 40.622035 ] } },
{ "type": "Feature", "properties": { "kind": "parking" }, "geometry": { "type": "Point", "coordinates": [ 22.954291, 40.623992 ] } },
{ "type": "Feature", "properties": { "kind": "parking" }, "geometry": { "type": "Point", "coordinates": [ 22.955563, 40.624311 ] } },
{ "type": "Feature", "properties": { "kind": "parking" }, "geometry": { "type": "Point", "coordinates": [ 22.954526, 40.626856 ] } },
{ "type": "Feature", "properties": { "kind": "parking" }, "geometry": { "type": "Point", "coordinates": [ 22.95309, 40.628326 ] } },
{ "type": "Feature", "properties": { "kind": "parking" }, "geometry": { "type": "Point", "coordinates": [ 22.953585, 40.630334 ] } },
{ "type": "Feature", "properties": { "kind": "parking" }, "geometry": { "type": "Point", "coordinates": [ 22.952943, 40.630837 ] } },
{ "type": "Feature", "properties": { "kind": "parking" }, "geometry": { "type": "Point", "coordinates": [ 22.953279, 40.631949 ] } },
{ "type": "Feature", "properties": { "kind": "parking" }, "geometry": { "type": "Point", "coordinates": [ 22.954473, 40.632536 ] } },
{ "type": "Feature", "properties": { "kind": "parking" }, "geometry": { "type": "Point", "coordinates": [ 22.952473, 40.632761 ] } },
{ "type": "Feature", "properties": { "kind": "parking" }, "geometry": { "type": "Point", "coordinates": [ 22.952296, 40.633388 ] } },
{ "type": "Feature", "properties": { "kind": "parking" }, "geometry": { "type": "Point", "coordinates": [ 22.94532, 40.632635 ] } },
{ "type": "Feature", "properties": { "kind": "parking" }, "geometry": { "type": "Point", "coordinates": [ 22.944666, 40.63401 ] } },
{ "type": "Feature", "properties": { "kind": "parking" }, "geometry": { "type": "Point", "coordinates": [ 22.94091, 40.63404 ] } },
{ "type": "Feature", "properties": { "kind": "parking" }, "geometry": { "type": "Point", "coordinates": [ 22.94282, 40.634472 ] } },
{ "type": "Feature", "properties": { "kind": "parking" }, "geometry": { "type": "Point", "coordinates": [ 22.943112, 40.634651 ] } },
{ "type": "Feature", "properties": { "kind": "parking" }, "geometry": { "type": "Point", "coordinates": [ 22.939358, 40.634713 ] } },
{ "type": "Feature", "properties": { "kind": "parking" }, "geometry": { "type": "Point", "coordinates": [ 22.938802, 40.635713 ] } },
{ "type": "Feature", "properties": { "kind": "parking" }, "geometry": { "type": "Point", "coordinates": [ 22.936947, 40.636162 ] } },
{ "type": "Feature", "properties": { "kind": "parking" }, "geometry": { "type": "Point", "coordinates": [ 22.936505, 40.636412 ] } },
{ "type": "Feature", "properties": { "kind": "parking" }, "geometry": { "type": "Point", "coordinates": [ 22.902845, 40.653816 ] } },
{ "type": "Feature", "properties": { "kind": "parking" }, "geometry": { "type": "Point", "coordinates": [ 22.934271, 40.684341 ] } },
{ "type": "Feature", "properties": { "kind": "rental" }, "geometry": { "type": "Point", "coordinates": [ 22.923613, 40.508662 ] } },
{ "type": "Feature", "properties": { "kind": "rental" }, "geometry": { "type": "Point", "coordinates": [ 23.022014, 40.585182 ] } },
{ "type": "Feature", "properties": { "kind": "rental" }, "geometry": { "type": "Point", "coordinates": [ 22.949384, 40.597976 ] } },
{ "type": "Feature", "properties": { "kind": "rental" }, "geometry": { "type": "Point", "coordinates": [ 22.954579, 40.599967 ] } },
{ "type": "Feature", "properties": { "kind": "rental" }, "geometry": { "type": "Point", "coordinates": [ 22.951903, 40.61878 ] } },
{ "type": "Feature", "properties": { "kind": "rental" }, "geometry": { "type": "Point", "coordinates": [ 22.95172, 40.626849 ] } },
{ "type": "Feature", "properties": { "kind": "rental" }, "geometry": { "type": "Point", "coordinates": [ 22.943346, 40.633529 ] } },
{ "type": "Feature", "properties": { "kind": "rental" }, "geometry": { "type": "Point", "coordinates": [ 22.946599, 40.634852 ] } },
{ "type": "Feature", "properties": { "kind": "rental" }, "geometry": { "type": "Point", "coordinates": [ 22.935379, 40.634835 ] } }
]
}
