{
"type": "FeatureCollection",
"name": "bike_lanes_primary",
"crs": { "type": "name", "properties": { "name": "urn:ogc:def:crs:OGC:1.3:CRS84" } },
"xy_coordinate_resolution": 1e-06,
"features": [
{ "type": "Feature", "properties": { }, "geometry": { "type": "MultiLineString", "coordinates": [ [ [ 22.859103, 40.461012 ], [ 22.859145, 40.46107 ] ] ] } },
{ "type": "Feature", "properties": { }, "geometry": { "type": "MultiLineString", "coordinates": [ [ [ 22.859145, 40.46107 ], [ 22.859065, 40.461069 ] ] ] } },
{ "type": "Feature", "properties": { }, "geometry": { "type": "MultiLineString", "coordinates": [ [ [ 22.859023, 40.461072 ], [ 22.859054, 40.461085 ] ] ] } },
{ "type": "Feature", "properties": { }, "geometry": { "type": "MultiLineString", "coordinates": [ [ [ 22.859208, 40.461097 ], [ 22.859145, 40.46107 ] ] ] } },
{ "type": "Feature", "properties": { }, "geometry": { "type": "MultiLineString", "coordinates": [ [ [ 22.85896, 40.461227 ], [ 22.859082, 40.461275 ], [ 22.859208, 40.461097 ], [ 22.85933, 40.461143 ] ] ] } },
{ "type": "Feature", "properties": { }, "geometry": { "type": "MultiLineString", "coordinates": [ [ [ 22.858949, 40.461457 ], [ 22.859082, 40.461275 ] ] ] } },
{ "type": "Feature", "properties": { }, "geometry": { "type": "MultiLineString", "coordinates": [ [ [ 22.859082, 40.461275 ], [ 22.858971, 40.461466 ] ] ] } },
{ "type": "Feature", "properties": { }, "geometry": { "type": "MultiLineString", "coordinates": [ [ [ 22.858806, 40.461458 ], [ 22.858868, 40.461486 ] ] ] } },
{ "type": "Feature", "properties": { }, "geometry": { "type": "MultiLineString", "coordinates": [ [ [ 22.85892, 40.461455 ], [ 22.858864, 40.461503 ], [ 22.858935, 40.461554 ], [ 22.858996, 40.4615 ], [ 22.85892, 40.461455 ] ] ] } },
{ "type": "Feature", "properties": { }, "geometry": { "type": "MultiLineString", "coordinates": [ [ [ 22.858524, 40.462127 ], [ 22.858428, 40.462078 ], [ 22.858428, 40.462026 ], [ 22.859181, 40.460895 ], [ 22.859217, 40.460867 ], [ 22.859299, 40.460874 ], [ 22.859429, 40.460937 ], [ 22.859442, 40.460979 ], [ 22.859317, 40.46116 ], [ 22.859213, 40.461217 ], [ 22.859196, 40.461404 ], [ 22.859129, 40.461457 ], [ 22.858675, 40.462125 ], [ 22.858596, 40.46215 ], [ 22.858524, 40.462127 ] ] ] } },
{ "type": "Feature", "properties": { }, "geometry": { "type": "MultiLineString", "coordinates": [ [ [ 22.858752, 40.461776 ], [ 22.85889, 40.461543 ] ] ] } },
{ "type": "Feature", "properties": { }, "geometry": { "type": "MultiLineString", "coordinates": [ [ [ 22.858915, 40.461553 ], [ 22.858752, 40.461776 ] ] ] } },
{ "type": "Feature", "properties": { }, "geometry": { "type": "MultiLineString", "coordinates": [ [ [ 22.858628, 40.461727 ], [ 22.858878, 40.461827 ] ] ] } },
{ "type": "Feature", "properties": { }, "geometry": { "type": "MultiLineString", "coordinates": [ [ [ 22.858543, 40.461853 ], [ 22.858794, 40.461952 ] ] ] } },
{ "type": "Feature", "properties": { }, "geometry": { "type": "MultiLineString", "coordinates": [ [ [ 22.858752, 40.461776 ], [ 22.858524, 40.462127 ] ] ] } },
{ "type": "Feature", "properties": { }, "geometry": { "type": "MultiLineString", "coordinates": [ [ [ 22.93086, 40.508401 ], [ 22.930923, 40.50819 ], [ 22.930889, 40.508161 ], [ 22.930577, 40.508095 ], [ 22.930437, 40.508078 ], [ 22.930388, 40.508253 ], [ 22.930298, 40.50831 ], [ 22.92981, 40.508238 ] ] ] } },
{ "type": "Feature", "properties": { }, "geometry": { "type": "MultiLineString", "coordinates": [ [ [ 22.930474, 40.50793 ], [ 22.930437, 40.508078 ], [ 22.929922, 40.507988 ], [ 22.929871, 40.508011 ], [ 22.92975, 40.508429 ], [ 22.929771, 40.508467 ], [ 22.930012, 40.508512 ], [ 22.930153, 40.508504 ], [ 22.930397, 40.508613 ], [ 22.930583, 40.508612 ], [ 22.930661, 40.50836 ], [ 22.93086, 40.508401 ] ] ] } },
{ "type": "Feature", "properties": { }, "geometry": { "type": "MultiLineString", "coordinates": [ [ [ 22.930146, 40.508025 ], [ 22.930012, 40.508512 ] ] ] } },
{ "type": "Feature", "properties": { }, "geometry": { "type": "MultiLineString", "coordinates": [ [ [ 22.930298, 40.50831 ], [ 22.930363, 40.508374 ], [ 22.930443, 40.508329 ], [ 22.930388, 40.508253 ] ] ] } },
{ "type": "Feature", "properties": { }, "geometry": { "type": "MultiLineString", "coordinates": [ [ [ 22.902303, 40.672913 ], [ 22.903016, 40.673461 ] ] ] } },
{ "type": "Feature", "properties": { }, "geometry": { "type": "MultiLineString", "coordinates": [ [ [ 22.931573, 40.507814 ], [ 22.931653, 40.507464 ], [ 22.931129, 40.507401 ] ] ] } },
{ "type": "Feature", "properties": { }, "geometry": { "type": "MultiLineString", "coordinates": [ [ [ 22.931129, 40.507401 ], [ 22.931045, 40.507759 ] ], [ [ 22.931045, 40.507759 ], [ 22.930878, 40.508571 ], [ 22.931395, 40.508619 ], [ 22.931573, 40.507814 ], [ 22.931045, 40.507759 ] ] ] } },
{ "type": "Feature", "properties": { }, "geometry": { "type": "MultiLineString", "coordinates": [ [ [ 22.930443, 40.508329 ], [ 22.930661, 40.50836 ], [ 22.930734, 40.508124 ] ] ] } },
{ "type": "Feature", "properties": { }, "geometry": { "type": "MultiLineString", "coordinates": [ [ [ 22.949157, 40.600957 ], [ 22.949928, 40.599344 ] ] ] } },
{ "type": "Feature", "properties": { }, "geometry": { "type": "MultiLineString", "coordinates": [ [ [ 22.946406, 40.628092 ], [ 22.946378, 40.628067 ] ] ] } },
{ "type": "Feature", "properties": { }, "geometry": { "type": "MultiLineString", "coordinates": [ [ [ 22.951719, 40.63196 ], [ 22.951517, 40.631758 ], [ 22.951376, 40.631835 ], [ 22.949999, 40.630398 ], [ 22.950151, 40.630315 ], [ 22.949537, 40.629643 ], [ 22.949446, 40.629551 ], [ 22.949304, 40.629637 ], [ 22.948909, 40.629192 ], [ 22.948717, 40.629032 ], [ 22.948727, 40.628997 ], [ 22.948352, 40.628624 ], [ 22.948227, 40.628561 ], [ 22.948124, 40.62842 ], [ 22.948028, 40.628418 ], [ 22.947907, 40.628323 ], [ 22.94776, 40.628287 ], [ 22.946621, 40.62822 ], [ 22.946406, 40.628092 ] ] ] } },
{ "type": "Feature", "properties": { }, "geometry": { "type": "MultiLineString", "coordinates": [ [ [ 22.940447, 40.631939 ], [ 22.942496, 40.630738 ], [ 22.946378, 40.628067 ] ] ] } },
{ "type": "Feature", "properties": { }, "geometry": { "type": "MultiLineString", "coordinates": [ [ [ 22.93716, 40.63381 ], [ 22.937537, 40.633626 ], [ 22.940447, 40.631939 ] ] ] } },
{ "type": "Feature", "properties": { }, "geometry": { "type": "MultiLineString", "coordinates": [ [ [ 22.94162, 40.632883 ], [ 22.94263, 40.634056 ], [ 22.943729, 40.635253 ] ] ] } },
{ "type": "Feature", "properties": { }, "geometry": { "type": "MultiLineString", "coordinates": [ [ [ 22.943542, 40.63535 ], [ 22.942456, 40.634148 ], [ 22.941376, 40.633015 ] ] ] } },
{ "type": "Feature", "properties": { }, "geometry": { "type": "MultiLineString", "coordinates": [ [ [ 22.93716, 40.63381 ], [ 22.937227, 40.633886 ], [ 22.935185, 40.635263 ], [ 22.936456, 40.63637 ] ] ] } },
{ "type": "Feature", "properties": { }, "geometry": { "type": "MultiLineString", "coordinates": [ [ [ 22.936456, 40.63637 ], [ 22.936494, 40.636437 ] ] ] } },
{ "type": "Feature", "properties": { }, "geometry": { "type": "MultiLineString", "coordinates": [ [ [ 22.936494, 40.636437 ], [ 22.936335, 40.636505 ] ] ] } },
{ "type": "Feature", "properties": { }, "geometry": { "type": "MultiLineString", "coordinates": [ [ [ 22.936494, 40.636437 ], [ 22.936325, 40.638104 ], [ 22.936056, 40.639824 ], [ 22.936202, 40.639974 ] ] ] } },
{ "type": "Feature", "properties": { }, "geometry": { "type": "MultiLineString", "coordinates": [ [ [ 22.935939, 40.639937 ], [ 22.935903, 40.639933 ], [ 22.935985, 40.639365 ], [ 22.935882, 40.639201 ], [ 22.936025, 40.639108 ], [ 22.936168, 40.63816 ], [ 22.936314, 40.636709 ], [ 22.936203, 40.636577 ] ] ] } },
{ "type": "Feature", "properties": { }, "geometry": { "type": "MultiLineString", "coordinates": [ [ [ 22.936098, 40.639873 ], [ 22.935939, 40.639937 ] ] ] } },
{ "type": "Feature", "properties": { }, "geometry": { "type": "MultiLineString", "coordinates": [ [ [ 22.92803, 40.64354 ], [ 22.927949, 40.643285 ], [ 22.927991, 40.642602 ], [ 22.928112, 40.642059 ], [ 22.928186, 40.641846 ], [ 22.928367, 40.64152 ], [ 22.928509, 40.641339 ], [ 22.928816, 40.641048 ], [ 22.929319, 40.640704 ], [ 22.930191, 40.64025 ], [ 22.930642, 40.639963 ], [ 22.930929, 40.639766 ], [ 22.932099, 40.638816 ], [ 22.932826, 40.638333 ], [ 22.936335, 40.636505 ] ] ] } },
{ "type": "Feature", "properties": { }, "geometry": { "type": "MultiLineString", "coordinates": [ [ [ 22.946296, 40.654435 ], [ 22.946409, 40.65442 ], [ 22.946542, 40.654313 ] ], [ [ 22.946542, 40.654313 ], [ 22.946878, 40.653993 ], [ 22.946897, 40.653999 ], [ 22.946879, 40.654107 ], [ 22.946803, 40.654184 ], [ 22.946748, 40.654192 ], [ 22.946595, 40.654311 ], [ 22.946542, 40.654313 ] ] ] } },
{ "type": "Feature", "properties": { }, "geometry": { "type": "MultiLineString", "coordinates": [ [ [ 22.946285, 40.654368 ], [ 22.946344, 40.654311 ] ] ] } },
{ "type": "Feature", "properties": { }, "geometry": { "type": "MultiLineString", "coordinates": [ [ [ 22.94619, 40.654347 ], [ 22.946246, 40.654374 ] ] ] } },
{ "type": "Feature", "properties": { }, "geometry": { "type": "MultiLineString", "coordinates": [ [ [ 22.946255, 40.654403 ], [ 22.946246, 40.654374 ], [ 22.946285, 40.654368 ], [ 22.946295, 40.654393 ], [ 22.946255, 40.654403 ] ] ] } },
{ "type": "Feature", "properties": { }, "geometry": { "type": "MultiLineString", "coordinates": [ [ [ 22.946337, 40.654625 ], [ 22.946538, 40.654422 ], [ 22.946268, 40.654268 ], [ 22.946067, 40.654472 ], [ 22.946337, 40.654625 ] ] ] } },
{ "type": "Feature", "properties": { }, "geometry": { "type": "MultiLineString", "coordinates": [ [ [ 22.946281, 40.654405 ], [ 22.946343, 40.654522 ] ] ] } },
{ "type": "Feature", "properties": { }, "geometry": { "type": "MultiLineString", "coordinates": [ [ [ 22.946134, 40.654404 ], [ 22.946405, 40.654556 ] ] ] } },
{ "type": "Feature", "properties": { }, "geometry": { "type": "MultiLineString", "coordinates": [ [ [ 22.946176, 40.654534 ], [ 22.94624, 40.654464 ] ] ] } },
{ "type": "Feature", "properties": { }, "geometry": { "type": "MultiLineString", "coordinates": [ [ [ 22.90302, 40.672682 ], [ 22.902965, 40.673131 ], [ 22.903106, 40.674309 ], [ 22.903093, 40.674581 ], [ 22.902991, 40.674977 ], [ 22.902425, 40.676071 ] ] ] } },
{ "type": "Feature", "properties": { }, "geometry": { "type": "MultiLineString", "coordinates": [ [ [ 22.923443, 40.677098 ], [ 22.92369, 40.677074 ], [ 22.92423, 40.677112 ], [ 22.924462, 40.677072 ], [ 22.924742, 40.676971 ] ] ] } },
{ "type": "Feature", "properties": { }, "geometry": { "type": "MultiLineString", "coordinates": [ [ [ 22.911015, 40.677527 ], [ 22.917638, 40.677318 ], [ 22.918468, 40.677301 ], [ 22.919187, 40.677346 ], [ 22.920096, 40.677225 ], [ 22.92119, 40.677224 ], [ 22.921824, 40.677151 ], [ 22.922536, 40.677195 ], [ 22.923192, 40.677136 ] ] ] } },
{ "type": "Feature", "properties": { }, "geometry": { "type": "MultiLineString", "coordinates": [ [ [ 22.910964, 40.677528 ], [ 22.911015, 40.677527 ] ] ] } },
{ "type": "Feature", "properties": { }, "geometry": { "type": "MultiLineString", "coordinates": [ [ [ 22.908463, 40.677508 ], [ 22.908479, 40.677569 ], [ 22.908595, 40.677614 ], [ 22.910964, 40.677528 ] ] ] } },
{ "type": "Feature", "properties": { }, "geometry": { "type": "MultiLineString", "coordinates": [ [ [ 22.988617, 40.498372 ], [ 22.988557, 40.498347 ] ] ] } },
{ "type": "Feature", "properties": { }, "geometry": { "type": "MultiLineString", "coordinates": [ [ [ 22.988573, 40.498589 ], [ 22.988512, 40.498417 ], [ 22.988557, 40.498347 ] ] ] } },
{ "type": "Feature", "properties": { }, "geometry": { "type": "MultiLineString", "coordinates": [ [ [ 22.988617, 40.498372 ], [ 22.988964, 40.499392 ] ] ] } },
{ "type": "Feature", "properties": { }, "geometry": { "type": "MultiLineString", "coordinates": [ [ [ 22.990595, 40.505322 ], [ 22.989821, 40.502499 ], [ 22.988573, 40.498589 ] ] ] } },
{ "type": "Feature", "properties": { }, "geometry": { "type": "MultiLineString", "coordinates": [ [ [ 22.989619, 40.501441 ], [ 22.990392, 40.504094 ] ] ] } },
{ "type": "Feature", "properties": { }, "geometry": { "type": "MultiLineString", "coordinates": [ [ [ 22.990627, 40.504987 ], [ 22.990854, 40.50581 ] ] ] } },
{ "type": "Feature", "properties": { }, "geometry": { "type": "MultiLineString", "coordinates": [ [ [ 22.990854, 40.50581 ], [ 22.990935, 40.506151 ] ] ] } },
{ "type": "Feature", "properties": { }, "geometry": { "type": "MultiLineString", "coordinates": [ [ [ 22.991092, 40.507219 ], [ 22.990595, 40.505322 ] ] ] } },
{ "type": "Feature", "properties": { }, "geometry": { "type": "MultiLineString", "coordinates": [ [ [ 22.991119, 40.50741 ], [ 22.991092, 40.507219 ] ] ] } },
{ "type": "Feature", "properties": { }, "geometry": { "type": "MultiLineString", "coordinates": [ [ [ 22.991134, 40.508223 ], [ 22.991119, 40.50741 ] ] ] } },
{ "type": "Feature", "properties": { }, "geometry": { "type": "MultiLineString", "coordinates": [ [ [ 22.99124, 40.507522 ], [ 22.991261, 40.507877 ], [ 22.991174, 40.508756 ] ] ] } },
{ "type": "Feature", "properties": { }, "geometry": { "type": "MultiLineString", "coordinates": [ [ [ 22.991089, 40.508569 ], [ 22.991134, 40.508223 ] ] ] } },
{ "type": "Feature", "properties": { }, "geometry": { "type": "MultiLineString", "coordinates": [ [ [ 22.990999, 40.509116 ], [ 22.991089, 40.508569 ] ] ] } },
{ "type": "Feature", "properties": { }, "geometry": { "type": "MultiLineString", "coordinates": [ [ [ 22.991174, 40.508756 ], [ 22.991058, 40.509515 ], [ 22.990926, 40.510083 ], [ 22.990661, 40.510666 ], [ 22.99055, 40.510828 ] ] ] } },
{ "type": "Feature", "properties": { }, "geometry": { "type": "MultiLineString", "coordinates": [ [ [ 22.990543, 40.510744 ], [ 22.990526, 40.510643 ], [ 22.990789, 40.510092 ], [ 22.990877, 40.509782 ], [ 22.990999, 40.509116 ] ] ] } },
{ "type": "Feature", "properties": { }, "geometry": { "type": "MultiLineString", "coordinates": [ [ [ 22.99044, 40.511088 ], [ 22.99029, 40.511383 ], [ 22.990045, 40.511711 ], [ 22.989907, 40.511837 ], [ 22.989697, 40.511944 ], [ 22.989518, 40.511933 ] ] ] } },
{ "type": "Feature", "properties": { }, "geometry": { "type": "MultiLineString", "coordinates": [ [ [ 23.059879, 40.527072 ], [ 23.060839, 40.528087 ], [ 23.061658, 40.529164 ], [ 23.064675, 40.530951 ], [ 23.064844, 40.531014 ], [ 23.064958, 40.531031 ], [ 23.068736, 40.530975 ], [ 23.071351, 40.530549 ], [ 23.071847, 40.530418 ], [ 23.072395, 40.53019 ], [ 23.072517, 40.530233 ] ] ] } },
{ "type": "Feature", "properties": { }, "geometry": { "type": "MultiLineString", "coordinates": [ [ [ 22.967486, 40.619776 ], [ 22.967492, 40.621253 ], [ 22.967473, 40.621407 ], [ 22.967317, 40.621704 ], [ 22.967249, 40.621765 ] ] ] } },
{ "type": "Feature", "properties": { }, "geometry": { "type": "MultiLineString", "coordinates": [ [ [ 22.967461, 40.622015 ], [ 22.967753, 40.621474 ], [ 22.967751, 40.619668 ] ] ] } },
{ "type": "Feature", "properties": { }, "geometry": { "type": "MultiLineString", "coordinates": [ [ [ 22.953721, 40.631772 ], [ 22.953607, 40.631825 ], [ 22.95358, 40.631918 ] ] ] } },
{ "type": "Feature", "properties": { }, "geometry": { "type": "MultiLineString", "coordinates": [ [ [ 22.94961, 40.583076 ], [ 22.949824, 40.583108 ], [ 22.950607, 40.58353 ] ] ] } },
{ "type": "Feature", "properties": { }, "geometry": { "type": "MultiLineString", "coordinates": [ [ [ 22.950722, 40.583594 ], [ 22.951697, 40.58414 ], [ 22.952424, 40.58435 ] ] ] } },
{ "type": "Feature", "properties": { }, "geometry": { "type": "MultiLineString", "coordinates": [ [ [ 22.946378, 40.628067 ], [ 22.947259, 40.627439 ], [ 22.947327, 40.627341 ], [ 22.948032, 40.625498 ], [ 22.948167, 40.625224 ], [ 22.948656, 40.624893 ], [ 22.949105, 40.624502 ], [ 22.951206, 40.623076 ], [ 22.952039, 40.621093 ], [ 22.951763, 40.618393 ], [ 22.950243, 40.607109 ], [ 22.949157, 40.600957 ] ] ] } },
{ "type": "Feature", "properties": { }, "geometry": { "type": "MultiLineString", "coordinates": [ [ [ 22.952267, 40.616952 ], [ 22.95221, 40.616778 ] ] ] } },
{ "type": "Feature", "properties": { }, "geometry": { "type": "MultiLineString", "coordinates": [ [ [ 22.951948, 40.617045 ], [ 22.951929, 40.616843 ] ] ] } },
{ "type": "Feature", "properties": { }, "geometry": { "type": "MultiLineString", "coordinates": [ [ [ 22.952397, 40.617008 ], [ 22.952636, 40.616973 ] ] ] } },
{ "type": "Feature", "properties": { }, "geometry": { "type": "MultiLineString", "coordinates": [ [ [ 22.951939, 40.616943 ], [ 22.951855, 40.617051 ] ] ] } },
{ "type": "Feature", "properties": { }, "geometry": { "type": "MultiLineString", "coordinates": [ [ [ 22.952333, 40.616954 ], [ 22.952397, 40.617008 ], [ 22.952393, 40.617058 ], [ 22.952319, 40.617106 ], [ 22.952249, 40.6171 ], [ 22.952195, 40.617008 ], [ 22.952235, 40.616964 ], [ 22.952333, 40.616954 ] ] ] } },
{ "type": "Feature", "properties": { }, "geometry": { "type": "MultiLineString", "coordinates": [ [ [ 22.952088, 40.617042 ], [ 22.952191, 40.617035 ] ] ] } },
{ "type": "Feature", "properties": { }, "geometry": { "type": "MultiLineString", "coordinates": [ [ [ 22.951976, 40.616934 ], [ 22.952088, 40.617042 ], [ 22.952004, 40.61717 ] ] ] } },
{ "type": "Feature", "properties": { }, "geometry": { "type": "MultiLineString", "coordinates": [ [ [ 22.951965, 40.616838 ], [ 22.952041, 40.617263 ], [ 22.952233, 40.617343 ] ] ] } },
{ "type": "Feature", "properties": { }, "geometry": { "type": "MultiLineString", "coordinates": [ [ [ 22.952347, 40.617333 ], [ 22.952233, 40.617343 ], [ 22.951989, 40.617469 ], [ 22.951873, 40.617467 ], [ 22.951841, 40.617429 ], [ 22.95178, 40.616865 ], [ 22.952508, 40.616759 ] ], [ [ 22.952508, 40.616759 ], [ 22.952559, 40.617147 ], [ 22.95268, 40.617157 ], [ 22.952558, 40.616753 ], [ 22.952508, 40.616759 ] ] ] } },
{ "type": "Feature", "properties": { }, "geometry": { "type": "MultiLineString", "coordinates": [ [ [ 22.952319, 40.617106 ], [ 22.952348, 40.617301 ] ] ] } },
{ "type": "Feature", "properties": { }, "geometry": { "type": "MultiLineString", "coordinates": [ [ [ 22.952049, 40.617433 ], [ 22.951973, 40.617349 ], [ 22.951948, 40.617045 ], [ 22.951801, 40.617054 ] ] ] } },
{ "type": "Feature", "properties": { }, "geometry": { "type": "MultiLineString", "coordinates": [ [ [ 22.952435, 40.617288 ], [ 22.952483, 40.617305 ], [ 22.952509, 40.617361 ], [ 22.952465, 40.617409 ], [ 22.952407, 40.617415 ], [ 22.952358, 40.617392 ], [ 22.952348, 40.617301 ], [ 22.952435, 40.617288 ] ] ] } },
{ "type": "Feature", "properties": { }, "geometry": { "type": "MultiLineString", "coordinates": [ [ [ 22.952852, 40.626218 ], [ 22.952979, 40.626207 ] ] ] } },
{ "type": "Feature", "properties": { }, "geometry": { "type": "MultiLineString", "coordinates": [ [ [ 22.952672, 40.626211 ], [ 22.952852, 40.626218 ] ] ] } },
{ "type": "Feature", "properties": { }, "geometry": { "type": "MultiLineString", "coordinates": [ [ [ 22.952979, 40.626207 ], [ 22.952985, 40.626262 ] ] ] } },
{ "type": "Feature", "properties": { }, "geometry": { "type": "MultiLineString", "coordinates": [ [ [ 22.952985, 40.626262 ], [ 22.953002, 40.626451 ] ] ] } },
{ "type": "Feature", "properties": { }, "geometry": { "type": "MultiLineString", "coordinates": [ [ [ 22.953002, 40.626451 ], [ 22.953035, 40.626599 ], [ 22.953128, 40.626629 ] ] ] } },
{ "type": "Feature", "properties": { }, "geometry": { "type": "MultiLineString", "coordinates": [ [ [ 22.953128, 40.626629 ], [ 22.953531, 40.629281 ] ] ] } },
{ "type": "Feature", "properties": { }, "geometry": { "type": "MultiLineString", "coordinates": [ [ [ 22.953531, 40.629281 ], [ 22.953541, 40.629355 ] ] ] } },
{ "type": "Feature", "properties": { }, "geometry": { "type": "MultiLineString", "coordinates": [ [ [ 22.953541, 40.629355 ], [ 22.953655, 40.630398 ], [ 22.953624, 40.630419 ], [ 22.95364, 40.630528 ], [ 22.953676, 40.630548 ], [ 22.953636, 40.630607 ], [ 22.953642, 40.630708 ] ] ] } },
{ "type": "Feature", "properties": { }, "geometry": { "type": "MultiLineString", "coordinates": [ [ [ 22.953376, 40.631251 ], [ 22.953804, 40.631691 ], [ 22.953699, 40.631747 ], [ 22.953721, 40.631772 ] ] ] } },
{ "type": "Feature", "properties": { }, "geometry": { "type": "MultiLineString", "coordinates": [ [ [ 22.95358, 40.631918 ], [ 22.953477, 40.631966 ], [ 22.953422, 40.631928 ] ] ] } },
{ "type": "Feature", "properties": { }, "geometry": { "type": "MultiLineString", "coordinates": [ [ [ 22.953721, 40.631772 ], [ 22.954318, 40.632422 ], [ 22.954452, 40.632352 ] ] ] } },
{ "type": "Feature", "properties": { }, "geometry": { "type": "MultiLineString", "coordinates": [ [ [ 22.954452, 40.632352 ], [ 22.954543, 40.632305 ] ] ] } },
{ "type": "Feature", "properties": { }, "geometry": { "type": "MultiLineString", "coordinates": [ [ [ 22.954543, 40.632305 ], [ 22.956187, 40.634101 ], [ 22.956355, 40.634198 ], [ 22.956564, 40.634225 ] ] ] } },
{ "type": "Feature", "properties": { }, "geometry": { "type": "MultiLineString", "coordinates": [ [ [ 22.960563, 40.666182 ], [ 22.960527, 40.666198 ], [ 22.960545, 40.666297 ], [ 22.960502, 40.666401 ], [ 22.960326, 40.666508 ], [ 22.960117, 40.666529 ], [ 22.95997, 40.666469 ], [ 22.959837, 40.666336 ], [ 22.959758, 40.666318 ], [ 22.959503, 40.666335 ], [ 22.958568, 40.666501 ], [ 22.958344, 40.666515 ], [ 22.957339, 40.666497 ], [ 22.956852, 40.666434 ], [ 22.956324, 40.666517 ], [ 22.955875, 40.666803 ] ] ] } }
]
}
