{
"type": "FeatureCollection",
"name": "culture_lines",
"crs": { "type": "name", "properties": { "name": "urn:ogc:def:crs:OGC:1.3:CRS84" } },
"xy_coordinate_resolution": 1e-06,
"features": [
{ "type": "Feature", "properties": { "culture_type": "Culture", "culture_subtype": "Historic site", "culture_source": "culture_extra", "historic": null, "symbol_origin": "none" }, "geometry": { "type": "LineString", "coordinates": [ [ 22.94823, 40.626593 ], [ 22.948134, 40.626544 ], [ 22.948093, 40.626508 ], [ 22.948067, 40.62643 ], [ 22.948062, 40.626377 ], [ 22.948124, 40.626196 ], [ 22.948263, 40.626148 ], [ 22.94834, 40.626143 ], [ 22.948404, 40.626146 ], [ 22.94854, 40.626154 ], [ 22.948655, 40.626235 ] ] } },
{ "type": "Feature", "properties": { "culture_type": "Culture", "culture_subtype": "Historic site", "culture_source": "culture_extra", "historic": null, "symbol_origin": "none" }, "geometry": { "type": "LineString", "coordinates": [ [ 22.949813, 40.627865 ], [ 22.950129, 40.628194 ] ] } },
{ "type": "Feature", "properties": { "culture_type": "Culture", "culture_subtype": "Historic site", "culture_source": "culture_extra", "historic": null, "symbol_origin": "none" }, "geometry": { "type": "LineString", "coordinates": [ [ 22.950309, 40.628345 ], [ 22.950685, 40.628721 ] ] } },
{ "type": "Feature", "properties": { "culture_type": "Culture", "culture_subtype": "Historic site", "culture_source": "culture_extra", "historic": null, "symbol_origin": "none" }, "geometry": { "type": "LineString", "coordinates": [ [ 22.951716, 40.629894 ], [ 22.951882, 40.630059 ] ] } },
{ "type": "Feature", "properties": { "culture_type": "Culture", "culture_subtype": "Historic site", "culture_source": "culture_extra", "historic": null, "symbol_origin": "none" }, "geometry": { "type": "LineString", "coordinates": [ [ 22.953129, 40.631429 ], [ 22.95324, 40.631575 ] ] } },
{ "type": "Feature", "properties": { "culture_type": "Culture", "culture_subtype": "Historic site", "culture_source": "culture_extra", "historic": null, "symbol_origin": "none" }, "geometry": { "type": "LineString", "coordinates": [ [ 22.953356, 40.631372 ], [ 22.953607, 40.631705 ] ] } },
{ "type": "Feature", "properties": { "culture_type": "Culture", "culture_subtype": "Historic site", "culture_source": "culture_extra", "historic": null, "symbol_origin": "none" }, "geometry": { "type": "LineString", "coordinates": [ [ 22.953141, 40.631396 ], [ 22.953312, 40.631415 ], [ 22.953289, 40.631561 ], [ 22.953319, 40.63161 ], [ 22.953278, 40.631627 ], [ 22.953496, 40.63191 ] ] } },
{ "type": "Feature", "properties": { "culture_type": "Culture", "culture_subtype": "Historic site", "culture_source": "culture_extra", "historic": null, "symbol_origin": "none" }, "geometry": { "type": "LineString", "coordinates": [ [ 22.953676, 40.632143 ], [ 22.954318, 40.632979 ], [ 22.954554, 40.632979 ], [ 22.954553, 40.633054 ] ] } },
{ "type": "Feature", "properties": { "culture_type": "Culture", "culture_subtype": "Historic site", "culture_source": "culture_extra", "historic": "citywalls", "symbol_origin": "none" }, "geometry": { "type": "LineString", "coordinates": [ [ 22.954291, 40.642863 ], [ 22.954312, 40.642909 ], [ 22.954238, 40.642928 ], [ 22.95422, 40.642887 ], [ 22.953924, 40.642963 ], [ 22.953636, 40.643057 ] ] } },
{ "type": "Feature", "properties": { "culture_type": "Culture", "culture_subtype": "Historic site", "culture_source": "culture_extra", "historic": "citywalls", "symbol_origin": "none" }, "geometry": { "type": "LineString", "coordinates": [ [ 22.953497, 40.643141 ], [ 22.953315, 40.643241 ], [ 22.953297, 40.64322 ], [ 22.953056, 40.64333 ] ] } },
{ "type": "Feature", "properties": { "culture_type": "Culture", "culture_subtype": "Historic site", "culture_source": "culture_extra", "historic": null, "symbol_origin": "none" }, "geometry": { "type": "LineString", "coordinates": [ [ 22.933848, 40.638259 ], [ 22.934141, 40.638251 ], [ 22.93422, 40.638248 ] ] } },
{ "type": "Feature", "properties": { "culture_type": "Culture", "culture_subtype": "Historic site", "culture_source": "culture_extra", "historic": "citywalls", "symbol_origin": "none" }, "geometry": { "type": "LineString", "coordinates": [ [ 22.933848, 40.638259 ], [ 22.933848, 40.638255 ], [ 22.933801, 40.638256 ], [ 22.933751, 40.638258 ], [ 22.933751, 40.638263 ] ] } },
{ "type": "Feature", "properties": { "culture_type": "Culture", "culture_subtype": "Historic site", "culture_source": "culture_extra", "historic": null, "symbol_origin": "none" }, "geometry": { "type": "LineString", "coordinates": [ [ 22.934141, 40.638251 ], [ 22.934143, 40.63828 ] ] } },
{ "type": "Feature", "properties": { "culture_type": "Culture", "culture_subtype": "Historic site", "culture_source": "culture_extra", "historic": "citywalls", "symbol_origin": "none" }, "geometry": { "type": "LineString", "coordinates": [ [ 22.934223, 40.638296 ], [ 22.93422, 40.638248 ] ] } },
{ "type": "Feature", "properties": { "culture_type": "Culture", "culture_subtype": "Historic site", "culture_source": "culture_extra", "historic": null, "symbol_origin": "none" }, "geometry": { "type": "LineString", "coordinates": [ [ 22.93385, 40.63829 ], [ 22.933848, 40.638259 ] ] } },
{ "type": "Feature", "properties": { "culture_type": "Culture", "culture_subtype": "Historic site", "culture_source": "culture_extra", "historic": null, "symbol_origin": "none" }, "geometry": { "type": "LineString", "coordinates": [ [ 22.933751, 40.638263 ], [ 22.933753, 40.63829 ] ] } },
{ "type": "Feature", "properties": { "culture_type": "Culture", "culture_subtype": "Historic site", "culture_source": "culture_extra", "historic": null, "symbol_origin": "none" }, "geometry": { "type": "LineString", "coordinates": [ [ 22.93385, 40.63829 ], [ 22.934143, 40.63828 ] ] } },
{ "type": "Feature", "properties": { "culture_type": "Culture", "culture_subtype": "Historic site", "culture_source": "culture_extra", "historic": null, "symbol_origin": "none" }, "geometry": { "type": "LineString", "coordinates": [ [ 22.934143, 40.63828 ], [ 22.934146, 40.638334 ], [ 22.934224, 40.638332 ] ] } },
{ "type": "Feature", "properties": { "culture_type": "Culture", "culture_subtype": "Historic site", "culture_source": "culture_extra", "historic": "citywalls", "symbol_origin": "none" }, "geometry": { "type": "LineString", "coordinates": [ [ 22.934223, 40.638296 ], [ 22.934289, 40.6383 ], [ 22.934321, 40.638321 ] ] } },
{ "type": "Feature", "properties": { "culture_type": "Culture", "culture_subtype": "Historic site", "culture_source": "culture_extra", "historic": null, "symbol_origin": "none" }, "geometry": { "type": "LineString", "coordinates": [ [ 22.934321, 40.638321 ], [ 22.934224, 40.638332 ] ] } },
{ "type": "Feature", "properties": { "culture_type": "Culture", "culture_subtype": "Historic site", "culture_source": "culture_extra", "historic": null, "symbol_origin": "none" }, "geometry": { "type": "LineString", "coordinates": [ [ 22.932617, 40.638757 ], [ 22.932736, 40.638525 ], [ 22.933061, 40.638334 ], [ 22.93325, 40.63828 ], [ 22.933751, 40.638263 ] ] } },
{ "type": "Feature", "properties": { "culture_type": "Culture", "culture_subtype": "Historic site", "culture_source": "culture_extra", "historic": null, "symbol_origin": "none" }, "geometry": { "type": "LineString", "coordinates": [ [ 22.932645, 40.638761 ], [ 22.93276, 40.63854 ], [ 22.93308, 40.638355 ], [ 22.933259, 40.638304 ], [ 22.933708, 40.638293 ], [ 22.933753, 40.63829 ] ] } },
{ "type": "Feature", "properties": { "culture_type": "Culture", "culture_subtype": "Historic site", "culture_source": "culture_extra", "historic": "citywalls", "symbol_origin": "none" }, "geometry": { "type": "LineString", "coordinates": [ [ 22.932617, 40.638757 ], [ 22.932606, 40.638762 ], [ 22.932598, 40.63877 ], [ 22.932596, 40.63878 ], [ 22.9326, 40.63879 ], [ 22.932607, 40.638796 ], [ 22.932617, 40.6388 ] ] } },
{ "type": "Feature", "properties": { "culture_type": "Culture", "culture_subtype": "Historic site", "culture_source": "culture_extra", "historic": null, "symbol_origin": "none" }, "geometry": { "type": "LineString", "coordinates": [ [ 22.932638, 40.638799 ], [ 22.932643, 40.638797 ], [ 22.932652, 40.63879 ], [ 22.932656, 40.63878 ], [ 22.932653, 40.63877 ], [ 22.932645, 40.638761 ] ] } },
{ "type": "Feature", "properties": { "culture_type": "Culture", "culture_subtype": "Historic site", "culture_source": "culture_extra", "historic": null, "symbol_origin": "none" }, "geometry": { "type": "LineString", "coordinates": [ [ 22.932696, 40.638914 ], [ 22.932723, 40.638869 ], [ 22.932618, 40.638837 ], [ 22.932638, 40.638799 ] ] } },
{ "type": "Feature", "properties": { "culture_type": "Culture", "culture_subtype": "Historic site", "culture_source": "culture_extra", "historic": "citywalls", "symbol_origin": "none" }, "geometry": { "type": "LineString", "coordinates": [ [ 22.932617, 40.6388 ], [ 22.932564, 40.638889 ], [ 22.932696, 40.638914 ] ] } },
{ "type": "Feature", "properties": { "culture_type": "Culture", "culture_subtype": "Historic site", "culture_source": "culture_extra", "historic": null, "symbol_origin": "none" }, "geometry": { "type": "LineString", "coordinates": [ [ 22.93336, 40.63914 ], [ 22.933405, 40.639149 ], [ 22.933698, 40.639112 ] ] } },
{ "type": "Feature", "properties": { "culture_type": "Culture", "culture_subtype": "Historic site", "culture_source": "culture_extra", "historic": null, "symbol_origin": "none" }, "geometry": { "type": "LineString", "coordinates": [ [ 22.934913, 40.640112 ], [ 22.93481, 40.640097 ], [ 22.934859, 40.639995 ], [ 22.934798, 40.639897 ], [ 22.934676, 40.639875 ], [ 22.934701, 40.63979 ], [ 22.934642, 40.639698 ], [ 22.93452, 40.639658 ], [ 22.934564, 40.639592 ], [ 22.934488, 40.639449 ], [ 22.934383, 40.639424 ], [ 22.93441, 40.639351 ], [ 22.934328, 40.639234 ], [ 22.934228, 40.639224 ], [ 22.934259, 40.639112 ], [ 22.934185, 40.639053 ], [ 22.933748, 40.639106 ], [ 22.933698, 40.639112 ] ] } },
{ "type": "Feature", "properties": { "culture_type": "Culture", "culture_subtype": "Historic site", "culture_source": "culture_extra", "historic": null, "symbol_origin": "none" }, "geometry": { "type": "LineString", "coordinates": [ [ 22.935664, 40.641118 ], [ 22.935587, 40.641095 ], [ 22.935619, 40.641029 ], [ 22.935529, 40.640905 ], [ 22.935436, 40.640882 ], [ 22.935462, 40.640818 ] ] } },
{ "type": "Feature", "properties": { "culture_type": "Culture", "culture_subtype": "Historic site", "culture_source": "culture_extra", "historic": null, "symbol_origin": "none" }, "geometry": { "type": "LineString", "coordinates": [ [ 22.936054, 40.64166 ], [ 22.935972, 40.641527 ], [ 22.935954, 40.641511 ], [ 22.935888, 40.64149 ], [ 22.935908, 40.641431 ], [ 22.935813, 40.641302 ], [ 22.935737, 40.641281 ], [ 22.935761, 40.641216 ] ] } },
{ "type": "Feature", "properties": { "culture_type": "Culture", "culture_subtype": "Historic site", "culture_source": "culture_extra", "historic": null, "symbol_origin": "none" }, "geometry": { "type": "LineString", "coordinates": [ [ 22.937246, 40.643604 ], [ 22.937305, 40.643403 ], [ 22.937271, 40.643362 ], [ 22.937131, 40.643308 ], [ 22.937157, 40.643234 ], [ 22.93708, 40.643135 ], [ 22.936972, 40.64311 ], [ 22.937001, 40.643041 ], [ 22.936917, 40.642919 ], [ 22.936822, 40.642894 ], [ 22.936856, 40.642808 ], [ 22.936777, 40.642692 ], [ 22.936673, 40.642663 ], [ 22.936694, 40.64258 ], [ 22.936604, 40.642447 ], [ 22.936496, 40.642418 ], [ 22.936527, 40.642345 ], [ 22.936456, 40.642225 ], [ 22.93634, 40.642202 ], [ 22.93637, 40.642132 ], [ 22.936281, 40.641992 ], [ 22.936175, 40.641967 ], [ 22.936187, 40.64194 ] ] } },
{ "type": "Feature", "properties": { "culture_type": "Culture", "culture_subtype": "Historic site", "culture_source": "culture_extra", "historic": null, "symbol_origin": "none" }, "geometry": { "type": "LineString", "coordinates": [ [ 22.937345, 40.643836 ], [ 22.937324, 40.643772 ] ] } },
{ "type": "Feature", "properties": { "culture_type": "Culture", "culture_subtype": "Historic site", "culture_source": "culture_extra", "historic": null, "symbol_origin": "none" }, "geometry": { "type": "LineString", "coordinates": [ [ 22.93793, 40.644302 ], [ 22.937796, 40.644138 ], [ 22.937742, 40.644072 ], [ 22.937676, 40.644073 ], [ 22.937688, 40.644023 ], [ 22.937538, 40.643909 ], [ 22.937345, 40.643836 ], [ 22.937332, 40.643831 ], [ 22.93728, 40.643799 ] ] } },
{ "type": "Feature", "properties": { "culture_type": "Culture", "culture_subtype": "Historic site", "culture_source": "culture_extra", "historic": "citywalls", "symbol_origin": "none" }, "geometry": { "type": "LineString", "coordinates": [ [ 22.940619, 40.644087 ], [ 22.940588, 40.644101 ], [ 22.940032, 40.644366 ], [ 22.9399, 40.644428 ] ] } },
{ "type": "Feature", "properties": { "culture_type": "Culture", "culture_subtype": "Historic site", "culture_source": "culture_extra", "historic": null, "symbol_origin": "none" }, "geometry": { "type": "LineString", "coordinates": [ [ 22.939867, 40.644444 ], [ 22.939674, 40.644534 ] ] } },
{ "type": "Feature", "properties": { "culture_type": "Culture", "culture_subtype": "Historic site", "culture_source": "culture_extra", "historic": null, "symbol_origin": "none" }, "geometry": { "type": "LineString", "coordinates": [ [ 22.939212, 40.644731 ], [ 22.939027, 40.644731 ], [ 22.93897, 40.644731 ], [ 22.938906, 40.644805 ], [ 22.93883, 40.644734 ], [ 22.938548, 40.644741 ], [ 22.938535, 40.644769 ], [ 22.938418, 40.644734 ], [ 22.938433, 40.644708 ], [ 22.938276, 40.644657 ], [ 22.938097, 40.644678 ], [ 22.938072, 40.644574 ], [ 22.938062, 40.644532 ], [ 22.938038, 40.644487 ], [ 22.937987, 40.644409 ], [ 22.93795, 40.644425 ], [ 22.937894, 40.644348 ], [ 22.937929, 40.644334 ] ] } },
{ "type": "Feature", "properties": { "culture_type": "Culture", "culture_subtype": "Historic site", "culture_source": "culture_extra", "historic": null, "symbol_origin": "none" }, "geometry": { "type": "LineString", "coordinates": [ [ 22.93946, 40.644659 ], [ 22.939466, 40.644688 ], [ 22.939407, 40.644788 ], [ 22.939279, 40.644738 ] ] } },
{ "type": "Feature", "properties": { "culture_type": "Culture", "culture_subtype": "Historic site", "culture_source": "culture_extra", "historic": null, "symbol_origin": "none" }, "geometry": { "type": "LineString", "coordinates": [ [ 22.941533, 40.643241 ], [ 22.941665, 40.643161 ] ] } },
{ "type": "Feature", "properties": { "culture_type": "Culture", "culture_subtype": "Historic site", "culture_source": "culture_extra", "historic": "citywalls", "symbol_origin": "none" }, "geometry": { "type": "LineString", "coordinates": [ [ 22.953056, 40.64333 ], [ 22.952972, 40.64337 ] ] } },
{ "type": "Feature", "properties": { "culture_type": "Culture", "culture_subtype": "Historic site", "culture_source": "culture_extra", "historic": null, "symbol_origin": "none" }, "geometry": { "type": "LineString", "coordinates": [ [ 22.942321, 40.643538 ], [ 22.942325, 40.643585 ], [ 22.94221, 40.643588 ], [ 22.942206, 40.643549 ], [ 22.942185, 40.643549 ], [ 22.941835, 40.643549 ], [ 22.941796, 40.643549 ] ] } },
{ "type": "Feature", "properties": { "culture_type": "Culture", "culture_subtype": "Historic site", "culture_source": "culture_extra", "historic": null, "symbol_origin": "none" }, "geometry": { "type": "LineString", "coordinates": [ [ 22.943091, 40.643782 ], [ 22.942911, 40.643604 ], [ 22.94287, 40.643626 ], [ 22.942793, 40.643548 ], [ 22.942711, 40.643548 ], [ 22.942466, 40.643547 ], [ 22.942448, 40.643547 ] ] } },
{ "type": "Feature", "properties": { "culture_type": "Culture", "culture_subtype": "Historic site", "culture_source": "culture_extra", "historic": null, "symbol_origin": "none" }, "geometry": { "type": "LineString", "coordinates": [ [ 22.948995, 40.643633 ], [ 22.94862, 40.643742 ], [ 22.948472, 40.643772 ], [ 22.948057, 40.643857 ] ] } },
{ "type": "Feature", "properties": { "culture_type": "Culture", "culture_subtype": "Historic site", "culture_source": "culture_extra", "historic": null, "symbol_origin": "none" }, "geometry": { "type": "LineString", "coordinates": [ [ 22.941483, 40.643595 ], [ 22.941386, 40.643629 ], [ 22.941438, 40.643715 ], [ 22.941296, 40.643765 ], [ 22.941243, 40.643679 ] ] } },
{ "type": "Feature", "properties": { "culture_type": "Culture", "culture_subtype": "Historic site", "culture_source": "culture_extra", "historic": null, "symbol_origin": "none" }, "geometry": { "type": "LineString", "coordinates": [ [ 22.950168, 40.644053 ], [ 22.950009, 40.643932 ], [ 22.949757, 40.643715 ], [ 22.949698, 40.643718 ], [ 22.949702, 40.643676 ], [ 22.949508, 40.643508 ], [ 22.949242, 40.643571 ] ] } },
{ "type": "Feature", "properties": { "culture_type": "Culture", "culture_subtype": "Historic site", "culture_source": "culture_extra", "historic": "citywalls", "symbol_origin": "none" }, "geometry": { "type": "LineString", "coordinates": [ [ 22.952972, 40.64337 ], [ 22.953026, 40.643431 ], [ 22.952933, 40.643474 ], [ 22.952913, 40.643453 ], [ 22.952687, 40.643568 ], [ 22.952694, 40.643697 ], [ 22.952505, 40.643847 ], [ 22.952467, 40.643906 ], [ 22.95223, 40.644464 ], [ 22.952289, 40.644479 ], [ 22.952335, 40.644516 ], [ 22.952286, 40.644551 ], [ 22.952239, 40.644554 ], [ 22.952182, 40.644516 ] ] } },
{ "type": "Feature", "properties": { "culture_type": "Culture", "culture_subtype": "Historic site", "culture_source": "culture_extra", "historic": "citywalls", "symbol_origin": "none" }, "geometry": { "type": "LineString", "coordinates": [ [ 22.941243, 40.643679 ], [ 22.941038, 40.64376 ], [ 22.941006, 40.643797 ], [ 22.940948, 40.643824 ], [ 22.940845, 40.643871 ], [ 22.940757, 40.643911 ], [ 22.940675, 40.643951 ], [ 22.94074, 40.644028 ], [ 22.940619, 40.644087 ] ] } },
{ "type": "Feature", "properties": { "culture_type": "Culture", "culture_subtype": "Historic site", "culture_source": "culture_extra", "historic": null, "symbol_origin": "none" }, "geometry": { "type": "LineString", "coordinates": [ [ 22.943331, 40.644096 ], [ 22.943252, 40.644017 ], [ 22.9433, 40.64399 ], [ 22.94327, 40.643962 ], [ 22.943171, 40.643868 ], [ 22.94313, 40.643823 ] ] } },
{ "type": "Feature", "properties": { "culture_type": "Culture", "culture_subtype": "Historic site", "culture_source": "culture_extra", "historic": null, "symbol_origin": "none" }, "geometry": { "type": "LineString", "coordinates": [ [ 22.947929, 40.643898 ], [ 22.947881, 40.643914 ], [ 22.947743, 40.643996 ], [ 22.947664, 40.644043 ], [ 22.947452, 40.644153 ], [ 22.947211, 40.64428 ] ] } },
{ "type": "Feature", "properties": { "culture_type": "Culture", "culture_subtype": "Historic site", "culture_source": "culture_extra", "historic": null, "symbol_origin": "none" }, "geometry": { "type": "LineString", "coordinates": [ [ 22.950706, 40.644442 ], [ 22.95038, 40.644235 ] ] } },
{ "type": "Feature", "properties": { "culture_type": "Culture", "culture_subtype": "Historic site", "culture_source": "culture_extra", "historic": null, "symbol_origin": "none" }, "geometry": { "type": "LineString", "coordinates": [ [ 22.94396, 40.644595 ], [ 22.943592, 40.644301 ], [ 22.943558, 40.644255 ] ] } },
{ "type": "Feature", "properties": { "culture_type": "Culture", "culture_subtype": "Historic site", "culture_source": "culture_extra", "historic": null, "symbol_origin": "none" }, "geometry": { "type": "LineString", "coordinates": [ [ 22.946899, 40.644402 ], [ 22.946556, 40.644525 ], [ 22.946566, 40.644552 ], [ 22.946471, 40.644589 ], [ 22.946451, 40.644566 ], [ 22.94601, 40.644717 ], [ 22.945822, 40.644768 ], [ 22.945684, 40.644804 ] ] } },
{ "type": "Feature", "properties": { "culture_type": "Culture", "culture_subtype": "Historic site", "culture_source": "culture_extra", "historic": null, "symbol_origin": "none" }, "geometry": { "type": "LineString", "coordinates": [ [ 22.952182, 40.644516 ], [ 22.952136, 40.644518 ], [ 22.951462, 40.644947 ], [ 22.951488, 40.64497 ], [ 22.95144, 40.644998 ], [ 22.951378, 40.644994 ], [ 22.951361, 40.644973 ], [ 22.951384, 40.644939 ] ] } },
{ "type": "Feature", "properties": { "culture_type": "Culture", "culture_subtype": "Historic site", "culture_source": "culture_extra", "historic": "citywalls", "symbol_origin": "none" }, "geometry": { "type": "LineString", "coordinates": [ [ 22.951384, 40.644939 ], [ 22.951173, 40.644803 ], [ 22.951105, 40.644804 ], [ 22.95109, 40.64473 ], [ 22.950848, 40.644588 ] ] } },
{ "type": "Feature", "properties": { "culture_type": "Culture", "culture_subtype": "Historic site", "culture_source": "culture_extra", "historic": null, "symbol_origin": "none" }, "geometry": { "type": "LineString", "coordinates": [ [ 22.945145, 40.644938 ], [ 22.945028, 40.644894 ], [ 22.944387, 40.644728 ], [ 22.944202, 40.64467 ], [ 22.944029, 40.64464 ], [ 22.944002, 40.644659 ], [ 22.943941, 40.644608 ], [ 22.94396, 40.644595 ] ] } },
{ "type": "Feature", "properties": { "culture_type": "Culture", "culture_subtype": "Historic site", "culture_source": "culture_extra", "historic": null, "symbol_origin": "none" }, "geometry": { "type": "LineString", "coordinates": [ [ 22.954731, 40.634489 ], [ 22.954828, 40.634508 ], [ 22.95481, 40.634575 ], [ 22.95492, 40.634717 ] ] } },
{ "type": "Feature", "properties": { "culture_type": "Culture", "culture_subtype": "Historic site", "culture_source": "culture_extra", "historic": null, "symbol_origin": "none" }, "geometry": { "type": "LineString", "coordinates": [ [ 22.955269, 40.634911 ], [ 22.95544, 40.635099 ] ] } },
{ "type": "Feature", "properties": { "culture_type": "Culture", "culture_subtype": "Historic site", "culture_source": "culture_extra", "historic": null, "symbol_origin": "none" }, "geometry": { "type": "LineString", "coordinates": [ [ 22.955147, 40.635014 ], [ 22.955307, 40.63503 ], [ 22.955258, 40.635137 ], [ 22.955317, 40.635203 ] ] } },
{ "type": "Feature", "properties": { "culture_type": "Culture", "culture_subtype": "Historic site", "culture_source": "culture_extra", "historic": null, "symbol_origin": "none" }, "geometry": { "type": "LineString", "coordinates": [ [ 22.955496, 40.635255 ], [ 22.95563, 40.635404 ] ] } },
{ "type": "Feature", "properties": { "culture_type": "Culture", "culture_subtype": "Historic site", "culture_source": "culture_extra", "historic": null, "symbol_origin": "none" }, "geometry": { "type": "LineString", "coordinates": [ [ 22.955654, 40.63544 ], [ 22.955716, 40.63551 ] ] } },
{ "type": "Feature", "properties": { "culture_type": "Culture", "culture_subtype": "Historic site", "culture_source": "culture_extra", "historic": "citywalls", "symbol_origin": "none" }, "geometry": { "type": "LineString", "coordinates": [ [ 22.955435, 40.635338 ], [ 22.955523, 40.635426 ], [ 22.955483, 40.635452 ], [ 22.955498, 40.63547 ], [ 22.955707, 40.635748 ], [ 22.955771, 40.635722 ], [ 22.955828, 40.635805 ], [ 22.955764, 40.635831 ], [ 22.955903, 40.636007 ], [ 22.955946, 40.635986 ], [ 22.956003, 40.636054 ], [ 22.95596, 40.636075 ], [ 22.956112, 40.636248 ], [ 22.956155, 40.636226 ], [ 22.956223, 40.636301 ], [ 22.95618, 40.636323 ], [ 22.956251, 40.636397 ], [ 22.956297, 40.636373 ], [ 22.95642, 40.636513 ], [ 22.956374, 40.636536 ], [ 22.956431, 40.636604 ] ] } },
{ "type": "Feature", "properties": { "culture_type": "Culture", "culture_subtype": "Historic site", "culture_source": "culture_extra", "historic": null, "symbol_origin": "none" }, "geometry": { "type": "LineString", "coordinates": [ [ 22.955788, 40.635605 ], [ 22.955941, 40.63582 ], [ 22.956108, 40.635999 ], [ 22.956433, 40.636359 ], [ 22.95668, 40.636633 ] ] } },
{ "type": "Feature", "properties": { "culture_type": "Culture", "culture_subtype": "Historic site", "culture_source": "culture_extra", "historic": null, "symbol_origin": "none" }, "geometry": { "type": "LineString", "coordinates": [ [ 22.956586, 40.636766 ], [ 22.956658, 40.636849 ] ] } },
{ "type": "Feature", "properties": { "culture_type": "Culture", "culture_subtype": "Historic site", "culture_source": "culture_extra", "historic": null, "symbol_origin": "none" }, "geometry": { "type": "LineString", "coordinates": [ [ 22.95693, 40.637161 ], [ 22.957013, 40.637248 ] ] } },
{ "type": "Feature", "properties": { "culture_type": "Culture", "culture_subtype": "Historic site", "culture_source": "culture_extra", "historic": "yes", "symbol_origin": "none" }, "geometry": { "type": "LineString", "coordinates": [ [ 22.957087, 40.637247 ], [ 22.957142, 40.63731 ], [ 22.957127, 40.637338 ], [ 22.957142, 40.637362 ], [ 22.957161, 40.637382 ], [ 22.957229, 40.637457 ] ] } },
{ "type": "Feature", "properties": { "culture_type": "Culture", "culture_subtype": "Historic site", "culture_source": "culture_extra", "historic": "yes", "symbol_origin": "none" }, "geometry": { "type": "LineString", "coordinates": [ [ 22.957229, 40.637457 ], [ 22.957253, 40.637446 ], [ 22.957277, 40.637466 ], [ 22.957305, 40.637509 ], [ 22.957297, 40.637511 ], [ 22.957269, 40.637522 ], [ 22.957262, 40.637525 ], [ 22.95724, 40.637531 ], [ 22.957334, 40.637631 ], [ 22.957527, 40.637872 ], [ 22.957567, 40.637853 ], [ 22.957635, 40.637934 ], [ 22.957603, 40.63795 ], [ 22.957666, 40.638027 ] ] } },
{ "type": "Feature", "properties": { "culture_type": "Culture", "culture_subtype": "Historic site", "culture_source": "culture_extra", "historic": "yes", "symbol_origin": "none" }, "geometry": { "type": "LineString", "coordinates": [ [ 22.957686, 40.638048 ], [ 22.957824, 40.638217 ], [ 22.957871, 40.638194 ], [ 22.957933, 40.638266 ], [ 22.957885, 40.63829 ], [ 22.958249, 40.638668 ], [ 22.958279, 40.638652 ], [ 22.958321, 40.638699 ], [ 22.958291, 40.638714 ], [ 22.958623, 40.639083 ], [ 22.958674, 40.63906 ], [ 22.958737, 40.63914 ], [ 22.95869, 40.639161 ], [ 22.958813, 40.639298 ], [ 22.95887, 40.639359 ], [ 22.958955, 40.639463 ], [ 22.958997, 40.639444 ], [ 22.959029, 40.639486 ], [ 22.959054, 40.639521 ], [ 22.959012, 40.639539 ], [ 22.959123, 40.639665 ], [ 22.959233, 40.639771 ] ] } },
{ "type": "Feature", "properties": { "culture_type": "Culture", "culture_subtype": "Historic site", "culture_source": "culture_extra", "historic": "yes", "symbol_origin": "none" }, "geometry": { "type": "LineString", "coordinates": [ [ 22.959359, 40.639973 ], [ 22.959552, 40.640196 ], [ 22.959677, 40.640339 ], [ 22.959725, 40.640314 ], [ 22.959779, 40.640374 ], [ 22.959731, 40.640399 ], [ 22.959768, 40.640436 ] ] } },
{ "type": "Feature", "properties": { "culture_type": "Culture", "culture_subtype": "Historic site", "culture_source": "culture_extra", "historic": "yes", "symbol_origin": "none" }, "geometry": { "type": "LineString", "coordinates": [ [ 22.959792, 40.640463 ], [ 22.959878, 40.640552 ], [ 22.959998, 40.640672 ] ] } },
{ "type": "Feature", "properties": { "culture_type": "Culture", "culture_subtype": "Historic site", "culture_source": "culture_extra", "historic": null, "symbol_origin": "none" }, "geometry": { "type": "LineString", "coordinates": [ [ 22.959998, 40.640672 ], [ 22.960006, 40.640641 ], [ 22.960027, 40.640613 ], [ 22.960058, 40.640591 ], [ 22.960096, 40.640578 ], [ 22.960138, 40.640574 ], [ 22.960179, 40.64058 ], [ 22.960216, 40.640595 ], [ 22.960246, 40.640618 ], [ 22.960264, 40.640647 ], [ 22.96027, 40.640678 ], [ 22.960262, 40.64071 ], [ 22.960243, 40.640738 ], [ 22.960212, 40.640761 ], [ 22.960175, 40.640775 ], [ 22.960132, 40.640781 ], [ 22.960101, 40.640777 ], [ 22.960071, 40.640768 ], [ 22.96002, 40.640801 ], [ 22.959791, 40.640987 ], [ 22.959818, 40.641008 ], [ 22.959721, 40.64109 ], [ 22.959693, 40.641072 ], [ 22.959498, 40.641238 ], [ 22.959489, 40.641284 ], [ 22.959484, 40.641341 ], [ 22.959446, 40.641365 ], [ 22.959401, 40.641353 ], [ 22.959343, 40.641337 ], [ 22.959252, 40.641306 ], [ 22.959106, 40.641351 ], [ 22.95908, 40.641359 ] ] } },
{ "type": "Feature", "properties": { "culture_type": "Culture", "culture_subtype": "Historic site", "culture_source": "culture_extra", "historic": null, "symbol_origin": "none" }, "geometry": { "type": "LineString", "coordinates": [ [ 22.959484, 40.641341 ], [ 22.95951, 40.641359 ], [ 22.959595, 40.64142 ], [ 22.959485, 40.641508 ], [ 22.9594, 40.641447 ], [ 22.959454, 40.641403 ], [ 22.959425, 40.641382 ], [ 22.959446, 40.641365 ] ] } },
{ "type": "Feature", "properties": { "culture_type": "Culture", "culture_subtype": "Historic site", "culture_source": "culture_extra", "historic": null, "symbol_origin": "none" }, "geometry": { "type": "LineString", "coordinates": [ [ 22.955557, 40.642297 ], [ 22.955641, 40.642287 ], [ 22.955663, 40.642285 ], [ 22.95566, 40.642269 ], [ 22.955729, 40.642259 ], [ 22.955892, 40.642231 ], [ 22.95629, 40.642176 ], [ 22.956362, 40.642173 ], [ 22.956378, 40.642169 ], [ 22.956371, 40.642144 ], [ 22.956447, 40.642132 ], [ 22.956452, 40.642151 ], [ 22.956479, 40.642144 ], [ 22.956495, 40.642138 ], [ 22.956769, 40.64204 ], [ 22.956763, 40.64203 ], [ 22.956878, 40.641988 ], [ 22.956886, 40.642002 ], [ 22.957223, 40.641909 ], [ 22.957317, 40.641873 ], [ 22.957322, 40.641878 ], [ 22.957466, 40.641822 ], [ 22.957521, 40.641799 ], [ 22.957644, 40.641755 ], [ 22.957818, 40.641689 ], [ 22.957917, 40.641652 ], [ 22.957942, 40.641644 ], [ 22.957991, 40.641631 ], [ 22.958146, 40.641595 ], [ 22.958278, 40.641565 ], [ 22.958499, 40.64151 ], [ 22.958612, 40.641482 ], [ 22.958855, 40.641422 ], [ 22.959022, 40.641378 ], [ 22.95908, 40.641359 ] ] } },
{ "type": "Feature", "properties": { "culture_type": "Culture", "culture_subtype": "Historic site", "culture_source": "culture_extra", "historic": null, "symbol_origin": "none" }, "geometry": { "type": "LineString", "coordinates": [ [ 22.955284, 40.642326 ], [ 22.955429, 40.642312 ], [ 22.955478, 40.642306 ], [ 22.955557, 40.642297 ] ] } },
{ "type": "Feature", "properties": { "culture_type": "Culture", "culture_subtype": "Historic site", "culture_source": "culture_extra", "historic": null, "symbol_origin": "none" }, "geometry": { "type": "LineString", "coordinates": [ [ 22.954919, 40.642365 ], [ 22.955156, 40.642339 ], [ 22.955284, 40.642326 ] ] } },
{ "type": "Feature", "properties": { "culture_type": "Culture", "culture_subtype": "Historic site", "culture_source": "culture_extra", "historic": null, "symbol_origin": "none" }, "geometry": { "type": "LineString", "coordinates": [ [ 22.954564, 40.642481 ], [ 22.954673, 40.642444 ], [ 22.95481, 40.642389 ], [ 22.954919, 40.642365 ] ] } },
{ "type": "Feature", "properties": { "culture_type": "Culture", "culture_subtype": "Historic site", "culture_source": "culture_extra", "historic": "yes", "symbol_origin": "none" }, "geometry": { "type": "LineString", "coordinates": [ [ 22.960852, 40.642229 ], [ 22.961202, 40.642386 ], [ 22.961379, 40.642441 ], [ 22.961384, 40.642386 ], [ 22.961471, 40.64239 ], [ 22.961469, 40.642425 ], [ 22.961602, 40.642468 ], [ 22.961712, 40.642397 ], [ 22.961729, 40.642385 ], [ 22.961742, 40.642408 ], [ 22.9618, 40.642517 ], [ 22.961925, 40.642547 ], [ 22.961947, 40.642499 ], [ 22.962026, 40.642521 ], [ 22.962004, 40.642568 ], [ 22.962101, 40.64259 ], [ 22.962218, 40.64254 ], [ 22.962233, 40.642533 ], [ 22.962237, 40.64254 ], [ 22.962242, 40.642548 ], [ 22.962274, 40.642606 ], [ 22.962416, 40.642676 ] ] } },
{ "type": "Feature", "properties": { "culture_type": "Culture", "culture_subtype": "Historic site", "culture_source": "culture_extra", "historic": "yes", "symbol_origin": "none" }, "geometry": { "type": "LineString", "coordinates": [ [ 22.962416, 40.642676 ], [ 22.962444, 40.642647 ], [ 22.962522, 40.642689 ], [ 22.962502, 40.642712 ], [ 22.96256, 40.642741 ], [ 22.962586, 40.642742 ], [ 22.962748, 40.642702 ], [ 22.962791, 40.642865 ], [ 22.962878, 40.64291 ], [ 22.962955, 40.642857 ], [ 22.963016, 40.642902 ], [ 22.962946, 40.64296 ], [ 22.96296, 40.643056 ], [ 22.963103, 40.643118 ], [ 22.962981, 40.643223 ], [ 22.962997, 40.643308 ] ] } },
{ "type": "Feature", "properties": { "culture_type": "Culture", "culture_subtype": "Historic site", "culture_source": "culture_extra", "historic": "yes", "symbol_origin": "none" }, "geometry": { "type": "LineString", "coordinates": [ [ 22.962997, 40.643308 ], [ 22.963116, 40.643322 ], [ 22.963098, 40.643398 ], [ 22.963002, 40.643386 ], [ 22.96296, 40.643503 ], [ 22.962995, 40.643539 ], [ 22.963029, 40.643571 ] ] } },
{ "type": "Feature", "properties": { "culture_type": "Culture", "culture_subtype": "Historic site", "culture_source": "culture_extra", "historic": "yes", "symbol_origin": "none" }, "geometry": { "type": "LineString", "coordinates": [ [ 22.963029, 40.643571 ], [ 22.963018, 40.643602 ], [ 22.962889, 40.64364 ] ] } },
{ "type": "Feature", "properties": { "culture_type": "Culture", "culture_subtype": "Historic site", "culture_source": "culture_extra", "historic": "citywalls", "symbol_origin": "none" }, "geometry": { "type": "LineString", "coordinates": [ [ 22.962889, 40.64364 ], [ 22.962854, 40.643725 ], [ 22.962933, 40.643747 ], [ 22.962891, 40.643833 ], [ 22.9628, 40.643808 ] ] } },
{ "type": "Feature", "properties": { "culture_type": "Culture", "culture_subtype": "Historic site", "culture_source": "culture_extra", "historic": "citywalls", "symbol_origin": "none" }, "geometry": { "type": "LineString", "coordinates": [ [ 22.9628, 40.643808 ], [ 22.962742, 40.643895 ] ] } },
{ "type": "Feature", "properties": { "culture_type": "Culture", "culture_subtype": "Historic site", "culture_source": "culture_extra", "historic": null, "symbol_origin": "none" }, "geometry": { "type": "LineString", "coordinates": [ [ 22.96275, 40.644018 ], [ 22.962673, 40.644037 ], [ 22.962648, 40.644019 ] ] } },
{ "type": "Feature", "properties": { "culture_type": "Culture", "culture_subtype": "Historic site", "culture_source": "culture_extra", "historic": null, "symbol_origin": "none" }, "geometry": { "type": "LineString", "coordinates": [ [ 22.961861, 40.644109 ], [ 22.96184, 40.644082 ], [ 22.961912, 40.644048 ], [ 22.961988, 40.644014 ], [ 22.962002, 40.644031 ], [ 22.962023, 40.644025 ], [ 22.962139, 40.643989 ], [ 22.962129, 40.643956 ], [ 22.96221, 40.64394 ], [ 22.962223, 40.643979 ] ] } },
{ "type": "Feature", "properties": { "culture_type": "Culture", "culture_subtype": "Historic site", "culture_source": "culture_extra", "historic": null, "symbol_origin": "none" }, "geometry": { "type": "LineString", "coordinates": [ [ 22.962223, 40.643979 ], [ 22.962272, 40.643988 ], [ 22.962363, 40.644004 ], [ 22.962374, 40.643983 ], [ 22.962441, 40.643999 ], [ 22.962428, 40.644022 ], [ 22.962597, 40.644073 ], [ 22.962616, 40.644088 ] ] } },
{ "type": "Feature", "properties": { "culture_type": "Culture", "culture_subtype": "Historic site", "culture_source": "culture_extra", "historic": null, "symbol_origin": "none" }, "geometry": { "type": "LineString", "coordinates": [ [ 22.962648, 40.644019 ], [ 22.962623, 40.644051 ], [ 22.962634, 40.64406 ], [ 22.962616, 40.644088 ] ] } },
{ "type": "Feature", "properties": { "culture_type": "Culture", "culture_subtype": "Historic site", "culture_source": "culture_extra", "historic": null, "symbol_origin": "none" }, "geometry": { "type": "LineString", "coordinates": [ [ 22.954594, 40.642704 ], [ 22.954519, 40.642553 ], [ 22.954468, 40.642558 ], [ 22.954433, 40.642491 ], [ 22.954534, 40.642455 ], [ 22.954556, 40.642463 ], [ 22.954564, 40.642481 ], [ 22.954587, 40.642533 ] ] } },
{ "type": "Feature", "properties": { "culture_type": "Culture", "culture_subtype": "Historic site", "culture_source": "culture_extra", "historic": "citywalls", "symbol_origin": "none" }, "geometry": { "type": "LineString", "coordinates": [ [ 22.954594, 40.642704 ], [ 22.954548, 40.642696 ], [ 22.954548, 40.642719 ], [ 22.954568, 40.642762 ], [ 22.95458, 40.64276 ], [ 22.954593, 40.642783 ], [ 22.954291, 40.642863 ] ] } },
{ "type": "Feature", "properties": { "culture_type": "Culture", "culture_subtype": "Historic site", "culture_source": "culture_extra", "historic": null, "symbol_origin": "none" }, "geometry": { "type": "LineString", "coordinates": [ [ 22.954869, 40.642998 ], [ 22.954776, 40.642875 ], [ 22.954763, 40.642858 ], [ 22.954755, 40.642846 ], [ 22.954711, 40.642788 ], [ 22.954607, 40.642817 ], [ 22.954593, 40.642783 ] ] } },
{ "type": "Feature", "properties": { "culture_type": "Culture", "culture_subtype": "Historic site", "culture_source": "culture_extra", "historic": "yes", "symbol_origin": "none" }, "geometry": { "type": "LineString", "coordinates": [ [ 22.955842, 40.644166 ], [ 22.955766, 40.644231 ], [ 22.955687, 40.644177 ], [ 22.955764, 40.644113 ], [ 22.955779, 40.644101 ], [ 22.955719, 40.644032 ], [ 22.95519, 40.643368 ], [ 22.955093, 40.643351 ], [ 22.955037, 40.643235 ] ] } },
{ "type": "Feature", "properties": { "culture_type": "Culture", "culture_subtype": "Historic site", "culture_source": "culture_extra", "historic": "citywalls", "symbol_origin": "none" }, "geometry": { "type": "LineString", "coordinates": [ [ 22.959483, 40.644315 ], [ 22.958837, 40.644331 ], [ 22.95883, 40.644331 ], [ 22.958571, 40.644356 ], [ 22.958504, 40.644359 ], [ 22.958452, 40.644362 ] ] } },
{ "type": "Feature", "properties": { "culture_type": "Culture", "culture_subtype": "Historic site", "culture_source": "culture_extra", "historic": "yes", "symbol_origin": "none" }, "geometry": { "type": "LineString", "coordinates": [ [ 22.958452, 40.644362 ], [ 22.958256, 40.644379 ], [ 22.958155, 40.644467 ], [ 22.958084, 40.644369 ], [ 22.957371, 40.64425 ], [ 22.957362, 40.644308 ], [ 22.957252, 40.644299 ], [ 22.957262, 40.644242 ], [ 22.956622, 40.644208 ], [ 22.956502, 40.644283 ], [ 22.95642, 40.6442 ], [ 22.956394, 40.644198 ], [ 22.955923, 40.64418 ] ] } },
{ "type": "Feature", "properties": { "culture_type": "Culture", "culture_subtype": "Historic site", "culture_source": "culture_extra", "historic": "yes", "symbol_origin": "none" }, "geometry": { "type": "LineString", "coordinates": [ [ 22.960829, 40.644627 ], [ 22.960732, 40.644481 ], [ 22.960001, 40.644354 ] ] } },
{ "type": "Feature", "properties": { "culture_type": "Culture", "culture_subtype": "Historic site", "culture_source": "culture_extra", "historic": "citywalls", "symbol_origin": "none" }, "geometry": { "type": "LineString", "coordinates": [ [ 22.962742, 40.643895 ], [ 22.962795, 40.643983 ], [ 22.962858, 40.644048 ], [ 22.962851, 40.644076 ], [ 22.962855, 40.644126 ], [ 22.962817, 40.64413 ], [ 22.962719, 40.644245 ] ] } },
{ "type": "Feature", "properties": { "culture_type": "Culture", "culture_subtype": "Historic site", "culture_source": "culture_extra", "historic": null, "symbol_origin": "none" }, "geometry": { "type": "LineString", "coordinates": [ [ 22.961744, 40.644186 ], [ 22.96177, 40.644157 ], [ 22.961813, 40.644128 ], [ 22.961861, 40.644109 ] ] } },
{ "type": "Feature", "properties": { "culture_type": "Culture", "culture_subtype": "Historic site", "culture_source": "culture_extra", "historic": null, "symbol_origin": "none" }, "geometry": { "type": "LineString", "coordinates": [ [ 22.962616, 40.644088 ], [ 22.962644, 40.644147 ], [ 22.962559, 40.644209 ], [ 22.962475, 40.64425 ], [ 22.962524, 40.644374 ], [ 22.962369, 40.64439 ], [ 22.962309, 40.644468 ], [ 22.962299, 40.644481 ] ] } },
{ "type": "Feature", "properties": { "culture_type": "Culture", "culture_subtype": "Historic site", "culture_source": "culture_extra", "historic": null, "symbol_origin": "none" }, "geometry": { "type": "LineString", "coordinates": [ [ 22.961732, 40.644548 ], [ 22.961742, 40.644519 ], [ 22.961705, 40.644418 ], [ 22.961666, 40.644416 ], [ 22.961668, 40.644396 ], [ 22.96167, 40.644367 ], [ 22.96169, 40.644368 ], [ 22.9617, 40.644322 ], [ 22.96172, 40.644239 ], [ 22.961677, 40.644218 ], [ 22.961716, 40.644172 ], [ 22.961744, 40.644186 ] ] } },
{ "type": "Feature", "properties": { "culture_type": "Culture", "culture_subtype": "Historic site", "culture_source": "culture_extra", "historic": "citywalls", "symbol_origin": "none" }, "geometry": { "type": "LineString", "coordinates": [ [ 22.962701, 40.644273 ], [ 22.962653, 40.644336 ], [ 22.96269, 40.644358 ], [ 22.962644, 40.644401 ], [ 22.962606, 40.644381 ], [ 22.962477, 40.6445 ], [ 22.962473, 40.644558 ], [ 22.96242, 40.644561 ], [ 22.962277, 40.644663 ], [ 22.962248, 40.6447 ], [ 22.962204, 40.644706 ], [ 22.962134, 40.644712 ], [ 22.962123, 40.644656 ] ] } },
{ "type": "Feature", "properties": { "culture_type": "Culture", "culture_subtype": "Historic site", "culture_source": "culture_extra", "historic": null, "symbol_origin": "none" }, "geometry": { "type": "LineString", "coordinates": [ [ 22.961236, 40.644512 ], [ 22.960869, 40.644487 ] ] } },
{ "type": "Feature", "properties": { "culture_type": "Culture", "culture_subtype": "Historic site", "culture_source": "culture_extra", "historic": null, "symbol_origin": "none" }, "geometry": { "type": "LineString", "coordinates": [ [ 22.962299, 40.644481 ], [ 22.962323, 40.644518 ], [ 22.962222, 40.644556 ], [ 22.962194, 40.644513 ], [ 22.962118, 40.644517 ], [ 22.962109, 40.644529 ] ] } },
{ "type": "Feature", "properties": { "culture_type": "Culture", "culture_subtype": "Historic site", "culture_source": "culture_extra", "historic": "yes", "symbol_origin": "none" }, "geometry": { "type": "LineString", "coordinates": [ [ 22.960892, 40.644514 ], [ 22.960894, 40.644524 ], [ 22.960795, 40.64455 ], [ 22.960756, 40.64448 ], [ 22.960732, 40.644481 ] ] } },
{ "type": "Feature", "properties": { "culture_type": "Culture", "culture_subtype": "Historic site", "culture_source": "culture_extra", "historic": "citywalls", "symbol_origin": "none" }, "geometry": { "type": "LineString", "coordinates": [ [ 22.961182, 40.644683 ], [ 22.960881, 40.644663 ], [ 22.960881, 40.644705 ], [ 22.960816, 40.644703 ], [ 22.960816, 40.644656 ], [ 22.96076, 40.644653 ], [ 22.960762, 40.644625 ], [ 22.960829, 40.644627 ], [ 22.960732, 40.644481 ], [ 22.960001, 40.644354 ], [ 22.959668, 40.644321 ] ] } },
{ "type": "Feature", "properties": { "culture_type": "Culture", "culture_subtype": "Historic site", "culture_source": "culture_extra", "historic": "yes", "symbol_origin": "none" }, "geometry": { "type": "LineString", "coordinates": [ [ 22.961234, 40.644536 ], [ 22.961165, 40.644534 ], [ 22.961092, 40.6446 ], [ 22.961069, 40.6446 ], [ 22.960985, 40.644518 ], [ 22.960892, 40.644514 ] ] } },
{ "type": "Feature", "properties": { "culture_type": "Culture", "culture_subtype": "Historic site", "culture_source": "culture_extra", "historic": null, "symbol_origin": "none" }, "geometry": { "type": "LineString", "coordinates": [ [ 22.962109, 40.644529 ], [ 22.962039, 40.644619 ], [ 22.961915, 40.644542 ], [ 22.961867, 40.644551 ], [ 22.961876, 40.644607 ], [ 22.961743, 40.644619 ], [ 22.961732, 40.644548 ], [ 22.961587, 40.644549 ] ] } },
{ "type": "Feature", "properties": { "culture_type": "Culture", "culture_subtype": "Historic site", "culture_source": "culture_extra", "historic": "yes", "symbol_origin": "none" }, "geometry": { "type": "LineString", "coordinates": [ [ 22.96137, 40.644556 ], [ 22.961366, 40.6446 ], [ 22.961265, 40.644596 ], [ 22.96127, 40.644539 ] ] } },
{ "type": "Feature", "properties": { "culture_type": "Culture", "culture_subtype": "Historic site", "culture_source": "culture_extra", "historic": "yes", "symbol_origin": "none" }, "geometry": { "type": "LineString", "coordinates": [ [ 22.96137, 40.644556 ], [ 22.961476, 40.644555 ], [ 22.961587, 40.644656 ], [ 22.9616, 40.644658 ], [ 22.961604, 40.644681 ], [ 22.96161, 40.644717 ] ] } },
{ "type": "Feature", "properties": { "culture_type": "Culture", "culture_subtype": "Historic site", "culture_source": "culture_extra", "historic": "yes", "symbol_origin": "none" }, "geometry": { "type": "LineString", "coordinates": [ [ 22.961552, 40.644722 ], [ 22.96161, 40.644717 ] ] } },
{ "type": "Feature", "properties": { "culture_type": "Culture", "culture_subtype": "Historic site", "culture_source": "culture_extra", "historic": "citywalls", "symbol_origin": "none" }, "geometry": { "type": "LineString", "coordinates": [ [ 22.961977, 40.64468 ], [ 22.96169, 40.644703 ], [ 22.961695, 40.644727 ], [ 22.961615, 40.64474 ], [ 22.96161, 40.644717 ], [ 22.961552, 40.644722 ], [ 22.961547, 40.644777 ], [ 22.961475, 40.644773 ], [ 22.96148, 40.644721 ], [ 22.96121, 40.644686 ] ] } }
]
}
