{
"type": "FeatureCollection",
"name": "health_symbols",
"crs": { "type": "name", "properties": { "name": "urn:ogc:def:crs:OGC:1.3:CRS84" } },
"xy_coordinate_resolution": 1e-06,
"features": [
{ "type": "Feature", "properties": { "dest_category": "Hospital", "dest_source": "health_polygons", "symbol_origin": "polygon", "name": "Κέντρο Υγείας Νέας Μηχανιώνας", "amenity": "hospital", "healthcare": null, "phone": "+30 23923 30401", "name_el": null, "name_en": null, "healthca_1": "hospital", "emergency": null, "beds": null, "opening_ho": null, "website": null }, "geometry": { "type": "Point", "coordinates": [ 22.862269, 40.458729 ] } },
{ "type": "Feature", "properties": { "dest_category": "Hospital", "dest_source": "health_points", "symbol_origin": "node", "name": "ΙΚΑ", "amenity": "hospital", "healthcare": "hospital", "phone": null, "name_el": null, "name_en": null, "healthca_1": null, "emergency": null, "beds": null, "opening_ho": null, "website": null }, "geometry": { "type": "Point", "coordinates": [ 22.953487, 40.604663 ] } },
{ "type": "Feature", "properties": { "dest_category": "Hospital", "dest_source": "health_polygons", "symbol_origin": "polygon", "name": "Δερματικών και Αφροδισίων", "amenity": "hospital", "healthcare": null, "phone": null, "name_el": null, "name_en": null, "healthca_1": "hospital", "emergency": null, "beds": null, "opening_ho": null, "website": null }, "geometry": { "type": "Point", "coordinates": [ 22.95751, 40.605648 ] } },
{ "type": "Feature", "properties": { "dest_category": "Hospital", "dest_source": "health_polygons", "symbol_origin": "polygon", "name": "Γενικό Νοσοκομείο Θεσσαλονίκης \"Ιπποκράτειο\"", "amenity": "hospital", "healthcare": null, "phone": null, "name_el": null, "name_en": null, "healthca_1": "hospital", "emergency": null, "beds": null, "opening_ho": null, "website": null }, "geometry": { "type": "Point", "coordinates": [ 22.962064, 40.612867 ] } },
{ "type": "Feature", "properties": { "dest_category": "Hospital", "dest_source": "health_polygons", "symbol_origin": "polygon", "name": "Θεαγένειο Αντικαρκινικό Νοσοκομείο Θεσσαλονίκης", "amenity": "hospital", "healthcare": "oncology", "phone": null, "name_el": "Θεαγένειο Αντικαρκινικό Νοσοκομείο Θεσσαλονίκης", "name_en": "Anticancer Hospital of Thessaloniki \"Theagenio\"", "healthca_1": "hospital", "emergency": "no", "beds": "318", "opening_ho": null, "website": null }, "geometry": { "type": "Point", "coordinates": [ 22.959977, 40.617807 ] } },
{ "type": "Feature", "properties": { "dest_category": "Hospital", "dest_source": "health_polygons", "symbol_origin": "polygon", "name": "Πανεπιστημιακό Νοσοκομείο ΑΧΕΠΑ", "amenity": "hospital", "healthcare": null, "phone": null, "name_el": "Πανεπιστημιακό Νοσοκομείο ΑΧΕΠΑ", "name_en": "Achepa University Hospital", "healthca_1": "hospital", "emergency": null, "beds": null, "opening_ho": null, "website": null }, "geometry": { "type": "Point", "coordinates": [ 22.960401, 40.629262 ] } },
{ "type": "Feature", "properties": { "dest_category": "Hospital", "dest_source": "health_polygons", "symbol_origin": "polygon", "name": "Νοσοκομείο Γεώργιος Γεννηματάς", "amenity": "hospital", "healthcare": null, "phone": null, "name_el": "Νοσοκομείο Γεώργιος Γεννηματάς", "name_en": "Georgios Gennimatas Hospital", "healthca_1": "hospital", "emergency": null, "beds": null, "opening_ho": null, "website": null }, "geometry": { "type": "Point", "coordinates": [ 22.955445, 40.634059 ] } },
{ "type": "Feature", "properties": { "dest_category": "Hospital", "dest_source": "health_polygons", "symbol_origin": "polygon", "name": "Γενικό Νοσοκομείο Άγιος Δημήτριος", "amenity": "hospital", "healthcare": null, "phone": null, "name_el": "Γενικό Νοσοκομείο Άγιος Δημήτριος", "name_en": "Agios Dimitrios General Hospital", "healthca_1": "hospital", "emergency": null, "beds": null, "opening_ho": null, "website": null }, "geometry": { "type": "Point", "coordinates": [ 22.958292, 40.637063 ] } },
{ "type": "Feature", "properties": { "dest_category": "Hospital with emergency", "dest_source": "health_polygons", "symbol_origin": "polygon", "name": "Ψυχιατρικό Νοσοκομείο Θεσσαλονίκης", "amenity": "hospital", "healthcare": "psychiatry", "phone": null, "name_el": null, "name_en": null, "healthca_1": "hospital", "emergency": "yes", "beds": null, "opening_ho": null, "website": null }, "geometry": { "type": "Point", "coordinates": [ 22.940265, 40.666444 ] } },
{ "type": "Feature", "properties": { "dest_category": "Hospital", "dest_source": "health_polygons", "symbol_origin": "polygon", "name": null, "amenity": null, "healthcare": null, "phone": null, "name_el": null, "name_en": null, "healthca_1": null, "emergency": null, "beds": null, "opening_ho": null, "website": null }, "geometry": { "type": "Point", "coordinates": [ 22.963717, 40.67267 ] } },
{ "type": "Feature", "properties": { "dest_category": "Hospital", "dest_source": "health_polygons", "symbol_origin": "polygon", "name": "Κλινική Θέρμη", "amenity": "hospital", "healthcare": null, "phone": "+30 2310 024800", "name_el": null, "name_en": null, "healthca_1": "hospital", "emergency": null, "beds": null, "opening_ho": null, "website": "https://www.klinikithermi.gr/" }, "geometry": { "type": "Point", "coordinates": [ 23.010855, 40.528788 ] } },
{ "type": "Feature", "properties": { "dest_category": "Hospital", "dest_source": "health_points", "symbol_origin": "node", "name": null, "amenity": "hospital", "healthcare": "hospital", "phone": null, "name_el": null, "name_en": null, "healthca_1": null, "emergency": null, "beds": null, "opening_ho": null, "website": null }, "geometry": { "type": "Point", "coordinates": [ 23.165862, 40.548253 ] } },
{ "type": "Feature", "properties": { "dest_category": "Hospital with emergency", "dest_source": "health_polygons", "symbol_origin": "polygon", "name": "Ιατρικό Διαβαλκανικό Θεσσαλονίκης", "amenity": "hospital", "healthcare": null, "phone": "+30 2310 400000", "name_el": null, "name_en": null, "healthca_1": "hospital", "emergency": "yes", "beds": null, "opening_ho": "24/7", "website": "https://www.iatriko.gr/el/iatriko-diavalkaniko?cl=614" }, "geometry": { "type": "Point", "coordinates": [ 22.988077, 40.547421 ] } },
{ "type": "Feature", "properties": { "dest_category": "Hospital", "dest_source": "health_polygons", "symbol_origin": "polygon", "name": "Κέντρο Υγείας Ζαγκλιβερίου", "amenity": "hospital", "healthcare": null, "phone": null, "name_el": null, "name_en": null, "healthca_1": "hospital", "emergency": null, "beds": null, "opening_ho": null, "website": null }, "geometry": { "type": "Point", "coordinates": [ 23.284541, 40.574024 ] } },
{ "type": "Feature", "properties": { "dest_category": "Hospital", "dest_source": "health_polygons", "symbol_origin": "polygon", "name": "Γενικό Νοσοκομείο Θεσσαλονίκης Άγιος Παύλος", "amenity": "hospital", "healthcare": null, "phone": null, "name_el": "Γενικό Νοσοκομείο Θεσσαλονίκης Άγιος Παύλος", "name_en": "St. Paul General Hospital of Thessaloniki", "healthca_1": "hospital", "emergency": null, "beds": null, "opening_ho": null, "website": null }, "geometry": { "type": "Point", "coordinates": [ 22.97049, 40.577602 ] } },
{ "type": "Feature", "properties": { "dest_category": "Hospital", "dest_source": "health_polygons", "symbol_origin": "polygon", "name": "Μονάδα Ημερήσιας Νοσηλείας Νίκος Κούρκουλος", "amenity": "hospital", "healthcare": null, "phone": null, "name_el": null, "name_en": null, "healthca_1": "hospital", "emergency": null, "beds": null, "opening_ho": null, "website": null }, "geometry": { "type": "Point", "coordinates": [ 22.981672, 40.590604 ] } },
{ "type": "Feature", "properties": { "dest_category": "Hospital", "dest_source": "health_polygons", "symbol_origin": "polygon", "name": "Άγιος Λουκάς", "amenity": "hospital", "healthcare": null, "phone": "+302310380000", "name_el": "Άγιος Λουκάς", "name_en": "St Luke's Hospital", "healthca_1": "hospital", "emergency": null, "beds": null, "opening_ho": null, "website": "https://www.klinikiagiosloukas.gr/" }, "geometry": { "type": "Point", "coordinates": [ 23.014883, 40.593898 ] } },
{ "type": "Feature", "properties": { "dest_category": "Hospital", "dest_source": "health_points", "symbol_origin": "node", "name": "Ε.Κ.Α.Β.", "amenity": "hospital", "healthcare": "hospital", "phone": null, "name_el": null, "name_en": null, "healthca_1": null, "emergency": null, "beds": null, "opening_ho": null, "website": null }, "geometry": { "type": "Point", "coordinates": [ 22.968033, 40.60367 ] } },
{ "type": "Feature", "properties": { "dest_category": "Hospital", "dest_source": "health_polygons", "symbol_origin": "polygon", "name": "Αρωγή", "amenity": "hospital", "healthcare": "physiatry", "phone": null, "name_el": "Αρωγή", "name_en": null, "healthca_1": "hospital", "emergency": "no", "beds": null, "opening_ho": null, "website": "https://euromedica-arogi.gr/" }, "geometry": { "type": "Point", "coordinates": [ 23.001731, 40.604474 ] } },
{ "type": "Feature", "properties": { "dest_category": "Hospital with emergency", "dest_source": "health_polygons", "symbol_origin": "polygon", "name": "Γένεσις", "amenity": "hospital", "healthcare": "gynaecology;plastic_surgery;surgery;intensive", "phone": "+30 2310984000", "name_el": "Γένεσις", "name_en": "Genesis", "healthca_1": "hospital", "emergency": "yes", "beds": null, "opening_ho": null, "website": "https://genesishospital.gr/" }, "geometry": { "type": "Point", "coordinates": [ 23.003687, 40.605069 ] } },
{ "type": "Feature", "properties": { "dest_category": "Hospital with emergency", "dest_source": "health_polygons", "symbol_origin": "polygon", "name": "Γ.Ν.Θ. \"Γ. Παπανικολάου\"", "amenity": "hospital", "healthcare": null, "phone": null, "name_el": "Γ.Ν.Θ. \"Γ. Παπανικολάου\"", "name_en": "Papanikolaou Hospital", "healthca_1": "hospital", "emergency": "yes", "beds": null, "opening_ho": null, "website": null }, "geometry": { "type": "Point", "coordinates": [ 23.044549, 40.631323 ] } },
{ "type": "Feature", "properties": { "dest_category": "Hospital", "dest_source": "health_polygons", "symbol_origin": "polygon", "name": null, "amenity": null, "healthcare": null, "phone": null, "name_el": null, "name_en": null, "healthca_1": null, "emergency": null, "beds": null, "opening_ho": null, "website": null }, "geometry": { "type": "Point", "coordinates": [ 22.964578, 40.672831 ] } },
{ "type": "Feature", "properties": { "dest_category": "Hospital", "dest_source": "health_polygons", "symbol_origin": "polygon", "name": null, "amenity": null, "healthcare": null, "phone": null, "name_el": null, "name_en": null, "healthca_1": null, "emergency": null, "beds": null, "opening_ho": null, "website": null }, "geometry": { "type": "Point", "coordinates": [ 22.964411, 40.673339 ] } },
{ "type": "Feature", "properties": { "dest_category": "Hospital", "dest_source": "health_polygons", "symbol_origin": "polygon", "name": "NHPO", "amenity": "hospital", "healthcare": null, "phone": null, "name_el": null, "name_en": null, "healthca_1": "hospital", "emergency": null, "beds": null, "opening_ho": null, "website": null }, "geometry": { "type": "Point", "coordinates": [ 23.378946, 40.713217 ] } },
{ "type": "Feature", "properties": { "dest_category": "Hospital", "dest_source": "health_polygons", "symbol_origin": "polygon", "name": "Κέντρο Υγείας Λαγκαδά", "amenity": "hospital", "healthcare": null, "phone": "+30 2394330700", "name_el": null, "name_en": null, "healthca_1": "hospital", "emergency": null, "beds": null, "opening_ho": null, "website": null }, "geometry": { "type": "Point", "coordinates": [ 23.070851, 40.747039 ] } },
{ "type": "Feature", "properties": { "dest_category": "Hospital", "dest_source": "health_polygons", "symbol_origin": "polygon", "name": "424 Γενικό Στρατιωτικό Νοσοκομείο Εκπαιδεύσεως", "amenity": "hospital", "healthcare": null, "phone": null, "name_el": "424 Γενικό Στρατιωτικό Νοσοκομείο Εκπαιδεύσεως", "name_en": "424 Army General Hospital", "healthca_1": "hospital", "emergency": "no", "beds": null, "opening_ho": null, "website": null }, "geometry": { "type": "Point", "coordinates": [ 22.964071, 40.67299 ] } },
{ "type": "Feature", "properties": { "dest_category": "Hospital", "dest_source": "health_polygons", "symbol_origin": "polygon", "name": null, "amenity": null, "healthcare": null, "phone": null, "name_el": null, "name_en": null, "healthca_1": null, "emergency": null, "beds": null, "opening_ho": null, "website": null }, "geometry": { "type": "Point", "coordinates": [ 22.963549, 40.673193 ] } },
{ "type": "Feature", "properties": { "dest_category": "Hospital with emergency", "dest_source": "health_polygons", "symbol_origin": "polygon", "name": "Γενικό Νοσοκομείο Παπαγεωργίου", "amenity": "hospital", "healthcare": null, "phone": null, "name_el": "Γενικό Νοσοκομείο Παπαγεωργίου", "name_en": "Papageorgiou General Hospital", "healthca_1": "hospital", "emergency": "yes", "beds": null, "opening_ho": null, "website": "https://www.papageorgiou-hospital.gr" }, "geometry": { "type": "Point", "coordinates": [ 22.962947, 40.675927 ] } },
{ "type": "Feature", "properties": { "dest_category": "Hospital", "dest_source": "health_polygons", "symbol_origin": "polygon", "name": null, "amenity": "hospital", "healthcare": null, "phone": "+30 2391330300", "name_el": null, "name_en": null, "healthca_1": "hospital", "emergency": null, "beds": null, "opening_ho": null, "website": null }, "geometry": { "type": "Point", "coordinates": [ 22.574966, 40.77891 ] } }
]
}
