{
"type": "FeatureCollection",
"name": "hub_network",
"crs": { "type": "name", "properties": { "name": "urn:ogc:def:crs:OGC:1.3:CRS84" } },
"xy_coordinate_resolution": 1e-06,
"features": [
{ "type": "Feature", "properties": { "hub_tier": "Connection hub", "hub_tier_el": "Τοπικός κόμβος σύνδεσης", "hub_space": "Car park", "hub_selected": false, "name": "Polis", "AREA_M2": 2542.987, "PT_ACCESS_SCORE": 0.723, "BUS_ACCESS_SCORE": 0.343, "METRO_ACCESS_SCORE": 0.578, "TYPE_COUNT": 3 }, "geometry": { "type": "Point", "coordinates": [ 22.963611, 40.612698 ] } },
{ "type": "Feature", "properties": { "hub_tier": "Connection hub", "hub_tier_el": "Τοπικός κόμβος σύνδεσης", "hub_space": "Car park", "hub_selected": false, "name": null, "AREA_M2": 22146.41, "PT_ACCESS_SCORE": 0.833, "BUS_ACCESS_SCORE": 0.143, "METRO_ACCESS_SCORE": 0.805, "TYPE_COUNT": 2 }, "geometry": { "type": "Point", "coordinates": [ 22.971947, 40.583202 ] } },
{ "type": "Feature", "properties": { "hub_tier": "Connection hub", "hub_tier_el": "Τοπικός κόμβος σύνδεσης", "hub_space": "Car park", "hub_selected": false, "name": null, "AREA_M2": 842.878, "PT_ACCESS_SCORE": 0.954, "BUS_ACCESS_SCORE": 0.346, "METRO_ACCESS_SCORE": 0.93, "TYPE_COUNT": 3 }, "geometry": { "type": "Point", "coordinates": [ 22.961378, 40.620433 ] } },
{ "type": "Feature", "properties": { "hub_tier": "Connection hub", "hub_tier_el": "Τοπικός κόμβος σύνδεσης", "hub_space": "Car park", "hub_selected": false, "name": null, "AREA_M2": 1610.511, "PT_ACCESS_SCORE": 0.879, "BUS_ACCESS_SCORE": 0.242, "METRO_ACCESS_SCORE": 0.841, "TYPE_COUNT": 3 }, "geometry": { "type": "Point", "coordinates": [ 22.959945, 40.601282 ] } },
{ "type": "Feature", "properties": { "hub_tier": "Connection hub", "hub_tier_el": "Τοπικός κόμβος σύνδεσης", "hub_space": "Car park", "hub_selected": true, "name": "Kinesis City Hub", "AREA_M2": 1246.064, "PT_ACCESS_SCORE": 0.958, "BUS_ACCESS_SCORE": 0.766, "METRO_ACCESS_SCORE": 0.822, "TYPE_COUNT": 3 }, "geometry": { "type": "Point", "coordinates": [ 22.934237, 40.640579 ] } },
{ "type": "Feature", "properties": { "hub_tier": "Connection hub", "hub_tier_el": "Τοπικός κόμβος σύνδεσης", "hub_space": "Pedestrian area", "hub_selected": false, "name": "Πλατεία Συντριβανίου", "AREA_M2": 2422.96, "PT_ACCESS_SCORE": 0.959, "BUS_ACCESS_SCORE": 0.593, "METRO_ACCESS_SCORE": 0.9, "TYPE_COUNT": 3 }, "geometry": { "type": "Point", "coordinates": [ 22.953098, 40.630957 ] } },
{ "type": "Feature", "properties": { "hub_tier": "Connection hub", "hub_tier_el": "Τοπικός κόμβος σύνδεσης", "hub_space": "Square", "hub_selected": false, "name": "Πλατεία Άθωνος", "AREA_M2": 789.18, "PT_ACCESS_SCORE": 0.94, "BUS_ACCESS_SCORE": 0.758, "METRO_ACCESS_SCORE": 0.751, "TYPE_COUNT": 3 }, "geometry": { "type": "Point", "coordinates": [ 22.944851, 40.634591 ] } },
{ "type": "Feature", "properties": { "hub_tier": "Connection hub", "hub_tier_el": "Τοπικός κόμβος σύνδεσης", "hub_space": "Square", "hub_selected": false, "name": null, "AREA_M2": 4093.048, "PT_ACCESS_SCORE": 0.961, "BUS_ACCESS_SCORE": 0.158, "METRO_ACCESS_SCORE": 0.954, "TYPE_COUNT": 3 }, "geometry": { "type": "Point", "coordinates": [ 22.969373, 40.593227 ] } },
{ "type": "Feature", "properties": { "hub_tier": "Neighbourhood hub", "hub_tier_el": "Γειτονιακός / κοινοτικός κόμβος", "hub_space": "Car park", "hub_selected": false, "name": null, "AREA_M2": 3299.12, "PT_ACCESS_SCORE": 0.389, "BUS_ACCESS_SCORE": 0.343, "METRO_ACCESS_SCORE": 0.069, "TYPE_COUNT": 2 }, "geometry": { "type": "Point", "coordinates": [ 22.969693, 40.574004 ] } },
{ "type": "Feature", "properties": { "hub_tier": "Neighbourhood hub", "hub_tier_el": "Γειτονιακός / κοινοτικός κόμβος", "hub_space": "Car park", "hub_selected": false, "name": null, "AREA_M2": 2607.256, "PT_ACCESS_SCORE": 0.354, "BUS_ACCESS_SCORE": 0.354, "METRO_ACCESS_SCORE": 0.0, "TYPE_COUNT": 3 }, "geometry": { "type": "Point", "coordinates": [ 22.935717, 40.66346 ] } },
{ "type": "Feature", "properties": { "hub_tier": "Neighbourhood hub", "hub_tier_el": "Γειτονιακός / κοινοτικός κόμβος", "hub_space": "Car park", "hub_selected": false, "name": null, "AREA_M2": 734.655, "PT_ACCESS_SCORE": 0.3, "BUS_ACCESS_SCORE": 0.3, "METRO_ACCESS_SCORE": 0.0, "TYPE_COUNT": 3 }, "geometry": { "type": "Point", "coordinates": [ 22.928669, 40.657466 ] } },
{ "type": "Feature", "properties": { "hub_tier": "Neighbourhood hub", "hub_tier_el": "Γειτονιακός / κοινοτικός κόμβος", "hub_space": "Car park", "hub_selected": false, "name": null, "AREA_M2": 2665.45, "PT_ACCESS_SCORE": 0.353, "BUS_ACCESS_SCORE": 0.353, "METRO_ACCESS_SCORE": 0.0, "TYPE_COUNT": 2 }, "geometry": { "type": "Point", "coordinates": [ 22.954231, 40.589307 ] } },
{ "type": "Feature", "properties": { "hub_tier": "Neighbourhood hub", "hub_tier_el": "Γειτονιακός / κοινοτικός κόμβος", "hub_space": "Car park", "hub_selected": false, "name": null, "AREA_M2": 2434.091, "PT_ACCESS_SCORE": 0.292, "BUS_ACCESS_SCORE": 0.292, "METRO_ACCESS_SCORE": 0.0, "TYPE_COUNT": 3 }, "geometry": { "type": "Point", "coordinates": [ 22.948607, 40.647006 ] } },
{ "type": "Feature", "properties": { "hub_tier": "Neighbourhood hub", "hub_tier_el": "Γειτονιακός / κοινοτικός κόμβος", "hub_space": "Car park", "hub_selected": false, "name": "P4", "AREA_M2": 21498.696, "PT_ACCESS_SCORE": 0.193, "BUS_ACCESS_SCORE": 0.193, "METRO_ACCESS_SCORE": 0.0, "TYPE_COUNT": 2 }, "geometry": { "type": "Point", "coordinates": [ 22.99271, 40.553947 ] } },
{ "type": "Feature", "properties": { "hub_tier": "Neighbourhood hub", "hub_tier_el": "Γειτονιακός / κοινοτικός κόμβος", "hub_space": "Car park", "hub_selected": false, "name": "Lidl", "AREA_M2": 2461.645, "PT_ACCESS_SCORE": 0.337, "BUS_ACCESS_SCORE": 0.337, "METRO_ACCESS_SCORE": 0.0, "TYPE_COUNT": 3 }, "geometry": { "type": "Point", "coordinates": [ 22.929468, 40.662692 ] } },
{ "type": "Feature", "properties": { "hub_tier": "Neighbourhood hub", "hub_tier_el": "Γειτονιακός / κοινοτικός κόμβος", "hub_space": "Car park", "hub_selected": false, "name": "Δημοτικό Πάρκινγκ", "AREA_M2": 822.225, "PT_ACCESS_SCORE": 0.175, "BUS_ACCESS_SCORE": 0.175, "METRO_ACCESS_SCORE": 0.0, "TYPE_COUNT": 2 }, "geometry": { "type": "Point", "coordinates": [ 22.944948, 40.65408 ] } },
{ "type": "Feature", "properties": { "hub_tier": "Neighbourhood hub", "hub_tier_el": "Γειτονιακός / κοινοτικός κόμβος", "hub_space": "Car park", "hub_selected": false, "name": null, "AREA_M2": 137.888, "PT_ACCESS_SCORE": 0.248, "BUS_ACCESS_SCORE": 0.248, "METRO_ACCESS_SCORE": 0.0, "TYPE_COUNT": 2 }, "geometry": { "type": "Point", "coordinates": [ 22.924834, 40.666064 ] } },
{ "type": "Feature", "properties": { "hub_tier": "Neighbourhood hub", "hub_tier_el": "Γειτονιακός / κοινοτικός κόμβος", "hub_space": "Car park", "hub_selected": false, "name": null, "AREA_M2": 5060.489, "PT_ACCESS_SCORE": 0.154, "BUS_ACCESS_SCORE": 0.154, "METRO_ACCESS_SCORE": 0.0, "TYPE_COUNT": 2 }, "geometry": { "type": "Point", "coordinates": [ 22.965915, 40.564845 ] } },
{ "type": "Feature", "properties": { "hub_tier": "Neighbourhood hub", "hub_tier_el": "Γειτονιακός / κοινοτικός κόμβος", "hub_space": "Car park", "hub_selected": false, "name": null, "AREA_M2": 1963.363, "PT_ACCESS_SCORE": 0.0, "BUS_ACCESS_SCORE": 0.0, "METRO_ACCESS_SCORE": 0.0, "TYPE_COUNT": 2 }, "geometry": { "type": "Point", "coordinates": [ 22.922486, 40.729289 ] } },
{ "type": "Feature", "properties": { "hub_tier": "Neighbourhood hub", "hub_tier_el": "Γειτονιακός / κοινοτικός κόμβος", "hub_space": "Car park", "hub_selected": false, "name": null, "AREA_M2": 2550.533, "PT_ACCESS_SCORE": 0.064, "BUS_ACCESS_SCORE": 0.064, "METRO_ACCESS_SCORE": 0.0, "TYPE_COUNT": 2 }, "geometry": { "type": "Point", "coordinates": [ 22.965588, 40.673013 ] } },
{ "type": "Feature", "properties": { "hub_tier": "Neighbourhood hub", "hub_tier_el": "Γειτονιακός / κοινοτικός κόμβος", "hub_space": "Car park", "hub_selected": false, "name": null, "AREA_M2": 479.506, "PT_ACCESS_SCORE": 0.57, "BUS_ACCESS_SCORE": 0.377, "METRO_ACCESS_SCORE": 0.309, "TYPE_COUNT": 3 }, "geometry": { "type": "Point", "coordinates": [ 22.955414, 40.62094 ] } },
{ "type": "Feature", "properties": { "hub_tier": "Neighbourhood hub", "hub_tier_el": "Γειτονιακός / κοινοτικός κόμβος", "hub_space": "Car park", "hub_selected": false, "name": null, "AREA_M2": 1163.409, "PT_ACCESS_SCORE": 0.353, "BUS_ACCESS_SCORE": 0.215, "METRO_ACCESS_SCORE": 0.175, "TYPE_COUNT": 2 }, "geometry": { "type": "Point", "coordinates": [ 22.966548, 40.63089 ] } },
{ "type": "Feature", "properties": { "hub_tier": "Neighbourhood hub", "hub_tier_el": "Γειτονιακός / κοινοτικός κόμβος", "hub_space": "Car park", "hub_selected": false, "name": null, "AREA_M2": 2325.441, "PT_ACCESS_SCORE": 0.0, "BUS_ACCESS_SCORE": 0.0, "METRO_ACCESS_SCORE": 0.0, "TYPE_COUNT": 2 }, "geometry": { "type": "Point", "coordinates": [ 22.928392, 40.506991 ] } },
{ "type": "Feature", "properties": { "hub_tier": "Neighbourhood hub", "hub_tier_el": "Γειτονιακός / κοινοτικός κόμβος", "hub_space": "Car park", "hub_selected": false, "name": null, "AREA_M2": 137.598, "PT_ACCESS_SCORE": 0.231, "BUS_ACCESS_SCORE": 0.231, "METRO_ACCESS_SCORE": 0.0, "TYPE_COUNT": 2 }, "geometry": { "type": "Point", "coordinates": [ 22.947534, 40.661718 ] } },
{ "type": "Feature", "properties": { "hub_tier": "Neighbourhood hub", "hub_tier_el": "Γειτονιακός / κοινοτικός κόμβος", "hub_space": "Car park", "hub_selected": false, "name": null, "AREA_M2": 572.787, "PT_ACCESS_SCORE": 0.189, "BUS_ACCESS_SCORE": 0.189, "METRO_ACCESS_SCORE": 0.0, "TYPE_COUNT": 2 }, "geometry": { "type": "Point", "coordinates": [ 22.948489, 40.582268 ] } },
{ "type": "Feature", "properties": { "hub_tier": "Neighbourhood hub", "hub_tier_el": "Γειτονιακός / κοινοτικός κόμβος", "hub_space": "Car park", "hub_selected": false, "name": null, "AREA_M2": 2457.517, "PT_ACCESS_SCORE": 0.25, "BUS_ACCESS_SCORE": 0.179, "METRO_ACCESS_SCORE": 0.086, "TYPE_COUNT": 2 }, "geometry": { "type": "Point", "coordinates": [ 22.964062, 40.577785 ] } },
{ "type": "Feature", "properties": { "hub_tier": "Neighbourhood hub", "hub_tier_el": "Γειτονιακός / κοινοτικός κόμβος", "hub_space": "Car park", "hub_selected": false, "name": null, "AREA_M2": 909.285, "PT_ACCESS_SCORE": 0.243, "BUS_ACCESS_SCORE": 0.243, "METRO_ACCESS_SCORE": 0.0, "TYPE_COUNT": 2 }, "geometry": { "type": "Point", "coordinates": [ 22.864294, 40.684692 ] } },
{ "type": "Feature", "properties": { "hub_tier": "Neighbourhood hub", "hub_tier_el": "Γειτονιακός / κοινοτικός κόμβος", "hub_space": "Car park", "hub_selected": false, "name": null, "AREA_M2": 328.785, "PT_ACCESS_SCORE": 0.284, "BUS_ACCESS_SCORE": 0.284, "METRO_ACCESS_SCORE": 0.0, "TYPE_COUNT": 3 }, "geometry": { "type": "Point", "coordinates": [ 22.968348, 40.60404 ] } },
{ "type": "Feature", "properties": { "hub_tier": "Neighbourhood hub", "hub_tier_el": "Γειτονιακός / κοινοτικός κόμβος", "hub_space": "Car park", "hub_selected": false, "name": null, "AREA_M2": 648.37, "PT_ACCESS_SCORE": 0.158, "BUS_ACCESS_SCORE": 0.158, "METRO_ACCESS_SCORE": 0.0, "TYPE_COUNT": 2 }, "geometry": { "type": "Point", "coordinates": [ 22.991705, 40.655403 ] } },
{ "type": "Feature", "properties": { "hub_tier": "Neighbourhood hub", "hub_tier_el": "Γειτονιακός / κοινοτικός κόμβος", "hub_space": "Car park", "hub_selected": false, "name": null, "AREA_M2": 499.855, "PT_ACCESS_SCORE": 0.267, "BUS_ACCESS_SCORE": 0.267, "METRO_ACCESS_SCORE": 0.0, "TYPE_COUNT": 2 }, "geometry": { "type": "Point", "coordinates": [ 22.977651, 40.611872 ] } },
{ "type": "Feature", "properties": { "hub_tier": "Neighbourhood hub", "hub_tier_el": "Γειτονιακός / κοινοτικός κόμβος", "hub_space": "Car park", "hub_selected": false, "name": null, "AREA_M2": 232.71, "PT_ACCESS_SCORE": 0.281, "BUS_ACCESS_SCORE": 0.281, "METRO_ACCESS_SCORE": 0.0, "TYPE_COUNT": 2 }, "geometry": { "type": "Point", "coordinates": [ 22.937777, 40.671924 ] } },
{ "type": "Feature", "properties": { "hub_tier": "Neighbourhood hub", "hub_tier_el": "Γειτονιακός / κοινοτικός κόμβος", "hub_space": "Car park", "hub_selected": false, "name": null, "AREA_M2": 441.775, "PT_ACCESS_SCORE": 0.32, "BUS_ACCESS_SCORE": 0.32, "METRO_ACCESS_SCORE": 0.0, "TYPE_COUNT": 2 }, "geometry": { "type": "Point", "coordinates": [ 22.925474, 40.673702 ] } },
{ "type": "Feature", "properties": { "hub_tier": "Neighbourhood hub", "hub_tier_el": "Γειτονιακός / κοινοτικός κόμβος", "hub_space": "Car park", "hub_selected": false, "name": null, "AREA_M2": 227.672, "PT_ACCESS_SCORE": 0.162, "BUS_ACCESS_SCORE": 0.162, "METRO_ACCESS_SCORE": 0.0, "TYPE_COUNT": 2 }, "geometry": { "type": "Point", "coordinates": [ 22.930508, 40.682048 ] } },
{ "type": "Feature", "properties": { "hub_tier": "Neighbourhood hub", "hub_tier_el": "Γειτονιακός / κοινοτικός κόμβος", "hub_space": "Car park", "hub_selected": false, "name": null, "AREA_M2": 7515.363, "PT_ACCESS_SCORE": 0.211, "BUS_ACCESS_SCORE": 0.211, "METRO_ACCESS_SCORE": 0.0, "TYPE_COUNT": 2 }, "geometry": { "type": "Point", "coordinates": [ 22.915897, 40.656966 ] } },
{ "type": "Feature", "properties": { "hub_tier": "Neighbourhood hub", "hub_tier_el": "Γειτονιακός / κοινοτικός κόμβος", "hub_space": "Car park", "hub_selected": false, "name": null, "AREA_M2": 362.993, "PT_ACCESS_SCORE": 0.256, "BUS_ACCESS_SCORE": 0.256, "METRO_ACCESS_SCORE": 0.0, "TYPE_COUNT": 2 }, "geometry": { "type": "Point", "coordinates": [ 22.961346, 40.64426 ] } },
{ "type": "Feature", "properties": { "hub_tier": "Neighbourhood hub", "hub_tier_el": "Γειτονιακός / κοινοτικός κόμβος", "hub_space": "Car park", "hub_selected": false, "name": null, "AREA_M2": 726.182, "PT_ACCESS_SCORE": 0.0, "BUS_ACCESS_SCORE": 0.0, "METRO_ACCESS_SCORE": 0.0, "TYPE_COUNT": 2 }, "geometry": { "type": "Point", "coordinates": [ 22.8579, 40.463057 ] } },
{ "type": "Feature", "properties": { "hub_tier": "Neighbourhood hub", "hub_tier_el": "Γειτονιακός / κοινοτικός κόμβος", "hub_space": "Car park", "hub_selected": false, "name": null, "AREA_M2": 2777.969, "PT_ACCESS_SCORE": 0.159, "BUS_ACCESS_SCORE": 0.159, "METRO_ACCESS_SCORE": 0.0, "TYPE_COUNT": 2 }, "geometry": { "type": "Point", "coordinates": [ 22.920655, 40.65678 ] } },
{ "type": "Feature", "properties": { "hub_tier": "Neighbourhood hub", "hub_tier_el": "Γειτονιακός / κοινοτικός κόμβος", "hub_space": "Car park", "hub_selected": false, "name": null, "AREA_M2": 1109.026, "PT_ACCESS_SCORE": 0.247, "BUS_ACCESS_SCORE": 0.247, "METRO_ACCESS_SCORE": 0.0, "TYPE_COUNT": 2 }, "geometry": { "type": "Point", "coordinates": [ 22.929674, 40.653197 ] } },
{ "type": "Feature", "properties": { "hub_tier": "Neighbourhood hub", "hub_tier_el": "Γειτονιακός / κοινοτικός κόμβος", "hub_space": "Car park", "hub_selected": false, "name": null, "AREA_M2": 675.845, "PT_ACCESS_SCORE": 0.275, "BUS_ACCESS_SCORE": 0.215, "METRO_ACCESS_SCORE": 0.076, "TYPE_COUNT": 2 }, "geometry": { "type": "Point", "coordinates": [ 22.97136, 40.623147 ] } },
{ "type": "Feature", "properties": { "hub_tier": "Neighbourhood hub", "hub_tier_el": "Γειτονιακός / κοινοτικός κόμβος", "hub_space": "Car park", "hub_selected": false, "name": null, "AREA_M2": 281.71, "PT_ACCESS_SCORE": 0.726, "BUS_ACCESS_SCORE": 0.472, "METRO_ACCESS_SCORE": 0.481, "TYPE_COUNT": 3 }, "geometry": { "type": "Point", "coordinates": [ 22.933813, 40.647656 ] } },
{ "type": "Feature", "properties": { "hub_tier": "Neighbourhood hub", "hub_tier_el": "Γειτονιακός / κοινοτικός κόμβος", "hub_space": "Car park", "hub_selected": false, "name": null, "AREA_M2": 992.743, "PT_ACCESS_SCORE": 0.287, "BUS_ACCESS_SCORE": 0.287, "METRO_ACCESS_SCORE": 0.0, "TYPE_COUNT": 2 }, "geometry": { "type": "Point", "coordinates": [ 22.96056, 40.63902 ] } },
{ "type": "Feature", "properties": { "hub_tier": "Neighbourhood hub", "hub_tier_el": "Γειτονιακός / κοινοτικός κόμβος", "hub_space": "Car park", "hub_selected": false, "name": null, "AREA_M2": 310.876, "PT_ACCESS_SCORE": 0.463, "BUS_ACCESS_SCORE": 0.463, "METRO_ACCESS_SCORE": 0.0, "TYPE_COUNT": 2 }, "geometry": { "type": "Point", "coordinates": [ 22.985657, 40.548697 ] } },
{ "type": "Feature", "properties": { "hub_tier": "Neighbourhood hub", "hub_tier_el": "Γειτονιακός / κοινοτικός κόμβος", "hub_space": "Car park", "hub_selected": false, "name": null, "AREA_M2": 1376.822, "PT_ACCESS_SCORE": 0.122, "BUS_ACCESS_SCORE": 0.122, "METRO_ACCESS_SCORE": 0.0, "TYPE_COUNT": 2 }, "geometry": { "type": "Point", "coordinates": [ 22.991512, 40.576798 ] } },
{ "type": "Feature", "properties": { "hub_tier": "Neighbourhood hub", "hub_tier_el": "Γειτονιακός / κοινοτικός κόμβος", "hub_space": "Car park", "hub_selected": false, "name": null, "AREA_M2": 2265.964, "PT_ACCESS_SCORE": 0.386, "BUS_ACCESS_SCORE": 0.224, "METRO_ACCESS_SCORE": 0.209, "TYPE_COUNT": 3 }, "geometry": { "type": "Point", "coordinates": [ 22.949636, 40.598495 ] } },
{ "type": "Feature", "properties": { "hub_tier": "Neighbourhood hub", "hub_tier_el": "Γειτονιακός / κοινοτικός κόμβος", "hub_space": "Car park", "hub_selected": false, "name": null, "AREA_M2": 198.418, "PT_ACCESS_SCORE": 0.12, "BUS_ACCESS_SCORE": 0.12, "METRO_ACCESS_SCORE": 0.0, "TYPE_COUNT": 2 }, "geometry": { "type": "Point", "coordinates": [ 23.097357, 40.612901 ] } },
{ "type": "Feature", "properties": { "hub_tier": "Neighbourhood hub", "hub_tier_el": "Γειτονιακός / κοινοτικός κόμβος", "hub_space": "Car park", "hub_selected": false, "name": null, "AREA_M2": 179.209, "PT_ACCESS_SCORE": 0.178, "BUS_ACCESS_SCORE": 0.178, "METRO_ACCESS_SCORE": 0.0, "TYPE_COUNT": 2 }, "geometry": { "type": "Point", "coordinates": [ 23.025878, 40.588048 ] } },
{ "type": "Feature", "properties": { "hub_tier": "Neighbourhood hub", "hub_tier_el": "Γειτονιακός / κοινοτικός κόμβος", "hub_space": "Car park", "hub_selected": false, "name": null, "AREA_M2": 139.444, "PT_ACCESS_SCORE": 0.089, "BUS_ACCESS_SCORE": 0.089, "METRO_ACCESS_SCORE": 0.0, "TYPE_COUNT": 2 }, "geometry": { "type": "Point", "coordinates": [ 23.100415, 40.608962 ] } },
{ "type": "Feature", "properties": { "hub_tier": "Neighbourhood hub", "hub_tier_el": "Γειτονιακός / κοινοτικός κόμβος", "hub_space": "Car park", "hub_selected": false, "name": null, "AREA_M2": 209.375, "PT_ACCESS_SCORE": 0.7, "BUS_ACCESS_SCORE": 0.283, "METRO_ACCESS_SCORE": 0.581, "TYPE_COUNT": 3 }, "geometry": { "type": "Point", "coordinates": [ 22.953267, 40.61023 ] } },
{ "type": "Feature", "properties": { "hub_tier": "Neighbourhood hub", "hub_tier_el": "Γειτονιακός / κοινοτικός κόμβος", "hub_space": "Square", "hub_selected": false, "name": null, "AREA_M2": 758.116, "PT_ACCESS_SCORE": 0.2, "BUS_ACCESS_SCORE": 0.2, "METRO_ACCESS_SCORE": 0.0, "TYPE_COUNT": 2 }, "geometry": { "type": "Point", "coordinates": [ 22.970481, 40.614584 ] } },
{ "type": "Feature", "properties": { "hub_tier": "Neighbourhood hub", "hub_tier_el": "Γειτονιακός / κοινοτικός κόμβος", "hub_space": "Square", "hub_selected": false, "name": "Πλατεία Συνταγματάρχου Αθανασίου Κατσιά", "AREA_M2": 4705.032, "PT_ACCESS_SCORE": 0.272, "BUS_ACCESS_SCORE": 0.272, "METRO_ACCESS_SCORE": 0.0, "TYPE_COUNT": 2 }, "geometry": { "type": "Point", "coordinates": [ 22.951091, 40.681528 ] } },
{ "type": "Feature", "properties": { "hub_tier": "Neighbourhood hub", "hub_tier_el": "Γειτονιακός / κοινοτικός κόμβος", "hub_space": "Square", "hub_selected": false, "name": "Κεντρική Πλατεία", "AREA_M2": 2942.861, "PT_ACCESS_SCORE": 0.0, "BUS_ACCESS_SCORE": 0.0, "METRO_ACCESS_SCORE": 0.0, "TYPE_COUNT": 2 }, "geometry": { "type": "Point", "coordinates": [ 23.06682, 40.749929 ] } },
{ "type": "Feature", "properties": { "hub_tier": "Neighbourhood hub", "hub_tier_el": "Γειτονιακός / κοινοτικός κόμβος", "hub_space": "Square", "hub_selected": false, "name": null, "AREA_M2": 298.422, "PT_ACCESS_SCORE": 0.608, "BUS_ACCESS_SCORE": 0.361, "METRO_ACCESS_SCORE": 0.387, "TYPE_COUNT": 3 }, "geometry": { "type": "Point", "coordinates": [ 22.920116, 40.645551 ] } },
{ "type": "Feature", "properties": { "hub_tier": "Street-scale hub", "hub_tier_el": "Μικροκόμβος / κόμβος κλίμακας οδού", "hub_space": "Car park", "hub_selected": false, "name": null, "AREA_M2": 10855.403, "PT_ACCESS_SCORE": 0.307, "BUS_ACCESS_SCORE": 0.307, "METRO_ACCESS_SCORE": 0.0, "TYPE_COUNT": 2 }, "geometry": { "type": "Point", "coordinates": [ 22.987944, 40.573536 ] } },
{ "type": "Feature", "properties": { "hub_tier": "Street-scale hub", "hub_tier_el": "Μικροκόμβος / κόμβος κλίμακας οδού", "hub_space": "Car park", "hub_selected": false, "name": "Ιδιωτικό Parking", "AREA_M2": 1035.566, "PT_ACCESS_SCORE": 0.158, "BUS_ACCESS_SCORE": 0.158, "METRO_ACCESS_SCORE": 0.0, "TYPE_COUNT": 2 }, "geometry": { "type": "Point", "coordinates": [ 23.035896, 40.591584 ] } },
{ "type": "Feature", "properties": { "hub_tier": "Street-scale hub", "hub_tier_el": "Μικροκόμβος / κόμβος κλίμακας οδού", "hub_space": "Car park", "hub_selected": false, "name": null, "AREA_M2": 3115.444, "PT_ACCESS_SCORE": 0.467, "BUS_ACCESS_SCORE": 0.196, "METRO_ACCESS_SCORE": 0.337, "TYPE_COUNT": 2 }, "geometry": { "type": "Point", "coordinates": [ 22.970789, 40.577266 ] } },
{ "type": "Feature", "properties": { "hub_tier": "Street-scale hub", "hub_tier_el": "Μικροκόμβος / κόμβος κλίμακας οδού", "hub_space": "Car park", "hub_selected": false, "name": null, "AREA_M2": 3166.646, "PT_ACCESS_SCORE": 0.173, "BUS_ACCESS_SCORE": 0.173, "METRO_ACCESS_SCORE": 0.0, "TYPE_COUNT": 2 }, "geometry": { "type": "Point", "coordinates": [ 22.946665, 40.585855 ] } },
{ "type": "Feature", "properties": { "hub_tier": "Street-scale hub", "hub_tier_el": "Μικροκόμβος / κόμβος κλίμακας οδού", "hub_space": "Car park", "hub_selected": false, "name": null, "AREA_M2": 24632.323, "PT_ACCESS_SCORE": 0.236, "BUS_ACCESS_SCORE": 0.236, "METRO_ACCESS_SCORE": 0.0, "TYPE_COUNT": 2 }, "geometry": { "type": "Point", "coordinates": [ 22.956949, 40.680967 ] } },
{ "type": "Feature", "properties": { "hub_tier": "Street-scale hub", "hub_tier_el": "Μικροκόμβος / κόμβος κλίμακας οδού", "hub_space": "Car park", "hub_selected": false, "name": null, "AREA_M2": 1845.581, "PT_ACCESS_SCORE": 0.0, "BUS_ACCESS_SCORE": 0.0, "METRO_ACCESS_SCORE": 0.0, "TYPE_COUNT": 2 }, "geometry": { "type": "Point", "coordinates": [ 22.929988, 40.429084 ] } },
{ "type": "Feature", "properties": { "hub_tier": "Street-scale hub", "hub_tier_el": "Μικροκόμβος / κόμβος κλίμακας οδού", "hub_space": "Car park", "hub_selected": false, "name": null, "AREA_M2": 984.909, "PT_ACCESS_SCORE": 0.0, "BUS_ACCESS_SCORE": 0.0, "METRO_ACCESS_SCORE": 0.0, "TYPE_COUNT": 1 }, "geometry": { "type": "Point", "coordinates": [ 22.933938, 40.42298 ] } },
{ "type": "Feature", "properties": { "hub_tier": "Street-scale hub", "hub_tier_el": "Μικροκόμβος / κόμβος κλίμακας οδού", "hub_space": "Car park", "hub_selected": false, "name": null, "AREA_M2": 5288.7, "PT_ACCESS_SCORE": 0.134, "BUS_ACCESS_SCORE": 0.134, "METRO_ACCESS_SCORE": 0.0, "TYPE_COUNT": 2 }, "geometry": { "type": "Point", "coordinates": [ 22.982349, 40.551956 ] } },
{ "type": "Feature", "properties": { "hub_tier": "Street-scale hub", "hub_tier_el": "Μικροκόμβος / κόμβος κλίμακας οδού", "hub_space": "Car park", "hub_selected": false, "name": null, "AREA_M2": 9367.738, "PT_ACCESS_SCORE": 0.103, "BUS_ACCESS_SCORE": 0.103, "METRO_ACCESS_SCORE": 0.0, "TYPE_COUNT": 2 }, "geometry": { "type": "Point", "coordinates": [ 22.984843, 40.553252 ] } },
{ "type": "Feature", "properties": { "hub_tier": "Street-scale hub", "hub_tier_el": "Μικροκόμβος / κόμβος κλίμακας οδού", "hub_space": "Car park", "hub_selected": false, "name": null, "AREA_M2": 1677.223, "PT_ACCESS_SCORE": 0.111, "BUS_ACCESS_SCORE": 0.111, "METRO_ACCESS_SCORE": 0.0, "TYPE_COUNT": 1 }, "geometry": { "type": "Point", "coordinates": [ 22.945673, 40.590137 ] } },
{ "type": "Feature", "properties": { "hub_tier": "Street-scale hub", "hub_tier_el": "Μικροκόμβος / κόμβος κλίμακας οδού", "hub_space": "Car park", "hub_selected": false, "name": null, "AREA_M2": 2009.674, "PT_ACCESS_SCORE": 0.701, "BUS_ACCESS_SCORE": 0.283, "METRO_ACCESS_SCORE": 0.583, "TYPE_COUNT": 3 }, "geometry": { "type": "Point", "coordinates": [ 22.953019, 40.612535 ] } },
{ "type": "Feature", "properties": { "hub_tier": "Street-scale hub", "hub_tier_el": "Μικροκόμβος / κόμβος κλίμακας οδού", "hub_space": "Car park", "hub_selected": false, "name": null, "AREA_M2": 754.022, "PT_ACCESS_SCORE": 0.159, "BUS_ACCESS_SCORE": 0.159, "METRO_ACCESS_SCORE": 0.0, "TYPE_COUNT": 2 }, "geometry": { "type": "Point", "coordinates": [ 22.960526, 40.65525 ] } },
{ "type": "Feature", "properties": { "hub_tier": "Street-scale hub", "hub_tier_el": "Μικροκόμβος / κόμβος κλίμακας οδού", "hub_space": "Car park", "hub_selected": false, "name": null, "AREA_M2": 650.108, "PT_ACCESS_SCORE": 0.0, "BUS_ACCESS_SCORE": 0.0, "METRO_ACCESS_SCORE": 0.0, "TYPE_COUNT": 1 }, "geometry": { "type": "Point", "coordinates": [ 22.956426, 40.472016 ] } },
{ "type": "Feature", "properties": { "hub_tier": "Street-scale hub", "hub_tier_el": "Μικροκόμβος / κόμβος κλίμακας οδού", "hub_space": "Car park", "hub_selected": false, "name": null, "AREA_M2": 120.731, "PT_ACCESS_SCORE": 0.147, "BUS_ACCESS_SCORE": 0.147, "METRO_ACCESS_SCORE": 0.0, "TYPE_COUNT": 1 }, "geometry": { "type": "Point", "coordinates": [ 23.023701, 40.584968 ] } },
{ "type": "Feature", "properties": { "hub_tier": "Street-scale hub", "hub_tier_el": "Μικροκόμβος / κόμβος κλίμακας οδού", "hub_space": "Car park", "hub_selected": false, "name": null, "AREA_M2": 4218.059, "PT_ACCESS_SCORE": 0.073, "BUS_ACCESS_SCORE": 0.073, "METRO_ACCESS_SCORE": 0.0, "TYPE_COUNT": 1 }, "geometry": { "type": "Point", "coordinates": [ 23.013889, 40.593949 ] } },
{ "type": "Feature", "properties": { "hub_tier": "Street-scale hub", "hub_tier_el": "Μικροκόμβος / κόμβος κλίμακας οδού", "hub_space": "Car park", "hub_selected": false, "name": null, "AREA_M2": 1461.6, "PT_ACCESS_SCORE": 0.073, "BUS_ACCESS_SCORE": 0.073, "METRO_ACCESS_SCORE": 0.0, "TYPE_COUNT": 1 }, "geometry": { "type": "Point", "coordinates": [ 23.010018, 40.590734 ] } },
{ "type": "Feature", "properties": { "hub_tier": "Street-scale hub", "hub_tier_el": "Μικροκόμβος / κόμβος κλίμακας οδού", "hub_space": "Car park", "hub_selected": false, "name": null, "AREA_M2": 2760.897, "PT_ACCESS_SCORE": 0.253, "BUS_ACCESS_SCORE": 0.253, "METRO_ACCESS_SCORE": 0.0, "TYPE_COUNT": 2 }, "geometry": { "type": "Point", "coordinates": [ 22.947816, 40.650798 ] } },
{ "type": "Feature", "properties": { "hub_tier": "Street-scale hub", "hub_tier_el": "Μικροκόμβος / κόμβος κλίμακας οδού", "hub_space": "Car park", "hub_selected": false, "name": null, "AREA_M2": 462.839, "PT_ACCESS_SCORE": 0.813, "BUS_ACCESS_SCORE": 0.401, "METRO_ACCESS_SCORE": 0.687, "TYPE_COUNT": 3 }, "geometry": { "type": "Point", "coordinates": [ 22.960445, 40.631024 ] } },
{ "type": "Feature", "properties": { "hub_tier": "Street-scale hub", "hub_tier_el": "Μικροκόμβος / κόμβος κλίμακας οδού", "hub_space": "Car park", "hub_selected": false, "name": "ΕΛΕΥΘΕΡΟ ΔΗΜΟΤΙΚΟ PARKING ΑΥΤΟΚΙΝΟΥΜΕΝΩΝ ΤΡΟΧΟΣΠΙΤΩΝ", "AREA_M2": 1897.131, "PT_ACCESS_SCORE": 0.597, "BUS_ACCESS_SCORE": 0.298, "METRO_ACCESS_SCORE": 0.427, "TYPE_COUNT": 3 }, "geometry": { "type": "Point", "coordinates": [ 22.969858, 40.597019 ] } },
{ "type": "Feature", "properties": { "hub_tier": "Street-scale hub", "hub_tier_el": "Μικροκόμβος / κόμβος κλίμακας οδού", "hub_space": "Car park", "hub_selected": false, "name": null, "AREA_M2": 946.419, "PT_ACCESS_SCORE": 0.481, "BUS_ACCESS_SCORE": 0.271, "METRO_ACCESS_SCORE": 0.287, "TYPE_COUNT": 2 }, "geometry": { "type": "Point", "coordinates": [ 22.953276, 40.595477 ] } },
{ "type": "Feature", "properties": { "hub_tier": "Street-scale hub", "hub_tier_el": "Μικροκόμβος / κόμβος κλίμακας οδού", "hub_space": "Car park", "hub_selected": false, "name": "Parking ΚΤΕΛ Μακεδονία", "AREA_M2": 8804.065, "PT_ACCESS_SCORE": 0.385, "BUS_ACCESS_SCORE": 0.385, "METRO_ACCESS_SCORE": 0.0, "TYPE_COUNT": 2 }, "geometry": { "type": "Point", "coordinates": [ 22.903269, 40.65466 ] } },
{ "type": "Feature", "properties": { "hub_tier": "Street-scale hub", "hub_tier_el": "Μικροκόμβος / κόμβος κλίμακας οδού", "hub_space": "Car park", "hub_selected": false, "name": null, "AREA_M2": 176.119, "PT_ACCESS_SCORE": 0.448, "BUS_ACCESS_SCORE": 0.448, "METRO_ACCESS_SCORE": 0.0, "TYPE_COUNT": 3 }, "geometry": { "type": "Point", "coordinates": [ 22.949708, 40.643819 ] } },
{ "type": "Feature", "properties": { "hub_tier": "Street-scale hub", "hub_tier_el": "Μικροκόμβος / κόμβος κλίμακας οδού", "hub_space": "Car park", "hub_selected": false, "name": "Express Service", "AREA_M2": 3635.101, "PT_ACCESS_SCORE": 0.153, "BUS_ACCESS_SCORE": 0.153, "METRO_ACCESS_SCORE": 0.0, "TYPE_COUNT": 2 }, "geometry": { "type": "Point", "coordinates": [ 22.948393, 40.593477 ] } },
{ "type": "Feature", "properties": { "hub_tier": "Street-scale hub", "hub_tier_el": "Μικροκόμβος / κόμβος κλίμακας οδού", "hub_space": "Car park", "hub_selected": false, "name": "Δημοτικό Πάρκινγκ", "AREA_M2": 1267.349, "PT_ACCESS_SCORE": 0.248, "BUS_ACCESS_SCORE": 0.248, "METRO_ACCESS_SCORE": 0.0, "TYPE_COUNT": 2 }, "geometry": { "type": "Point", "coordinates": [ 22.949046, 40.656157 ] } },
{ "type": "Feature", "properties": { "hub_tier": "Street-scale hub", "hub_tier_el": "Μικροκόμβος / κόμβος κλίμακας οδού", "hub_space": "Car park", "hub_selected": false, "name": null, "AREA_M2": 1365.286, "PT_ACCESS_SCORE": 0.0, "BUS_ACCESS_SCORE": 0.0, "METRO_ACCESS_SCORE": 0.0, "TYPE_COUNT": 2 }, "geometry": { "type": "Point", "coordinates": [ 22.60266, 40.731256 ] } },
{ "type": "Feature", "properties": { "hub_tier": "Street-scale hub", "hub_tier_el": "Μικροκόμβος / κόμβος κλίμακας οδού", "hub_space": "Car park", "hub_selected": false, "name": "P5", "AREA_M2": 7679.822, "PT_ACCESS_SCORE": 0.235, "BUS_ACCESS_SCORE": 0.235, "METRO_ACCESS_SCORE": 0.0, "TYPE_COUNT": 2 }, "geometry": { "type": "Point", "coordinates": [ 22.992887, 40.557322 ] } },
{ "type": "Feature", "properties": { "hub_tier": "Street-scale hub", "hub_tier_el": "Μικροκόμβος / κόμβος κλίμακας οδού", "hub_space": "Car park", "hub_selected": false, "name": null, "AREA_M2": 15501.622, "PT_ACCESS_SCORE": 0.492, "BUS_ACCESS_SCORE": 0.075, "METRO_ACCESS_SCORE": 0.451, "TYPE_COUNT": 2 }, "geometry": { "type": "Point", "coordinates": [ 22.975097, 40.578947 ] } },
{ "type": "Feature", "properties": { "hub_tier": "Street-scale hub", "hub_tier_el": "Μικροκόμβος / κόμβος κλίμακας οδού", "hub_space": "Car park", "hub_selected": false, "name": "Χώρο στάθμευσης αυτοκινήτων (P7)", "AREA_M2": 10557.203, "PT_ACCESS_SCORE": 0.0, "BUS_ACCESS_SCORE": 0.0, "METRO_ACCESS_SCORE": 0.0, "TYPE_COUNT": 2 }, "geometry": { "type": "Point", "coordinates": [ 22.979909, 40.523185 ] } },
{ "type": "Feature", "properties": { "hub_tier": "Street-scale hub", "hub_tier_el": "Μικροκόμβος / κόμβος κλίμακας οδού", "hub_space": "Car park", "hub_selected": false, "name": null, "AREA_M2": 3537.988, "PT_ACCESS_SCORE": 0.709, "BUS_ACCESS_SCORE": 0.175, "METRO_ACCESS_SCORE": 0.647, "TYPE_COUNT": 3 }, "geometry": { "type": "Point", "coordinates": [ 22.972924, 40.587189 ] } },
{ "type": "Feature", "properties": { "hub_tier": "Street-scale hub", "hub_tier_el": "Μικροκόμβος / κόμβος κλίμακας οδού", "hub_space": "Car park", "hub_selected": false, "name": "Χώρο στάθμευσης αυτοκινήτων", "AREA_M2": 14832.316, "PT_ACCESS_SCORE": 0.0, "BUS_ACCESS_SCORE": 0.0, "METRO_ACCESS_SCORE": 0.0, "TYPE_COUNT": 2 }, "geometry": { "type": "Point", "coordinates": [ 22.976993, 40.525369 ] } },
{ "type": "Feature", "properties": { "hub_tier": "Street-scale hub", "hub_tier_el": "Μικροκόμβος / κόμβος κλίμακας οδού", "hub_space": "Car park", "hub_selected": false, "name": null, "AREA_M2": 1731.096, "PT_ACCESS_SCORE": 0.0, "BUS_ACCESS_SCORE": 0.0, "METRO_ACCESS_SCORE": 0.0, "TYPE_COUNT": 1 }, "geometry": { "type": "Point", "coordinates": [ 22.979601, 40.509201 ] } },
{ "type": "Feature", "properties": { "hub_tier": "Street-scale hub", "hub_tier_el": "Μικροκόμβος / κόμβος κλίμακας οδού", "hub_space": "Car park", "hub_selected": false, "name": null, "AREA_M2": 776.646, "PT_ACCESS_SCORE": 0.0, "BUS_ACCESS_SCORE": 0.0, "METRO_ACCESS_SCORE": 0.0, "TYPE_COUNT": 1 }, "geometry": { "type": "Point", "coordinates": [ 23.441496, 40.625787 ] } },
{ "type": "Feature", "properties": { "hub_tier": "Street-scale hub", "hub_tier_el": "Μικροκόμβος / κόμβος κλίμακας οδού", "hub_space": "Car park", "hub_selected": false, "name": null, "AREA_M2": 1859.102, "PT_ACCESS_SCORE": 0.3, "BUS_ACCESS_SCORE": 0.3, "METRO_ACCESS_SCORE": 0.0, "TYPE_COUNT": 2 }, "geometry": { "type": "Point", "coordinates": [ 22.919428, 40.654013 ] } },
{ "type": "Feature", "properties": { "hub_tier": "Street-scale hub", "hub_tier_el": "Μικροκόμβος / κόμβος κλίμακας οδού", "hub_space": "Car park", "hub_selected": false, "name": null, "AREA_M2": 548.44, "PT_ACCESS_SCORE": 0.22, "BUS_ACCESS_SCORE": 0.22, "METRO_ACCESS_SCORE": 0.0, "TYPE_COUNT": 2 }, "geometry": { "type": "Point", "coordinates": [ 22.920886, 40.674188 ] } },
{ "type": "Feature", "properties": { "hub_tier": "Street-scale hub", "hub_tier_el": "Μικροκόμβος / κόμβος κλίμακας οδού", "hub_space": "Car park", "hub_selected": false, "name": null, "AREA_M2": 4049.82, "PT_ACCESS_SCORE": 0.253, "BUS_ACCESS_SCORE": 0.253, "METRO_ACCESS_SCORE": 0.0, "TYPE_COUNT": 2 }, "geometry": { "type": "Point", "coordinates": [ 22.922757, 40.654362 ] } },
{ "type": "Feature", "properties": { "hub_tier": "Street-scale hub", "hub_tier_el": "Μικροκόμβος / κόμβος κλίμακας οδού", "hub_space": "Car park", "hub_selected": false, "name": null, "AREA_M2": 1567.207, "PT_ACCESS_SCORE": 0.31, "BUS_ACCESS_SCORE": 0.31, "METRO_ACCESS_SCORE": 0.0, "TYPE_COUNT": 3 }, "geometry": { "type": "Point", "coordinates": [ 22.950995, 40.652452 ] } },
{ "type": "Feature", "properties": { "hub_tier": "Street-scale hub", "hub_tier_el": "Μικροκόμβος / κόμβος κλίμακας οδού", "hub_space": "Car park", "hub_selected": false, "name": null, "AREA_M2": 2096.352, "PT_ACCESS_SCORE": 0.106, "BUS_ACCESS_SCORE": 0.106, "METRO_ACCESS_SCORE": 0.0, "TYPE_COUNT": 2 }, "geometry": { "type": "Point", "coordinates": [ 22.911664, 40.642535 ] } },
{ "type": "Feature", "properties": { "hub_tier": "Street-scale hub", "hub_tier_el": "Μικροκόμβος / κόμβος κλίμακας οδού", "hub_space": "Car park", "hub_selected": false, "name": null, "AREA_M2": 7066.373, "PT_ACCESS_SCORE": 0.0, "BUS_ACCESS_SCORE": 0.0, "METRO_ACCESS_SCORE": 0.0, "TYPE_COUNT": 2 }, "geometry": { "type": "Point", "coordinates": [ 22.857788, 40.46689 ] } },
{ "type": "Feature", "properties": { "hub_tier": "Street-scale hub", "hub_tier_el": "Μικροκόμβος / κόμβος κλίμακας οδού", "hub_space": "Car park", "hub_selected": false, "name": null, "AREA_M2": 1446.56, "PT_ACCESS_SCORE": 0.248, "BUS_ACCESS_SCORE": 0.248, "METRO_ACCESS_SCORE": 0.0, "TYPE_COUNT": 2 }, "geometry": { "type": "Point", "coordinates": [ 22.967978, 40.567154 ] } },
{ "type": "Feature", "properties": { "hub_tier": "Street-scale hub", "hub_tier_el": "Μικροκόμβος / κόμβος κλίμακας οδού", "hub_space": "Car park", "hub_selected": false, "name": null, "AREA_M2": 1754.175, "PT_ACCESS_SCORE": 0.369, "BUS_ACCESS_SCORE": 0.369, "METRO_ACCESS_SCORE": 0.0, "TYPE_COUNT": 2 }, "geometry": { "type": "Point", "coordinates": [ 22.906645, 40.654941 ] } },
{ "type": "Feature", "properties": { "hub_tier": "Street-scale hub", "hub_tier_el": "Μικροκόμβος / κόμβος κλίμακας οδού", "hub_space": "Car park", "hub_selected": false, "name": null, "AREA_M2": 449.285, "PT_ACCESS_SCORE": 0.173, "BUS_ACCESS_SCORE": 0.173, "METRO_ACCESS_SCORE": 0.0, "TYPE_COUNT": 2 }, "geometry": { "type": "Point", "coordinates": [ 22.988574, 40.657433 ] } },
{ "type": "Feature", "properties": { "hub_tier": "Street-scale hub", "hub_tier_el": "Μικροκόμβος / κόμβος κλίμακας οδού", "hub_space": "Car park", "hub_selected": false, "name": null, "AREA_M2": 1304.577, "PT_ACCESS_SCORE": 0.33, "BUS_ACCESS_SCORE": 0.33, "METRO_ACCESS_SCORE": 0.0, "TYPE_COUNT": 2 }, "geometry": { "type": "Point", "coordinates": [ 22.898078, 40.659179 ] } },
{ "type": "Feature", "properties": { "hub_tier": "Street-scale hub", "hub_tier_el": "Μικροκόμβος / κόμβος κλίμακας οδού", "hub_space": "Car park", "hub_selected": false, "name": null, "AREA_M2": 322.224, "PT_ACCESS_SCORE": 0.168, "BUS_ACCESS_SCORE": 0.168, "METRO_ACCESS_SCORE": 0.0, "TYPE_COUNT": 2 }, "geometry": { "type": "Point", "coordinates": [ 22.906565, 40.677602 ] } },
{ "type": "Feature", "properties": { "hub_tier": "Street-scale hub", "hub_tier_el": "Μικροκόμβος / κόμβος κλίμακας οδού", "hub_space": "Car park", "hub_selected": false, "name": null, "AREA_M2": 803.287, "PT_ACCESS_SCORE": 0.226, "BUS_ACCESS_SCORE": 0.226, "METRO_ACCESS_SCORE": 0.0, "TYPE_COUNT": 2 }, "geometry": { "type": "Point", "coordinates": [ 22.988439, 40.599686 ] } },
{ "type": "Feature", "properties": { "hub_tier": "Street-scale hub", "hub_tier_el": "Μικροκόμβος / κόμβος κλίμακας οδού", "hub_space": "Car park", "hub_selected": false, "name": null, "AREA_M2": 2080.668, "PT_ACCESS_SCORE": 0.242, "BUS_ACCESS_SCORE": 0.242, "METRO_ACCESS_SCORE": 0.0, "TYPE_COUNT": 2 }, "geometry": { "type": "Point", "coordinates": [ 22.942428, 40.657907 ] } },
{ "type": "Feature", "properties": { "hub_tier": "Street-scale hub", "hub_tier_el": "Μικροκόμβος / κόμβος κλίμακας οδού", "hub_space": "Car park", "hub_selected": false, "name": "Γλυκάνισος", "AREA_M2": 238.872, "PT_ACCESS_SCORE": 0.226, "BUS_ACCESS_SCORE": 0.226, "METRO_ACCESS_SCORE": 0.0, "TYPE_COUNT": 2 }, "geometry": { "type": "Point", "coordinates": [ 22.985224, 40.597936 ] } },
{ "type": "Feature", "properties": { "hub_tier": "Street-scale hub", "hub_tier_el": "Μικροκόμβος / κόμβος κλίμακας οδού", "hub_space": "Car park", "hub_selected": false, "name": null, "AREA_M2": 3018.3, "PT_ACCESS_SCORE": 0.095, "BUS_ACCESS_SCORE": 0.095, "METRO_ACCESS_SCORE": 0.0, "TYPE_COUNT": 2 }, "geometry": { "type": "Point", "coordinates": [ 22.972093, 40.626497 ] } },
{ "type": "Feature", "properties": { "hub_tier": "Street-scale hub", "hub_tier_el": "Μικροκόμβος / κόμβος κλίμακας οδού", "hub_space": "Car park", "hub_selected": false, "name": null, "AREA_M2": 690.66, "PT_ACCESS_SCORE": 0.395, "BUS_ACCESS_SCORE": 0.317, "METRO_ACCESS_SCORE": 0.114, "TYPE_COUNT": 3 }, "geometry": { "type": "Point", "coordinates": [ 22.968926, 40.599199 ] } },
{ "type": "Feature", "properties": { "hub_tier": "Street-scale hub", "hub_tier_el": "Μικροκόμβος / κόμβος κλίμακας οδού", "hub_space": "Car park", "hub_selected": false, "name": null, "AREA_M2": 1508.796, "PT_ACCESS_SCORE": 0.129, "BUS_ACCESS_SCORE": 0.129, "METRO_ACCESS_SCORE": 0.0, "TYPE_COUNT": 1 }, "geometry": { "type": "Point", "coordinates": [ 22.995771, 40.561423 ] } },
{ "type": "Feature", "properties": { "hub_tier": "Street-scale hub", "hub_tier_el": "Μικροκόμβος / κόμβος κλίμακας οδού", "hub_space": "Car park", "hub_selected": false, "name": null, "AREA_M2": 267.279, "PT_ACCESS_SCORE": 0.129, "BUS_ACCESS_SCORE": 0.129, "METRO_ACCESS_SCORE": 0.0, "TYPE_COUNT": 2 }, "geometry": { "type": "Point", "coordinates": [ 22.99361, 40.564111 ] } },
{ "type": "Feature", "properties": { "hub_tier": "Street-scale hub", "hub_tier_el": "Μικροκόμβος / κόμβος κλίμακας οδού", "hub_space": "Car park", "hub_selected": false, "name": null, "AREA_M2": 1235.292, "PT_ACCESS_SCORE": 0.173, "BUS_ACCESS_SCORE": 0.173, "METRO_ACCESS_SCORE": 0.0, "TYPE_COUNT": 2 }, "geometry": { "type": "Point", "coordinates": [ 22.955979, 40.58011 ] } },
{ "type": "Feature", "properties": { "hub_tier": "Street-scale hub", "hub_tier_el": "Μικροκόμβος / κόμβος κλίμακας οδού", "hub_space": "Car park", "hub_selected": false, "name": null, "AREA_M2": 305.039, "PT_ACCESS_SCORE": 0.137, "BUS_ACCESS_SCORE": 0.137, "METRO_ACCESS_SCORE": 0.0, "TYPE_COUNT": 2 }, "geometry": { "type": "Point", "coordinates": [ 22.996549, 40.600254 ] } },
{ "type": "Feature", "properties": { "hub_tier": "Street-scale hub", "hub_tier_el": "Μικροκόμβος / κόμβος κλίμακας οδού", "hub_space": "Car park", "hub_selected": false, "name": null, "AREA_M2": 246.152, "PT_ACCESS_SCORE": 0.805, "BUS_ACCESS_SCORE": 0.336, "METRO_ACCESS_SCORE": 0.707, "TYPE_COUNT": 3 }, "geometry": { "type": "Point", "coordinates": [ 22.962428, 40.617959 ] } },
{ "type": "Feature", "properties": { "hub_tier": "Street-scale hub", "hub_tier_el": "Μικροκόμβος / κόμβος κλίμακας οδού", "hub_space": "Car park", "hub_selected": false, "name": null, "AREA_M2": 3096.994, "PT_ACCESS_SCORE": 0.0, "BUS_ACCESS_SCORE": 0.0, "METRO_ACCESS_SCORE": 0.0, "TYPE_COUNT": 2 }, "geometry": { "type": "Point", "coordinates": [ 22.799594, 40.665282 ] } },
{ "type": "Feature", "properties": { "hub_tier": "Street-scale hub", "hub_tier_el": "Μικροκόμβος / κόμβος κλίμακας οδού", "hub_space": "Car park", "hub_selected": false, "name": null, "AREA_M2": 608.03, "PT_ACCESS_SCORE": 0.159, "BUS_ACCESS_SCORE": 0.159, "METRO_ACCESS_SCORE": 0.0, "TYPE_COUNT": 2 }, "geometry": { "type": "Point", "coordinates": [ 22.92274, 40.659612 ] } },
{ "type": "Feature", "properties": { "hub_tier": "Street-scale hub", "hub_tier_el": "Μικροκόμβος / κόμβος κλίμακας οδού", "hub_space": "Car park", "hub_selected": false, "name": null, "AREA_M2": 1453.79, "PT_ACCESS_SCORE": 0.0, "BUS_ACCESS_SCORE": 0.0, "METRO_ACCESS_SCORE": 0.0, "TYPE_COUNT": 2 }, "geometry": { "type": "Point", "coordinates": [ 22.931368, 40.507607 ] } },
{ "type": "Feature", "properties": { "hub_tier": "Street-scale hub", "hub_tier_el": "Μικροκόμβος / κόμβος κλίμακας οδού", "hub_space": "Car park", "hub_selected": false, "name": null, "AREA_M2": 960.723, "PT_ACCESS_SCORE": 0.0, "BUS_ACCESS_SCORE": 0.0, "METRO_ACCESS_SCORE": 0.0, "TYPE_COUNT": 2 }, "geometry": { "type": "Point", "coordinates": [ 22.931462, 40.510087 ] } },
{ "type": "Feature", "properties": { "hub_tier": "Street-scale hub", "hub_tier_el": "Μικροκόμβος / κόμβος κλίμακας οδού", "hub_space": "Car park", "hub_selected": false, "name": null, "AREA_M2": 137.97, "PT_ACCESS_SCORE": 0.819, "BUS_ACCESS_SCORE": 0.472, "METRO_ACCESS_SCORE": 0.657, "TYPE_COUNT": 3 }, "geometry": { "type": "Point", "coordinates": [ 22.926423, 40.641186 ] } },
{ "type": "Feature", "properties": { "hub_tier": "Street-scale hub", "hub_tier_el": "Μικροκόμβος / κόμβος κλίμακας οδού", "hub_space": "Car park", "hub_selected": false, "name": null, "AREA_M2": 2890.731, "PT_ACCESS_SCORE": 0.111, "BUS_ACCESS_SCORE": 0.111, "METRO_ACCESS_SCORE": 0.0, "TYPE_COUNT": 2 }, "geometry": { "type": "Point", "coordinates": [ 22.960444, 40.676683 ] } },
{ "type": "Feature", "properties": { "hub_tier": "Street-scale hub", "hub_tier_el": "Μικροκόμβος / κόμβος κλίμακας οδού", "hub_space": "Car park", "hub_selected": false, "name": null, "AREA_M2": 440.433, "PT_ACCESS_SCORE": 0.0, "BUS_ACCESS_SCORE": 0.0, "METRO_ACCESS_SCORE": 0.0, "TYPE_COUNT": 2 }, "geometry": { "type": "Point", "coordinates": [ 22.805112, 40.673917 ] } },
{ "type": "Feature", "properties": { "hub_tier": "Street-scale hub", "hub_tier_el": "Μικροκόμβος / κόμβος κλίμακας οδού", "hub_space": "Car park", "hub_selected": false, "name": null, "AREA_M2": 4772.445, "PT_ACCESS_SCORE": 0.058, "BUS_ACCESS_SCORE": 0.058, "METRO_ACCESS_SCORE": 0.0, "TYPE_COUNT": 2 }, "geometry": { "type": "Point", "coordinates": [ 22.886139, 40.657546 ] } },
{ "type": "Feature", "properties": { "hub_tier": "Street-scale hub", "hub_tier_el": "Μικροκόμβος / κόμβος κλίμακας οδού", "hub_space": "Car park", "hub_selected": false, "name": null, "AREA_M2": 1612.5, "PT_ACCESS_SCORE": 0.265, "BUS_ACCESS_SCORE": 0.265, "METRO_ACCESS_SCORE": 0.0, "TYPE_COUNT": 2 }, "geometry": { "type": "Point", "coordinates": [ 22.959016, 40.584265 ] } },
{ "type": "Feature", "properties": { "hub_tier": "Street-scale hub", "hub_tier_el": "Μικροκόμβος / κόμβος κλίμακας οδού", "hub_space": "Car park", "hub_selected": false, "name": null, "AREA_M2": 2042.548, "PT_ACCESS_SCORE": 0.306, "BUS_ACCESS_SCORE": 0.306, "METRO_ACCESS_SCORE": 0.0, "TYPE_COUNT": 2 }, "geometry": { "type": "Point", "coordinates": [ 22.954129, 40.583981 ] } },
{ "type": "Feature", "properties": { "hub_tier": "Street-scale hub", "hub_tier_el": "Μικροκόμβος / κόμβος κλίμακας οδού", "hub_space": "Car park", "hub_selected": false, "name": null, "AREA_M2": 483.314, "PT_ACCESS_SCORE": 0.105, "BUS_ACCESS_SCORE": 0.105, "METRO_ACCESS_SCORE": 0.0, "TYPE_COUNT": 2 }, "geometry": { "type": "Point", "coordinates": [ 22.964644, 40.637112 ] } },
{ "type": "Feature", "properties": { "hub_tier": "Street-scale hub", "hub_tier_el": "Μικροκόμβος / κόμβος κλίμακας οδού", "hub_space": "Car park", "hub_selected": false, "name": null, "AREA_M2": 279.536, "PT_ACCESS_SCORE": 0.1, "BUS_ACCESS_SCORE": 0.1, "METRO_ACCESS_SCORE": 0.0, "TYPE_COUNT": 2 }, "geometry": { "type": "Point", "coordinates": [ 22.976702, 40.597171 ] } },
{ "type": "Feature", "properties": { "hub_tier": "Street-scale hub", "hub_tier_el": "Μικροκόμβος / κόμβος κλίμακας οδού", "hub_space": "Car park", "hub_selected": false, "name": null, "AREA_M2": 145.449, "PT_ACCESS_SCORE": 0.387, "BUS_ACCESS_SCORE": 0.126, "METRO_ACCESS_SCORE": 0.298, "TYPE_COUNT": 2 }, "geometry": { "type": "Point", "coordinates": [ 22.973309, 40.591488 ] } },
{ "type": "Feature", "properties": { "hub_tier": "Street-scale hub", "hub_tier_el": "Μικροκόμβος / κόμβος κλίμακας οδού", "hub_space": "Car park", "hub_selected": false, "name": null, "AREA_M2": 2207.054, "PT_ACCESS_SCORE": 0.535, "BUS_ACCESS_SCORE": 0.226, "METRO_ACCESS_SCORE": 0.399, "TYPE_COUNT": 3 }, "geometry": { "type": "Point", "coordinates": [ 22.96504, 40.62807 ] } },
{ "type": "Feature", "properties": { "hub_tier": "Street-scale hub", "hub_tier_el": "Μικροκόμβος / κόμβος κλίμακας οδού", "hub_space": "Car park", "hub_selected": false, "name": null, "AREA_M2": 604.442, "PT_ACCESS_SCORE": 0.195, "BUS_ACCESS_SCORE": 0.195, "METRO_ACCESS_SCORE": 0.0, "TYPE_COUNT": 2 }, "geometry": { "type": "Point", "coordinates": [ 22.905082, 40.6681 ] } },
{ "type": "Feature", "properties": { "hub_tier": "Street-scale hub", "hub_tier_el": "Μικροκόμβος / κόμβος κλίμακας οδού", "hub_space": "Car park", "hub_selected": false, "name": null, "AREA_M2": 323.888, "PT_ACCESS_SCORE": 0.115, "BUS_ACCESS_SCORE": 0.037, "METRO_ACCESS_SCORE": 0.081, "TYPE_COUNT": 2 }, "geometry": { "type": "Point", "coordinates": [ 22.976617, 40.59247 ] } },
{ "type": "Feature", "properties": { "hub_tier": "Street-scale hub", "hub_tier_el": "Μικροκόμβος / κόμβος κλίμακας οδού", "hub_space": "Car park", "hub_selected": false, "name": null, "AREA_M2": 685.366, "PT_ACCESS_SCORE": 0.07, "BUS_ACCESS_SCORE": 0.07, "METRO_ACCESS_SCORE": 0.0, "TYPE_COUNT": 2 }, "geometry": { "type": "Point", "coordinates": [ 22.989154, 40.603843 ] } },
{ "type": "Feature", "properties": { "hub_tier": "Street-scale hub", "hub_tier_el": "Μικροκόμβος / κόμβος κλίμακας οδού", "hub_space": "Car park", "hub_selected": false, "name": null, "AREA_M2": 175.922, "PT_ACCESS_SCORE": 0.115, "BUS_ACCESS_SCORE": 0.115, "METRO_ACCESS_SCORE": 0.0, "TYPE_COUNT": 2 }, "geometry": { "type": "Point", "coordinates": [ 23.019133, 40.58572 ] } },
{ "type": "Feature", "properties": { "hub_tier": "Street-scale hub", "hub_tier_el": "Μικροκόμβος / κόμβος κλίμακας οδού", "hub_space": "Car park", "hub_selected": false, "name": null, "AREA_M2": 1440.721, "PT_ACCESS_SCORE": 0.556, "BUS_ACCESS_SCORE": 0.268, "METRO_ACCESS_SCORE": 0.393, "TYPE_COUNT": 3 }, "geometry": { "type": "Point", "coordinates": [ 22.953131, 40.615338 ] } },
{ "type": "Feature", "properties": { "hub_tier": "Street-scale hub", "hub_tier_el": "Μικροκόμβος / κόμβος κλίμακας οδού", "hub_space": "Car park", "hub_selected": false, "name": null, "AREA_M2": 1061.155, "PT_ACCESS_SCORE": 0.173, "BUS_ACCESS_SCORE": 0.173, "METRO_ACCESS_SCORE": 0.0, "TYPE_COUNT": 2 }, "geometry": { "type": "Point", "coordinates": [ 22.949468, 40.57423 ] } },
{ "type": "Feature", "properties": { "hub_tier": "Street-scale hub", "hub_tier_el": "Μικροκόμβος / κόμβος κλίμακας οδού", "hub_space": "Car park", "hub_selected": false, "name": null, "AREA_M2": 415.443, "PT_ACCESS_SCORE": 0.525, "BUS_ACCESS_SCORE": 0.296, "METRO_ACCESS_SCORE": 0.325, "TYPE_COUNT": 2 }, "geometry": { "type": "Point", "coordinates": [ 22.96321, 40.582481 ] } },
{ "type": "Feature", "properties": { "hub_tier": "Street-scale hub", "hub_tier_el": "Μικροκόμβος / κόμβος κλίμακας οδού", "hub_space": "Car park", "hub_selected": false, "name": null, "AREA_M2": 359.27, "PT_ACCESS_SCORE": 0.192, "BUS_ACCESS_SCORE": 0.192, "METRO_ACCESS_SCORE": 0.0, "TYPE_COUNT": 2 }, "geometry": { "type": "Point", "coordinates": [ 22.858114, 40.693481 ] } },
{ "type": "Feature", "properties": { "hub_tier": "Street-scale hub", "hub_tier_el": "Μικροκόμβος / κόμβος κλίμακας οδού", "hub_space": "Car park", "hub_selected": false, "name": null, "AREA_M2": 250.523, "PT_ACCESS_SCORE": 0.321, "BUS_ACCESS_SCORE": 0.321, "METRO_ACCESS_SCORE": 0.0, "TYPE_COUNT": 2 }, "geometry": { "type": "Point", "coordinates": [ 22.85554, 40.68736 ] } },
{ "type": "Feature", "properties": { "hub_tier": "Street-scale hub", "hub_tier_el": "Μικροκόμβος / κόμβος κλίμακας οδού", "hub_space": "Car park", "hub_selected": false, "name": null, "AREA_M2": 175.296, "PT_ACCESS_SCORE": 0.666, "BUS_ACCESS_SCORE": 0.497, "METRO_ACCESS_SCORE": 0.336, "TYPE_COUNT": 3 }, "geometry": { "type": "Point", "coordinates": [ 22.952774, 40.63476 ] } },
{ "type": "Feature", "properties": { "hub_tier": "Street-scale hub", "hub_tier_el": "Μικροκόμβος / κόμβος κλίμακας οδού", "hub_space": "Car park", "hub_selected": false, "name": null, "AREA_M2": 1110.941, "PT_ACCESS_SCORE": 0.079, "BUS_ACCESS_SCORE": 0.079, "METRO_ACCESS_SCORE": 0.0, "TYPE_COUNT": 2 }, "geometry": { "type": "Point", "coordinates": [ 22.92499, 40.68509 ] } },
{ "type": "Feature", "properties": { "hub_tier": "Street-scale hub", "hub_tier_el": "Μικροκόμβος / κόμβος κλίμακας οδού", "hub_space": "Car park", "hub_selected": false, "name": null, "AREA_M2": 322.67, "PT_ACCESS_SCORE": 0.434, "BUS_ACCESS_SCORE": 0.434, "METRO_ACCESS_SCORE": 0.0, "TYPE_COUNT": 2 }, "geometry": { "type": "Point", "coordinates": [ 22.943672, 40.644074 ] } },
{ "type": "Feature", "properties": { "hub_tier": "Street-scale hub", "hub_tier_el": "Μικροκόμβος / κόμβος κλίμακας οδού", "hub_space": "Car park", "hub_selected": false, "name": null, "AREA_M2": 3745.114, "PT_ACCESS_SCORE": 0.0, "BUS_ACCESS_SCORE": 0.0, "METRO_ACCESS_SCORE": 0.0, "TYPE_COUNT": 1 }, "geometry": { "type": "Point", "coordinates": [ 22.996118, 40.531402 ] } },
{ "type": "Feature", "properties": { "hub_tier": "Street-scale hub", "hub_tier_el": "Μικροκόμβος / κόμβος κλίμακας οδού", "hub_space": "Car park", "hub_selected": false, "name": null, "AREA_M2": 4921.539, "PT_ACCESS_SCORE": 0.117, "BUS_ACCESS_SCORE": 0.117, "METRO_ACCESS_SCORE": 0.0, "TYPE_COUNT": 2 }, "geometry": { "type": "Point", "coordinates": [ 22.9935, 40.57356 ] } },
{ "type": "Feature", "properties": { "hub_tier": "Street-scale hub", "hub_tier_el": "Μικροκόμβος / κόμβος κλίμακας οδού", "hub_space": "Car park", "hub_selected": false, "name": null, "AREA_M2": 6029.726, "PT_ACCESS_SCORE": 0.229, "BUS_ACCESS_SCORE": 0.229, "METRO_ACCESS_SCORE": 0.0, "TYPE_COUNT": 2 }, "geometry": { "type": "Point", "coordinates": [ 22.982583, 40.572861 ] } },
{ "type": "Feature", "properties": { "hub_tier": "Street-scale hub", "hub_tier_el": "Μικροκόμβος / κόμβος κλίμακας οδού", "hub_space": "Car park", "hub_selected": false, "name": null, "AREA_M2": 1683.963, "PT_ACCESS_SCORE": 0.058, "BUS_ACCESS_SCORE": 0.048, "METRO_ACCESS_SCORE": 0.01, "TYPE_COUNT": 2 }, "geometry": { "type": "Point", "coordinates": [ 22.978222, 40.57626 ] } },
{ "type": "Feature", "properties": { "hub_tier": "Street-scale hub", "hub_tier_el": "Μικροκόμβος / κόμβος κλίμακας οδού", "hub_space": "Car park", "hub_selected": false, "name": "Δημοτικό πάρκινγκ", "AREA_M2": 1199.95, "PT_ACCESS_SCORE": 0.274, "BUS_ACCESS_SCORE": 0.274, "METRO_ACCESS_SCORE": 0.0, "TYPE_COUNT": 2 }, "geometry": { "type": "Point", "coordinates": [ 22.934924, 40.673914 ] } },
{ "type": "Feature", "properties": { "hub_tier": "Street-scale hub", "hub_tier_el": "Μικροκόμβος / κόμβος κλίμακας οδού", "hub_space": "Car park", "hub_selected": false, "name": null, "AREA_M2": 195.241, "PT_ACCESS_SCORE": 0.148, "BUS_ACCESS_SCORE": 0.148, "METRO_ACCESS_SCORE": 0.0, "TYPE_COUNT": 2 }, "geometry": { "type": "Point", "coordinates": [ 22.944525, 40.681913 ] } },
{ "type": "Feature", "properties": { "hub_tier": "Street-scale hub", "hub_tier_el": "Μικροκόμβος / κόμβος κλίμακας οδού", "hub_space": "Car park", "hub_selected": false, "name": null, "AREA_M2": 1884.821, "PT_ACCESS_SCORE": 0.0, "BUS_ACCESS_SCORE": 0.0, "METRO_ACCESS_SCORE": 0.0, "TYPE_COUNT": 2 }, "geometry": { "type": "Point", "coordinates": [ 22.910253, 40.721002 ] } },
{ "type": "Feature", "properties": { "hub_tier": "Street-scale hub", "hub_tier_el": "Μικροκόμβος / κόμβος κλίμακας οδού", "hub_space": "Car park", "hub_selected": false, "name": null, "AREA_M2": 1884.16, "PT_ACCESS_SCORE": 0.136, "BUS_ACCESS_SCORE": 0.136, "METRO_ACCESS_SCORE": 0.0, "TYPE_COUNT": 2 }, "geometry": { "type": "Point", "coordinates": [ 22.950964, 40.684028 ] } },
{ "type": "Feature", "properties": { "hub_tier": "Street-scale hub", "hub_tier_el": "Μικροκόμβος / κόμβος κλίμακας οδού", "hub_space": "Car park", "hub_selected": false, "name": null, "AREA_M2": 815.62, "PT_ACCESS_SCORE": 0.147, "BUS_ACCESS_SCORE": 0.147, "METRO_ACCESS_SCORE": 0.0, "TYPE_COUNT": 2 }, "geometry": { "type": "Point", "coordinates": [ 23.015377, 40.553509 ] } },
{ "type": "Feature", "properties": { "hub_tier": "Street-scale hub", "hub_tier_el": "Μικροκόμβος / κόμβος κλίμακας οδού", "hub_space": "Car park", "hub_selected": false, "name": null, "AREA_M2": 1743.663, "PT_ACCESS_SCORE": 0.0, "BUS_ACCESS_SCORE": 0.0, "METRO_ACCESS_SCORE": 0.0, "TYPE_COUNT": 1 }, "geometry": { "type": "Point", "coordinates": [ 22.984959, 40.514262 ] } },
{ "type": "Feature", "properties": { "hub_tier": "Street-scale hub", "hub_tier_el": "Μικροκόμβος / κόμβος κλίμακας οδού", "hub_space": "Car park", "hub_selected": false, "name": null, "AREA_M2": 906.798, "PT_ACCESS_SCORE": 0.0, "BUS_ACCESS_SCORE": 0.0, "METRO_ACCESS_SCORE": 0.0, "TYPE_COUNT": 1 }, "geometry": { "type": "Point", "coordinates": [ 22.984881, 40.522203 ] } },
{ "type": "Feature", "properties": { "hub_tier": "Street-scale hub", "hub_tier_el": "Μικροκόμβος / κόμβος κλίμακας οδού", "hub_space": "Car park", "hub_selected": false, "name": null, "AREA_M2": 837.919, "PT_ACCESS_SCORE": 0.042, "BUS_ACCESS_SCORE": 0.042, "METRO_ACCESS_SCORE": 0.0, "TYPE_COUNT": 2 }, "geometry": { "type": "Point", "coordinates": [ 22.985949, 40.567641 ] } },
{ "type": "Feature", "properties": { "hub_tier": "Street-scale hub", "hub_tier_el": "Μικροκόμβος / κόμβος κλίμακας οδού", "hub_space": "Car park", "hub_selected": false, "name": null, "AREA_M2": 2212.469, "PT_ACCESS_SCORE": 0.677, "BUS_ACCESS_SCORE": 0.185, "METRO_ACCESS_SCORE": 0.603, "TYPE_COUNT": 3 }, "geometry": { "type": "Point", "coordinates": [ 22.961012, 40.628593 ] } },
{ "type": "Feature", "properties": { "hub_tier": "Street-scale hub", "hub_tier_el": "Μικροκόμβος / κόμβος κλίμακας οδού", "hub_space": "Car park", "hub_selected": false, "name": null, "AREA_M2": 624.869, "PT_ACCESS_SCORE": 0.0, "BUS_ACCESS_SCORE": 0.0, "METRO_ACCESS_SCORE": 0.0, "TYPE_COUNT": 1 }, "geometry": { "type": "Point", "coordinates": [ 23.030839, 40.538469 ] } },
{ "type": "Feature", "properties": { "hub_tier": "Street-scale hub", "hub_tier_el": "Μικροκόμβος / κόμβος κλίμακας οδού", "hub_space": "Car park", "hub_selected": false, "name": null, "AREA_M2": 110.596, "PT_ACCESS_SCORE": 0.249, "BUS_ACCESS_SCORE": 0.249, "METRO_ACCESS_SCORE": 0.0, "TYPE_COUNT": 2 }, "geometry": { "type": "Point", "coordinates": [ 22.933727, 40.666779 ] } },
{ "type": "Feature", "properties": { "hub_tier": "Street-scale hub", "hub_tier_el": "Μικροκόμβος / κόμβος κλίμακας οδού", "hub_space": "Car park", "hub_selected": false, "name": null, "AREA_M2": 1028.854, "PT_ACCESS_SCORE": 0.251, "BUS_ACCESS_SCORE": 0.251, "METRO_ACCESS_SCORE": 0.0, "TYPE_COUNT": 3 }, "geometry": { "type": "Point", "coordinates": [ 22.971858, 40.604342 ] } },
{ "type": "Feature", "properties": { "hub_tier": "Street-scale hub", "hub_tier_el": "Μικροκόμβος / κόμβος κλίμακας οδού", "hub_space": "Car park", "hub_selected": false, "name": null, "AREA_M2": 410.708, "PT_ACCESS_SCORE": 0.276, "BUS_ACCESS_SCORE": 0.276, "METRO_ACCESS_SCORE": 0.0, "TYPE_COUNT": 2 }, "geometry": { "type": "Point", "coordinates": [ 22.932749, 40.65646 ] } },
{ "type": "Feature", "properties": { "hub_tier": "Street-scale hub", "hub_tier_el": "Μικροκόμβος / κόμβος κλίμακας οδού", "hub_space": "Car park", "hub_selected": false, "name": null, "AREA_M2": 430.509, "PT_ACCESS_SCORE": 0.211, "BUS_ACCESS_SCORE": 0.211, "METRO_ACCESS_SCORE": 0.0, "TYPE_COUNT": 2 }, "geometry": { "type": "Point", "coordinates": [ 22.909459, 40.666651 ] } },
{ "type": "Feature", "properties": { "hub_tier": "Street-scale hub", "hub_tier_el": "Μικροκόμβος / κόμβος κλίμακας οδού", "hub_space": "Car park", "hub_selected": false, "name": null, "AREA_M2": 454.565, "PT_ACCESS_SCORE": 0.179, "BUS_ACCESS_SCORE": 0.179, "METRO_ACCESS_SCORE": 0.0, "TYPE_COUNT": 2 }, "geometry": { "type": "Point", "coordinates": [ 22.909216, 40.663111 ] } },
{ "type": "Feature", "properties": { "hub_tier": "Street-scale hub", "hub_tier_el": "Μικροκόμβος / κόμβος κλίμακας οδού", "hub_space": "Car park", "hub_selected": false, "name": null, "AREA_M2": 595.301, "PT_ACCESS_SCORE": 0.115, "BUS_ACCESS_SCORE": 0.115, "METRO_ACCESS_SCORE": 0.0, "TYPE_COUNT": 2 }, "geometry": { "type": "Point", "coordinates": [ 22.945277, 40.668825 ] } },
{ "type": "Feature", "properties": { "hub_tier": "Street-scale hub", "hub_tier_el": "Μικροκόμβος / κόμβος κλίμακας οδού", "hub_space": "Car park", "hub_selected": false, "name": null, "AREA_M2": 260.719, "PT_ACCESS_SCORE": 0.158, "BUS_ACCESS_SCORE": 0.158, "METRO_ACCESS_SCORE": 0.0, "TYPE_COUNT": 2 }, "geometry": { "type": "Point", "coordinates": [ 22.919986, 40.680229 ] } },
{ "type": "Feature", "properties": { "hub_tier": "Street-scale hub", "hub_tier_el": "Μικροκόμβος / κόμβος κλίμακας οδού", "hub_space": "Car park", "hub_selected": false, "name": null, "AREA_M2": 132.345, "PT_ACCESS_SCORE": 0.2, "BUS_ACCESS_SCORE": 0.2, "METRO_ACCESS_SCORE": 0.0, "TYPE_COUNT": 2 }, "geometry": { "type": "Point", "coordinates": [ 22.925913, 40.67709 ] } },
{ "type": "Feature", "properties": { "hub_tier": "Street-scale hub", "hub_tier_el": "Μικροκόμβος / κόμβος κλίμακας οδού", "hub_space": "Car park", "hub_selected": false, "name": null, "AREA_M2": 1047.696, "PT_ACCESS_SCORE": 0.096, "BUS_ACCESS_SCORE": 0.096, "METRO_ACCESS_SCORE": 0.0, "TYPE_COUNT": 2 }, "geometry": { "type": "Point", "coordinates": [ 22.941512, 40.6651 ] } },
{ "type": "Feature", "properties": { "hub_tier": "Street-scale hub", "hub_tier_el": "Μικροκόμβος / κόμβος κλίμακας οδού", "hub_space": "Car park", "hub_selected": false, "name": null, "AREA_M2": 1477.694, "PT_ACCESS_SCORE": 0.073, "BUS_ACCESS_SCORE": 0.073, "METRO_ACCESS_SCORE": 0.0, "TYPE_COUNT": 2 }, "geometry": { "type": "Point", "coordinates": [ 22.988386, 40.606298 ] } },
{ "type": "Feature", "properties": { "hub_tier": "Street-scale hub", "hub_tier_el": "Μικροκόμβος / κόμβος κλίμακας οδού", "hub_space": "Car park", "hub_selected": false, "name": null, "AREA_M2": 781.793, "PT_ACCESS_SCORE": 0.251, "BUS_ACCESS_SCORE": 0.251, "METRO_ACCESS_SCORE": 0.0, "TYPE_COUNT": 2 }, "geometry": { "type": "Point", "coordinates": [ 22.983489, 40.608504 ] } },
{ "type": "Feature", "properties": { "hub_tier": "Street-scale hub", "hub_tier_el": "Μικροκόμβος / κόμβος κλίμακας οδού", "hub_space": "Car park", "hub_selected": false, "name": null, "AREA_M2": 752.61, "PT_ACCESS_SCORE": 0.0, "BUS_ACCESS_SCORE": 0.0, "METRO_ACCESS_SCORE": 0.0, "TYPE_COUNT": 1 }, "geometry": { "type": "Point", "coordinates": [ 22.904049, 40.503846 ] } },
{ "type": "Feature", "properties": { "hub_tier": "Street-scale hub", "hub_tier_el": "Μικροκόμβος / κόμβος κλίμακας οδού", "hub_space": "Car park", "hub_selected": false, "name": null, "AREA_M2": 2234.987, "PT_ACCESS_SCORE": 0.0, "BUS_ACCESS_SCORE": 0.0, "METRO_ACCESS_SCORE": 0.0, "TYPE_COUNT": 2 }, "geometry": { "type": "Point", "coordinates": [ 22.915349, 40.502278 ] } },
{ "type": "Feature", "properties": { "hub_tier": "Street-scale hub", "hub_tier_el": "Μικροκόμβος / κόμβος κλίμακας οδού", "hub_space": "Car park", "hub_selected": false, "name": null, "AREA_M2": 2023.783, "PT_ACCESS_SCORE": 0.105, "BUS_ACCESS_SCORE": 0.105, "METRO_ACCESS_SCORE": 0.0, "TYPE_COUNT": 2 }, "geometry": { "type": "Point", "coordinates": [ 23.043361, 40.630507 ] } },
{ "type": "Feature", "properties": { "hub_tier": "Street-scale hub", "hub_tier_el": "Μικροκόμβος / κόμβος κλίμακας οδού", "hub_space": "Car park", "hub_selected": false, "name": null, "AREA_M2": 1277.568, "PT_ACCESS_SCORE": 0.105, "BUS_ACCESS_SCORE": 0.105, "METRO_ACCESS_SCORE": 0.0, "TYPE_COUNT": 2 }, "geometry": { "type": "Point", "coordinates": [ 23.041018, 40.632396 ] } },
{ "type": "Feature", "properties": { "hub_tier": "Street-scale hub", "hub_tier_el": "Μικροκόμβος / κόμβος κλίμακας οδού", "hub_space": "Car park", "hub_selected": false, "name": null, "AREA_M2": 1253.367, "PT_ACCESS_SCORE": 0.0, "BUS_ACCESS_SCORE": 0.0, "METRO_ACCESS_SCORE": 0.0, "TYPE_COUNT": 2 }, "geometry": { "type": "Point", "coordinates": [ 22.862769, 40.458915 ] } },
{ "type": "Feature", "properties": { "hub_tier": "Street-scale hub", "hub_tier_el": "Μικροκόμβος / κόμβος κλίμακας οδού", "hub_space": "Car park", "hub_selected": false, "name": null, "AREA_M2": 2986.214, "PT_ACCESS_SCORE": 0.042, "BUS_ACCESS_SCORE": 0.042, "METRO_ACCESS_SCORE": 0.0, "TYPE_COUNT": 2 }, "geometry": { "type": "Point", "coordinates": [ 23.0018, 40.60371 ] } },
{ "type": "Feature", "properties": { "hub_tier": "Street-scale hub", "hub_tier_el": "Μικροκόμβος / κόμβος κλίμακας οδού", "hub_space": "Car park", "hub_selected": false, "name": null, "AREA_M2": 259.448, "PT_ACCESS_SCORE": 0.372, "BUS_ACCESS_SCORE": 0.315, "METRO_ACCESS_SCORE": 0.083, "TYPE_COUNT": 2 }, "geometry": { "type": "Point", "coordinates": [ 22.916998, 40.645802 ] } },
{ "type": "Feature", "properties": { "hub_tier": "Street-scale hub", "hub_tier_el": "Μικροκόμβος / κόμβος κλίμακας οδού", "hub_space": "Car park", "hub_selected": false, "name": null, "AREA_M2": 330.857, "PT_ACCESS_SCORE": 0.137, "BUS_ACCESS_SCORE": 0.137, "METRO_ACCESS_SCORE": 0.0, "TYPE_COUNT": 2 }, "geometry": { "type": "Point", "coordinates": [ 22.954633, 40.665499 ] } },
{ "type": "Feature", "properties": { "hub_tier": "Street-scale hub", "hub_tier_el": "Μικροκόμβος / κόμβος κλίμακας οδού", "hub_space": "Car park", "hub_selected": false, "name": null, "AREA_M2": 1418.774, "PT_ACCESS_SCORE": 0.421, "BUS_ACCESS_SCORE": 0.421, "METRO_ACCESS_SCORE": 0.0, "TYPE_COUNT": 2 }, "geometry": { "type": "Point", "coordinates": [ 22.895947, 40.664633 ] } },
{ "type": "Feature", "properties": { "hub_tier": "Street-scale hub", "hub_tier_el": "Μικροκόμβος / κόμβος κλίμακας οδού", "hub_space": "Car park", "hub_selected": false, "name": null, "AREA_M2": 6306.393, "PT_ACCESS_SCORE": 0.207, "BUS_ACCESS_SCORE": 0.207, "METRO_ACCESS_SCORE": 0.0, "TYPE_COUNT": 1 }, "geometry": { "type": "Point", "coordinates": [ 22.996736, 40.566932 ] } },
{ "type": "Feature", "properties": { "hub_tier": "Street-scale hub", "hub_tier_el": "Μικροκόμβος / κόμβος κλίμακας οδού", "hub_space": "Car park", "hub_selected": false, "name": null, "AREA_M2": 11849.912, "PT_ACCESS_SCORE": 0.311, "BUS_ACCESS_SCORE": 0.122, "METRO_ACCESS_SCORE": 0.215, "TYPE_COUNT": 2 }, "geometry": { "type": "Point", "coordinates": [ 22.924534, 40.639339 ] } },
{ "type": "Feature", "properties": { "hub_tier": "Street-scale hub", "hub_tier_el": "Μικροκόμβος / κόμβος κλίμακας οδού", "hub_space": "Car park", "hub_selected": false, "name": null, "AREA_M2": 167.247, "PT_ACCESS_SCORE": 0.206, "BUS_ACCESS_SCORE": 0.206, "METRO_ACCESS_SCORE": 0.0, "TYPE_COUNT": 2 }, "geometry": { "type": "Point", "coordinates": [ 22.937706, 40.677049 ] } },
{ "type": "Feature", "properties": { "hub_tier": "Street-scale hub", "hub_tier_el": "Μικροκόμβος / κόμβος κλίμακας οδού", "hub_space": "Car park", "hub_selected": false, "name": null, "AREA_M2": 3257.557, "PT_ACCESS_SCORE": 0.0, "BUS_ACCESS_SCORE": 0.0, "METRO_ACCESS_SCORE": 0.0, "TYPE_COUNT": 2 }, "geometry": { "type": "Point", "coordinates": [ 23.704468, 40.664006 ] } },
{ "type": "Feature", "properties": { "hub_tier": "Street-scale hub", "hub_tier_el": "Μικροκόμβος / κόμβος κλίμακας οδού", "hub_space": "Car park", "hub_selected": false, "name": null, "AREA_M2": 1032.861, "PT_ACCESS_SCORE": 0.0, "BUS_ACCESS_SCORE": 0.0, "METRO_ACCESS_SCORE": 0.0, "TYPE_COUNT": 2 }, "geometry": { "type": "Point", "coordinates": [ 22.696807, 40.730251 ] } },
{ "type": "Feature", "properties": { "hub_tier": "Street-scale hub", "hub_tier_el": "Μικροκόμβος / κόμβος κλίμακας οδού", "hub_space": "Car park", "hub_selected": false, "name": null, "AREA_M2": 1337.956, "PT_ACCESS_SCORE": 0.0, "BUS_ACCESS_SCORE": 0.0, "METRO_ACCESS_SCORE": 0.0, "TYPE_COUNT": 2 }, "geometry": { "type": "Point", "coordinates": [ 22.923462, 40.506178 ] } },
{ "type": "Feature", "properties": { "hub_tier": "Street-scale hub", "hub_tier_el": "Μικροκόμβος / κόμβος κλίμακας οδού", "hub_space": "Car park", "hub_selected": false, "name": null, "AREA_M2": 798.04, "PT_ACCESS_SCORE": 0.0, "BUS_ACCESS_SCORE": 0.0, "METRO_ACCESS_SCORE": 0.0, "TYPE_COUNT": 1 }, "geometry": { "type": "Point", "coordinates": [ 22.928985, 40.495941 ] } },
{ "type": "Feature", "properties": { "hub_tier": "Street-scale hub", "hub_tier_el": "Μικροκόμβος / κόμβος κλίμακας οδού", "hub_space": "Car park", "hub_selected": false, "name": null, "AREA_M2": 805.895, "PT_ACCESS_SCORE": 0.315, "BUS_ACCESS_SCORE": 0.315, "METRO_ACCESS_SCORE": 0.0, "TYPE_COUNT": 2 }, "geometry": { "type": "Point", "coordinates": [ 22.902506, 40.662834 ] } },
{ "type": "Feature", "properties": { "hub_tier": "Street-scale hub", "hub_tier_el": "Μικροκόμβος / κόμβος κλίμακας οδού", "hub_space": "Car park", "hub_selected": false, "name": null, "AREA_M2": 2278.522, "PT_ACCESS_SCORE": 0.0, "BUS_ACCESS_SCORE": 0.0, "METRO_ACCESS_SCORE": 0.0, "TYPE_COUNT": 1 }, "geometry": { "type": "Point", "coordinates": [ 23.086058, 40.733343 ] } },
{ "type": "Feature", "properties": { "hub_tier": "Street-scale hub", "hub_tier_el": "Μικροκόμβος / κόμβος κλίμακας οδού", "hub_space": "Car park", "hub_selected": false, "name": null, "AREA_M2": 1118.397, "PT_ACCESS_SCORE": 0.105, "BUS_ACCESS_SCORE": 0.105, "METRO_ACCESS_SCORE": 0.0, "TYPE_COUNT": 2 }, "geometry": { "type": "Point", "coordinates": [ 23.022017, 40.641056 ] } },
{ "type": "Feature", "properties": { "hub_tier": "Street-scale hub", "hub_tier_el": "Μικροκόμβος / κόμβος κλίμακας οδού", "hub_space": "Car park", "hub_selected": false, "name": null, "AREA_M2": 868.771, "PT_ACCESS_SCORE": 0.073, "BUS_ACCESS_SCORE": 0.073, "METRO_ACCESS_SCORE": 0.0, "TYPE_COUNT": 2 }, "geometry": { "type": "Point", "coordinates": [ 23.010881, 40.593924 ] } },
{ "type": "Feature", "properties": { "hub_tier": "Street-scale hub", "hub_tier_el": "Μικροκόμβος / κόμβος κλίμακας οδού", "hub_space": "Car park", "hub_selected": false, "name": null, "AREA_M2": 189.64, "PT_ACCESS_SCORE": 0.2, "BUS_ACCESS_SCORE": 0.2, "METRO_ACCESS_SCORE": 0.0, "TYPE_COUNT": 2 }, "geometry": { "type": "Point", "coordinates": [ 22.957442, 40.570551 ] } },
{ "type": "Feature", "properties": { "hub_tier": "Street-scale hub", "hub_tier_el": "Μικροκόμβος / κόμβος κλίμακας οδού", "hub_space": "Car park", "hub_selected": false, "name": null, "AREA_M2": 759.632, "PT_ACCESS_SCORE": 0.137, "BUS_ACCESS_SCORE": 0.137, "METRO_ACCESS_SCORE": 0.0, "TYPE_COUNT": 2 }, "geometry": { "type": "Point", "coordinates": [ 22.953765, 40.570419 ] } },
{ "type": "Feature", "properties": { "hub_tier": "Street-scale hub", "hub_tier_el": "Μικροκόμβος / κόμβος κλίμακας οδού", "hub_space": "Car park", "hub_selected": false, "name": null, "AREA_M2": 263.016, "PT_ACCESS_SCORE": 0.142, "BUS_ACCESS_SCORE": 0.142, "METRO_ACCESS_SCORE": 0.0, "TYPE_COUNT": 2 }, "geometry": { "type": "Point", "coordinates": [ 22.963096, 40.568622 ] } },
{ "type": "Feature", "properties": { "hub_tier": "Street-scale hub", "hub_tier_el": "Μικροκόμβος / κόμβος κλίμακας οδού", "hub_space": "Car park", "hub_selected": false, "name": null, "AREA_M2": 2632.578, "PT_ACCESS_SCORE": 0.235, "BUS_ACCESS_SCORE": 0.235, "METRO_ACCESS_SCORE": 0.0, "TYPE_COUNT": 1 }, "geometry": { "type": "Point", "coordinates": [ 22.988439, 40.556664 ] } },
{ "type": "Feature", "properties": { "hub_tier": "Street-scale hub", "hub_tier_el": "Μικροκόμβος / κόμβος κλίμακας οδού", "hub_space": "Car park", "hub_selected": false, "name": null, "AREA_M2": 313.228, "PT_ACCESS_SCORE": 0.064, "BUS_ACCESS_SCORE": 0.064, "METRO_ACCESS_SCORE": 0.0, "TYPE_COUNT": 2 }, "geometry": { "type": "Point", "coordinates": [ 22.979868, 40.580414 ] } },
{ "type": "Feature", "properties": { "hub_tier": "Street-scale hub", "hub_tier_el": "Μικροκόμβος / κόμβος κλίμακας οδού", "hub_space": "Car park", "hub_selected": false, "name": null, "AREA_M2": 1354.317, "PT_ACCESS_SCORE": 0.095, "BUS_ACCESS_SCORE": 0.095, "METRO_ACCESS_SCORE": 0.0, "TYPE_COUNT": 1 }, "geometry": { "type": "Point", "coordinates": [ 22.981214, 40.582843 ] } },
{ "type": "Feature", "properties": { "hub_tier": "Street-scale hub", "hub_tier_el": "Μικροκόμβος / κόμβος κλίμακας οδού", "hub_space": "Car park", "hub_selected": false, "name": null, "AREA_M2": 1671.184, "PT_ACCESS_SCORE": 0.075, "BUS_ACCESS_SCORE": 0.075, "METRO_ACCESS_SCORE": 0.0, "TYPE_COUNT": 2 }, "geometry": { "type": "Point", "coordinates": [ 22.995187, 40.576862 ] } },
{ "type": "Feature", "properties": { "hub_tier": "Street-scale hub", "hub_tier_el": "Μικροκόμβος / κόμβος κλίμακας οδού", "hub_space": "Car park", "hub_selected": false, "name": null, "AREA_M2": 1011.865, "PT_ACCESS_SCORE": 0.0, "BUS_ACCESS_SCORE": 0.0, "METRO_ACCESS_SCORE": 0.0, "TYPE_COUNT": 1 }, "geometry": { "type": "Point", "coordinates": [ 22.990845, 40.568857 ] } },
{ "type": "Feature", "properties": { "hub_tier": "Street-scale hub", "hub_tier_el": "Μικροκόμβος / κόμβος κλίμακας οδού", "hub_space": "Car park", "hub_selected": false, "name": null, "AREA_M2": 385.081, "PT_ACCESS_SCORE": 0.058, "BUS_ACCESS_SCORE": 0.058, "METRO_ACCESS_SCORE": 0.0, "TYPE_COUNT": 1 }, "geometry": { "type": "Point", "coordinates": [ 23.009863, 40.561647 ] } },
{ "type": "Feature", "properties": { "hub_tier": "Street-scale hub", "hub_tier_el": "Μικροκόμβος / κόμβος κλίμακας οδού", "hub_space": "Car park", "hub_selected": false, "name": null, "AREA_M2": 216.749, "PT_ACCESS_SCORE": 0.0, "BUS_ACCESS_SCORE": 0.0, "METRO_ACCESS_SCORE": 0.0, "TYPE_COUNT": 2 }, "geometry": { "type": "Point", "coordinates": [ 22.914323, 40.727304 ] } },
{ "type": "Feature", "properties": { "hub_tier": "Street-scale hub", "hub_tier_el": "Μικροκόμβος / κόμβος κλίμακας οδού", "hub_space": "Car park", "hub_selected": false, "name": null, "AREA_M2": 392.774, "PT_ACCESS_SCORE": 0.256, "BUS_ACCESS_SCORE": 0.256, "METRO_ACCESS_SCORE": 0.0, "TYPE_COUNT": 2 }, "geometry": { "type": "Point", "coordinates": [ 22.960259, 40.642143 ] } },
{ "type": "Feature", "properties": { "hub_tier": "Street-scale hub", "hub_tier_el": "Μικροκόμβος / κόμβος κλίμακας οδού", "hub_space": "Car park", "hub_selected": false, "name": null, "AREA_M2": 789.76, "PT_ACCESS_SCORE": 0.226, "BUS_ACCESS_SCORE": 0.226, "METRO_ACCESS_SCORE": 0.0, "TYPE_COUNT": 2 }, "geometry": { "type": "Point", "coordinates": [ 22.976253, 40.601808 ] } },
{ "type": "Feature", "properties": { "hub_tier": "Street-scale hub", "hub_tier_el": "Μικροκόμβος / κόμβος κλίμακας οδού", "hub_space": "Car park", "hub_selected": false, "name": null, "AREA_M2": 2102.144, "PT_ACCESS_SCORE": 0.2, "BUS_ACCESS_SCORE": 0.2, "METRO_ACCESS_SCORE": 0.0, "TYPE_COUNT": 2 }, "geometry": { "type": "Point", "coordinates": [ 22.960338, 40.572763 ] } },
{ "type": "Feature", "properties": { "hub_tier": "Street-scale hub", "hub_tier_el": "Μικροκόμβος / κόμβος κλίμακας οδού", "hub_space": "Car park", "hub_selected": false, "name": null, "AREA_M2": 1674.11, "PT_ACCESS_SCORE": 0.359, "BUS_ACCESS_SCORE": 0.359, "METRO_ACCESS_SCORE": 0.0, "TYPE_COUNT": 2 }, "geometry": { "type": "Point", "coordinates": [ 22.971055, 40.56865 ] } },
{ "type": "Feature", "properties": { "hub_tier": "Street-scale hub", "hub_tier_el": "Μικροκόμβος / κόμβος κλίμακας οδού", "hub_space": "Car park", "hub_selected": false, "name": null, "AREA_M2": 644.914, "PT_ACCESS_SCORE": 0.0, "BUS_ACCESS_SCORE": 0.0, "METRO_ACCESS_SCORE": 0.0, "TYPE_COUNT": 2 }, "geometry": { "type": "Point", "coordinates": [ 22.932271, 40.707882 ] } },
{ "type": "Feature", "properties": { "hub_tier": "Street-scale hub", "hub_tier_el": "Μικροκόμβος / κόμβος κλίμακας οδού", "hub_space": "Car park", "hub_selected": false, "name": null, "AREA_M2": 458.908, "PT_ACCESS_SCORE": 0.59, "BUS_ACCESS_SCORE": 0.307, "METRO_ACCESS_SCORE": 0.408, "TYPE_COUNT": 2 }, "geometry": { "type": "Point", "coordinates": [ 22.963396, 40.589904 ] } },
{ "type": "Feature", "properties": { "hub_tier": "Street-scale hub", "hub_tier_el": "Μικροκόμβος / κόμβος κλίμακας οδού", "hub_space": "Car park", "hub_selected": false, "name": null, "AREA_M2": 338.266, "PT_ACCESS_SCORE": 0.304, "BUS_ACCESS_SCORE": 0.304, "METRO_ACCESS_SCORE": 0.0, "TYPE_COUNT": 2 }, "geometry": { "type": "Point", "coordinates": [ 22.96472, 40.572615 ] } },
{ "type": "Feature", "properties": { "hub_tier": "Street-scale hub", "hub_tier_el": "Μικροκόμβος / κόμβος κλίμακας οδού", "hub_space": "Car park", "hub_selected": false, "name": null, "AREA_M2": 5280.581, "PT_ACCESS_SCORE": 0.037, "BUS_ACCESS_SCORE": 0.037, "METRO_ACCESS_SCORE": 0.0, "TYPE_COUNT": 2 }, "geometry": { "type": "Point", "coordinates": [ 22.900069, 40.676892 ] } },
{ "type": "Feature", "properties": { "hub_tier": "Street-scale hub", "hub_tier_el": "Μικροκόμβος / κόμβος κλίμακας οδού", "hub_space": "Pedestrian area", "hub_selected": false, "name": "Πλατεία Χημείου", "AREA_M2": 5444.236, "PT_ACCESS_SCORE": 0.853, "BUS_ACCESS_SCORE": 0.64, "METRO_ACCESS_SCORE": 0.593, "TYPE_COUNT": 3 }, "geometry": { "type": "Point", "coordinates": [ 22.955853, 40.632722 ] } },
{ "type": "Feature", "properties": { "hub_tier": "Street-scale hub", "hub_tier_el": "Μικροκόμβος / κόμβος κλίμακας οδού", "hub_space": "Pedestrian area", "hub_selected": false, "name": null, "AREA_M2": 632.835, "PT_ACCESS_SCORE": 0.283, "BUS_ACCESS_SCORE": 0.283, "METRO_ACCESS_SCORE": 0.0, "TYPE_COUNT": 2 }, "geometry": { "type": "Point", "coordinates": [ 22.951298, 40.622194 ] } },
{ "type": "Feature", "properties": { "hub_tier": "Street-scale hub", "hub_tier_el": "Μικροκόμβος / κόμβος κλίμακας οδού", "hub_space": "Pedestrian area", "hub_selected": false, "name": null, "AREA_M2": 1865.349, "PT_ACCESS_SCORE": 0.389, "BUS_ACCESS_SCORE": 0.33, "METRO_ACCESS_SCORE": 0.088, "TYPE_COUNT": 3 }, "geometry": { "type": "Point", "coordinates": [ 22.950456, 40.624408 ] } },
{ "type": "Feature", "properties": { "hub_tier": "Street-scale hub", "hub_tier_el": "Μικροκόμβος / κόμβος κλίμακας οδού", "hub_space": "Pedestrian area", "hub_selected": false, "name": null, "AREA_M2": 674.167, "PT_ACCESS_SCORE": 0.735, "BUS_ACCESS_SCORE": 0.48, "METRO_ACCESS_SCORE": 0.49, "TYPE_COUNT": 3 }, "geometry": { "type": "Point", "coordinates": [ 22.948771, 40.630757 ] } },
{ "type": "Feature", "properties": { "hub_tier": "Street-scale hub", "hub_tier_el": "Μικροκόμβος / κόμβος κλίμακας οδού", "hub_space": "Square", "hub_selected": false, "name": null, "AREA_M2": 1043.862, "PT_ACCESS_SCORE": 0.287, "BUS_ACCESS_SCORE": 0.287, "METRO_ACCESS_SCORE": 0.0, "TYPE_COUNT": 2 }, "geometry": { "type": "Point", "coordinates": [ 22.955068, 40.642743 ] } },
{ "type": "Feature", "properties": { "hub_tier": "Street-scale hub", "hub_tier_el": "Μικροκόμβος / κόμβος κλίμακας οδού", "hub_space": "Square", "hub_selected": false, "name": "Πλατεία Πετρακάκη", "AREA_M2": 446.907, "PT_ACCESS_SCORE": 0.929, "BUS_ACCESS_SCORE": 0.833, "METRO_ACCESS_SCORE": 0.574, "TYPE_COUNT": 3 }, "geometry": { "type": "Point", "coordinates": [ 22.937144, 40.634618 ] } },
{ "type": "Feature", "properties": { "hub_tier": "Street-scale hub", "hub_tier_el": "Μικροκόμβος / κόμβος κλίμακας οδού", "hub_space": "Square", "hub_selected": false, "name": null, "AREA_M2": 6559.841, "PT_ACCESS_SCORE": 0.073, "BUS_ACCESS_SCORE": 0.073, "METRO_ACCESS_SCORE": 0.0, "TYPE_COUNT": 1 }, "geometry": { "type": "Point", "coordinates": [ 22.981405, 40.565566 ] } },
{ "type": "Feature", "properties": { "hub_tier": "Street-scale hub", "hub_tier_el": "Μικροκόμβος / κόμβος κλίμακας οδού", "hub_space": "Square", "hub_selected": false, "name": "Πλατεία Ειρήνης", "AREA_M2": 892.304, "PT_ACCESS_SCORE": 0.346, "BUS_ACCESS_SCORE": 0.346, "METRO_ACCESS_SCORE": 0.0, "TYPE_COUNT": 2 }, "geometry": { "type": "Point", "coordinates": [ 22.941261, 40.652298 ] } },
{ "type": "Feature", "properties": { "hub_tier": "Street-scale hub", "hub_tier_el": "Μικροκόμβος / κόμβος κλίμακας οδού", "hub_space": "Square", "hub_selected": false, "name": "Πλατεία Χημείου", "AREA_M2": 5444.236, "PT_ACCESS_SCORE": 0.853, "BUS_ACCESS_SCORE": 0.64, "METRO_ACCESS_SCORE": 0.593, "TYPE_COUNT": 3 }, "geometry": { "type": "Point", "coordinates": [ 22.955853, 40.632722 ] } },
{ "type": "Feature", "properties": { "hub_tier": "Street-scale hub", "hub_tier_el": "Μικροκόμβος / κόμβος κλίμακας οδού", "hub_space": "Square", "hub_selected": false, "name": null, "AREA_M2": 926.75, "PT_ACCESS_SCORE": 0.211, "BUS_ACCESS_SCORE": 0.211, "METRO_ACCESS_SCORE": 0.0, "TYPE_COUNT": 2 }, "geometry": { "type": "Point", "coordinates": [ 22.912554, 40.657094 ] } },
{ "type": "Feature", "properties": { "hub_tier": "Street-scale hub", "hub_tier_el": "Μικροκόμβος / κόμβος κλίμακας οδού", "hub_space": "Square", "hub_selected": false, "name": "Πλατεία Ελευθερίας (Ηλιούπολης)", "AREA_M2": 4144.358, "PT_ACCESS_SCORE": 0.289, "BUS_ACCESS_SCORE": 0.289, "METRO_ACCESS_SCORE": 0.0, "TYPE_COUNT": 2 }, "geometry": { "type": "Point", "coordinates": [ 22.929187, 40.673585 ] } },
{ "type": "Feature", "properties": { "hub_tier": "Street-scale hub", "hub_tier_el": "Μικροκόμβος / κόμβος κλίμακας οδού", "hub_space": "Square", "hub_selected": false, "name": null, "AREA_M2": 3125.318, "PT_ACCESS_SCORE": 0.073, "BUS_ACCESS_SCORE": 0.073, "METRO_ACCESS_SCORE": 0.0, "TYPE_COUNT": 1 }, "geometry": { "type": "Point", "coordinates": [ 22.877706, 40.65707 ] } },
{ "type": "Feature", "properties": { "hub_tier": "Street-scale hub", "hub_tier_el": "Μικροκόμβος / κόμβος κλίμακας οδού", "hub_space": "Square", "hub_selected": false, "name": null, "AREA_M2": 1790.676, "PT_ACCESS_SCORE": 0.257, "BUS_ACCESS_SCORE": 0.257, "METRO_ACCESS_SCORE": 0.0, "TYPE_COUNT": 2 }, "geometry": { "type": "Point", "coordinates": [ 22.911722, 40.668269 ] } },
{ "type": "Feature", "properties": { "hub_tier": "Street-scale hub", "hub_tier_el": "Μικροκόμβος / κόμβος κλίμακας οδού", "hub_space": "Square", "hub_selected": false, "name": "Δημοκρατίας", "AREA_M2": 2290.875, "PT_ACCESS_SCORE": 0.259, "BUS_ACCESS_SCORE": 0.259, "METRO_ACCESS_SCORE": 0.0, "TYPE_COUNT": 2 }, "geometry": { "type": "Point", "coordinates": [ 22.858433, 40.685317 ] } },
{ "type": "Feature", "properties": { "hub_tier": "Street-scale hub", "hub_tier_el": "Μικροκόμβος / κόμβος κλίμακας οδού", "hub_space": "Square", "hub_selected": false, "name": null, "AREA_M2": 632.835, "PT_ACCESS_SCORE": 0.283, "BUS_ACCESS_SCORE": 0.283, "METRO_ACCESS_SCORE": 0.0, "TYPE_COUNT": 2 }, "geometry": { "type": "Point", "coordinates": [ 22.951298, 40.622194 ] } },
{ "type": "Feature", "properties": { "hub_tier": "Street-scale hub", "hub_tier_el": "Μικροκόμβος / κόμβος κλίμακας οδού", "hub_space": "Square", "hub_selected": false, "name": "Χρηματιστηρίου", "AREA_M2": 580.964, "PT_ACCESS_SCORE": 0.958, "BUS_ACCESS_SCORE": 0.891, "METRO_ACCESS_SCORE": 0.621, "TYPE_COUNT": 3 }, "geometry": { "type": "Point", "coordinates": [ 22.938757, 40.636999 ] } },
{ "type": "Feature", "properties": { "hub_tier": "Street-scale hub", "hub_tier_el": "Μικροκόμβος / κόμβος κλίμακας οδού", "hub_space": "Square", "hub_selected": false, "name": null, "AREA_M2": 4981.968, "PT_ACCESS_SCORE": 0.0, "BUS_ACCESS_SCORE": 0.0, "METRO_ACCESS_SCORE": 0.0, "TYPE_COUNT": 1 }, "geometry": { "type": "Point", "coordinates": [ 22.991238, 40.512412 ] } },
{ "type": "Feature", "properties": { "hub_tier": "Street-scale hub", "hub_tier_el": "Μικροκόμβος / κόμβος κλίμακας οδού", "hub_space": "Square", "hub_selected": false, "name": null, "AREA_M2": 1865.349, "PT_ACCESS_SCORE": 0.389, "BUS_ACCESS_SCORE": 0.33, "METRO_ACCESS_SCORE": 0.088, "TYPE_COUNT": 3 }, "geometry": { "type": "Point", "coordinates": [ 22.950456, 40.624408 ] } },
{ "type": "Feature", "properties": { "hub_tier": "Street-scale hub", "hub_tier_el": "Μικροκόμβος / κόμβος κλίμακας οδού", "hub_space": "Square", "hub_selected": false, "name": null, "AREA_M2": 149.395, "PT_ACCESS_SCORE": 0.314, "BUS_ACCESS_SCORE": 0.314, "METRO_ACCESS_SCORE": 0.0, "TYPE_COUNT": 2 }, "geometry": { "type": "Point", "coordinates": [ 22.955034, 40.649614 ] } },
{ "type": "Feature", "properties": { "hub_tier": "Street-scale hub", "hub_tier_el": "Μικροκόμβος / κόμβος κλίμακας οδού", "hub_space": "Square", "hub_selected": false, "name": "Δημοκρατίας", "AREA_M2": 1672.703, "PT_ACCESS_SCORE": 0.0, "BUS_ACCESS_SCORE": 0.0, "METRO_ACCESS_SCORE": 0.0, "TYPE_COUNT": 2 }, "geometry": { "type": "Point", "coordinates": [ 22.804914, 40.670082 ] } },
{ "type": "Feature", "properties": { "hub_tier": "Street-scale hub", "hub_tier_el": "Μικροκόμβος / κόμβος κλίμακας οδού", "hub_space": "Square", "hub_selected": false, "name": null, "AREA_M2": 1752.418, "PT_ACCESS_SCORE": 0.117, "BUS_ACCESS_SCORE": 0.117, "METRO_ACCESS_SCORE": 0.0, "TYPE_COUNT": 2 }, "geometry": { "type": "Point", "coordinates": [ 22.984399, 40.604716 ] } },
{ "type": "Feature", "properties": { "hub_tier": "Street-scale hub", "hub_tier_el": "Μικροκόμβος / κόμβος κλίμακας οδού", "hub_space": "Square", "hub_selected": false, "name": null, "AREA_M2": 225.395, "PT_ACCESS_SCORE": 0.565, "BUS_ACCESS_SCORE": 0.565, "METRO_ACCESS_SCORE": 0.0, "TYPE_COUNT": 3 }, "geometry": { "type": "Point", "coordinates": [ 22.954641, 40.639879 ] } },
{ "type": "Feature", "properties": { "hub_tier": "Street-scale hub", "hub_tier_el": "Μικροκόμβος / κόμβος κλίμακας οδού", "hub_space": "Square", "hub_selected": false, "name": null, "AREA_M2": 3439.081, "PT_ACCESS_SCORE": 0.154, "BUS_ACCESS_SCORE": 0.154, "METRO_ACCESS_SCORE": 0.0, "TYPE_COUNT": 2 }, "geometry": { "type": "Point", "coordinates": [ 22.97177, 40.659485 ] } },
{ "type": "Feature", "properties": { "hub_tier": "Street-scale hub", "hub_tier_el": "Μικροκόμβος / κόμβος κλίμακας οδού", "hub_space": "Square", "hub_selected": false, "name": null, "AREA_M2": 623.256, "PT_ACCESS_SCORE": 0.0, "BUS_ACCESS_SCORE": 0.0, "METRO_ACCESS_SCORE": 0.0, "TYPE_COUNT": 1 }, "geometry": { "type": "Point", "coordinates": [ 22.928434, 40.768079 ] } },
{ "type": "Feature", "properties": { "hub_tier": "Street-scale hub", "hub_tier_el": "Μικροκόμβος / κόμβος κλίμακας οδού", "hub_space": "Square", "hub_selected": false, "name": null, "AREA_M2": 235.772, "PT_ACCESS_SCORE": 0.493, "BUS_ACCESS_SCORE": 0.251, "METRO_ACCESS_SCORE": 0.324, "TYPE_COUNT": 3 }, "geometry": { "type": "Point", "coordinates": [ 22.940975, 40.632055 ] } },
{ "type": "Feature", "properties": { "hub_tier": "Street-scale hub", "hub_tier_el": "Μικροκόμβος / κόμβος κλίμακας οδού", "hub_space": "Square", "hub_selected": false, "name": "Πλατεία Ελευθερίας", "AREA_M2": 4040.97, "PT_ACCESS_SCORE": 0.452, "BUS_ACCESS_SCORE": 0.452, "METRO_ACCESS_SCORE": 0.0, "TYPE_COUNT": 2 }, "geometry": { "type": "Point", "coordinates": [ 22.894284, 40.667571 ] } },
{ "type": "Feature", "properties": { "hub_tier": "Street-scale hub", "hub_tier_el": "Μικροκόμβος / κόμβος κλίμακας οδού", "hub_space": "Square", "hub_selected": false, "name": null, "AREA_M2": 926.031, "PT_ACCESS_SCORE": 0.231, "BUS_ACCESS_SCORE": 0.231, "METRO_ACCESS_SCORE": 0.0, "TYPE_COUNT": 2 }, "geometry": { "type": "Point", "coordinates": [ 22.960051, 40.662972 ] } },
{ "type": "Feature", "properties": { "hub_tier": "Street-scale hub", "hub_tier_el": "Μικροκόμβος / κόμβος κλίμακας οδού", "hub_space": "Square", "hub_selected": false, "name": null, "AREA_M2": 674.167, "PT_ACCESS_SCORE": 0.735, "BUS_ACCESS_SCORE": 0.48, "METRO_ACCESS_SCORE": 0.49, "TYPE_COUNT": 3 }, "geometry": { "type": "Point", "coordinates": [ 22.948771, 40.630757 ] } }
]
}
