{
"type": "FeatureCollection",
"name": "metro_line",
"crs": { "type": "name", "properties": { "name": "urn:ogc:def:crs:OGC:1.3:CRS84" } },
"xy_coordinate_resolution": 1e-06,
"features": [
{ "type": "Feature", "properties": { "full_id": "w1340143805", "osm_id": "1340143805", "osm_type": "way", "railway": "subway", "covered": null, "bridge": null, "wikidata": null, "usage": null, "tunnel": null, "railway:traffic_mode": null, "railway:radio": null, "railway:preferred_direction": null, "railway:bidirectional": null, "railway:ballastless": null, "railway:atp": null, "passenger_lines": null, "operator": null, "name:zh-Hans": null, "name:ru": null, "name:ja": null, "name:it": null, "name:fr": null, "name:es": null, "name:en": null, "name:el": null, "name:de": null, "name": null, "maxspeed": null, "lit": null, "layer": null, "description": null, "voltage": "750", "service": "yard", "gauge": "1435", "frequency": "0", "electrified:rail": "bottom", "electrified": "rail", "axle_load": "14" }, "geometry": { "type": "LineString", "coordinates": [ [ 22.970735, 40.581776 ], [ 22.97079, 40.581612 ] ] } },
{ "type": "Feature", "properties": { "full_id": "w1340143806", "osm_id": "1340143806", "osm_type": "way", "railway": "subway", "covered": null, "bridge": null, "wikidata": null, "usage": null, "tunnel": null, "railway:traffic_mode": null, "railway:radio": null, "railway:preferred_direction": null, "railway:bidirectional": null, "railway:ballastless": null, "railway:atp": null, "passenger_lines": null, "operator": null, "name:zh-Hans": null, "name:ru": null, "name:ja": null, "name:it": null, "name:fr": null, "name:es": null, "name:en": null, "name:el": null, "name:de": null, "name": null, "maxspeed": null, "lit": null, "layer": null, "description": null, "voltage": "750", "service": "yard", "gauge": "1435", "frequency": "0", "electrified:rail": "bottom", "electrified": "rail", "axle_load": "14" }, "geometry": { "type": "LineString", "coordinates": [ [ 22.970679, 40.581876 ], [ 22.970735, 40.581776 ] ] } },
{ "type": "Feature", "properties": { "full_id": "w1340143816", "osm_id": "1340143816", "osm_type": "way", "railway": "subway", "covered": null, "bridge": null, "wikidata": null, "usage": null, "tunnel": null, "railway:traffic_mode": null, "railway:radio": null, "railway:preferred_direction": null, "railway:bidirectional": null, "railway:ballastless": null, "railway:atp": null, "passenger_lines": null, "operator": null, "name:zh-Hans": null, "name:ru": null, "name:ja": null, "name:it": null, "name:fr": null, "name:es": null, "name:en": null, "name:el": null, "name:de": null, "name": null, "maxspeed": null, "lit": null, "layer": null, "description": null, "voltage": "750", "service": "yard", "gauge": "1435", "frequency": "0", "electrified:rail": "bottom", "electrified": "rail", "axle_load": "14" }, "geometry": { "type": "LineString", "coordinates": [ [ 22.970679, 40.581876 ], [ 22.970647, 40.582064 ] ] } },
{ "type": "Feature", "properties": { "full_id": "w1340143813", "osm_id": "1340143813", "osm_type": "way", "railway": "subway", "covered": "yes", "bridge": null, "wikidata": null, "usage": null, "tunnel": null, "railway:traffic_mode": null, "railway:radio": null, "railway:preferred_direction": null, "railway:bidirectional": null, "railway:ballastless": null, "railway:atp": null, "passenger_lines": null, "operator": null, "name:zh-Hans": null, "name:ru": null, "name:ja": null, "name:it": null, "name:fr": null, "name:es": null, "name:en": null, "name:el": null, "name:de": null, "name": null, "maxspeed": null, "lit": null, "layer": null, "description": null, "voltage": "750", "service": "yard", "gauge": "1435", "frequency": "0", "electrified:rail": "bottom", "electrified": "rail", "axle_load": "14" }, "geometry": { "type": "LineString", "coordinates": [ [ 22.970551, 40.582064 ], [ 22.970679, 40.581876 ] ] } },
{ "type": "Feature", "properties": { "full_id": "w1340143830", "osm_id": "1340143830", "osm_type": "way", "railway": "subway", "covered": null, "bridge": null, "wikidata": null, "usage": null, "tunnel": null, "railway:traffic_mode": null, "railway:radio": null, "railway:preferred_direction": null, "railway:bidirectional": null, "railway:ballastless": null, "railway:atp": null, "passenger_lines": null, "operator": null, "name:zh-Hans": null, "name:ru": null, "name:ja": null, "name:it": null, "name:fr": null, "name:es": null, "name:en": null, "name:el": null, "name:de": null, "name": null, "maxspeed": null, "lit": null, "layer": null, "description": null, "voltage": "750", "service": "yard", "gauge": "1435", "frequency": "0", "electrified:rail": "bottom", "electrified": "rail", "axle_load": "14" }, "geometry": { "type": "LineString", "coordinates": [ [ 22.970601, 40.581991 ], [ 22.97058, 40.582064 ] ] } },
{ "type": "Feature", "properties": { "full_id": "w1340143815", "osm_id": "1340143815", "osm_type": "way", "railway": "subway", "covered": null, "bridge": null, "wikidata": null, "usage": null, "tunnel": null, "railway:traffic_mode": null, "railway:radio": null, "railway:preferred_direction": null, "railway:bidirectional": null, "railway:ballastless": null, "railway:atp": null, "passenger_lines": null, "operator": null, "name:zh-Hans": null, "name:ru": null, "name:ja": null, "name:it": null, "name:fr": null, "name:es": null, "name:en": null, "name:el": null, "name:de": null, "name": null, "maxspeed": null, "lit": null, "layer": null, "description": null, "voltage": "750", "service": "yard", "gauge": "1435", "frequency": "0", "electrified:rail": "bottom", "electrified": "rail", "axle_load": "14" }, "geometry": { "type": "LineString", "coordinates": [ [ 22.970647, 40.582064 ], [ 22.970646, 40.582279 ] ] } },
{ "type": "Feature", "properties": { "full_id": "w1340143828", "osm_id": "1340143828", "osm_type": "way", "railway": "subway", "covered": null, "bridge": null, "wikidata": null, "usage": null, "tunnel": null, "railway:traffic_mode": null, "railway:radio": null, "railway:preferred_direction": null, "railway:bidirectional": null, "railway:ballastless": null, "railway:atp": null, "passenger_lines": null, "operator": null, "name:zh-Hans": null, "name:ru": null, "name:ja": null, "name:it": null, "name:fr": null, "name:es": null, "name:en": null, "name:el": null, "name:de": null, "name": null, "maxspeed": null, "lit": null, "layer": null, "description": null, "voltage": "750", "service": "yard", "gauge": "1435", "frequency": "0", "electrified:rail": "bottom", "electrified": "rail", "axle_load": "14" }, "geometry": { "type": "LineString", "coordinates": [ [ 22.97058, 40.582064 ], [ 22.970545, 40.582279 ] ] } },
{ "type": "Feature", "properties": { "full_id": "w1340143826", "osm_id": "1340143826", "osm_type": "way", "railway": "subway", "covered": null, "bridge": null, "wikidata": null, "usage": null, "tunnel": null, "railway:traffic_mode": null, "railway:radio": null, "railway:preferred_direction": null, "railway:bidirectional": null, "railway:ballastless": null, "railway:atp": null, "passenger_lines": null, "operator": null, "name:zh-Hans": null, "name:ru": null, "name:ja": null, "name:it": null, "name:fr": null, "name:es": null, "name:en": null, "name:el": null, "name:de": null, "name": null, "maxspeed": null, "lit": null, "layer": null, "description": null, "voltage": "750", "service": "yard", "gauge": "1435", "frequency": "0", "electrified:rail": "bottom", "electrified": "rail", "axle_load": "14" }, "geometry": { "type": "LineString", "coordinates": [ [ 22.970647, 40.582091 ], [ 22.970699, 40.582279 ] ] } },
{ "type": "Feature", "properties": { "full_id": "w1340143829", "osm_id": "1340143829", "osm_type": "way", "railway": "subway", "covered": null, "bridge": null, "wikidata": null, "usage": null, "tunnel": null, "railway:traffic_mode": null, "railway:radio": null, "railway:preferred_direction": null, "railway:bidirectional": null, "railway:ballastless": null, "railway:atp": null, "passenger_lines": null, "operator": null, "name:zh-Hans": null, "name:ru": null, "name:ja": null, "name:it": null, "name:fr": null, "name:es": null, "name:en": null, "name:el": null, "name:de": null, "name": null, "maxspeed": null, "lit": null, "layer": null, "description": null, "voltage": "750", "service": "yard", "gauge": "1435", "frequency": "0", "electrified:rail": "bottom", "electrified": "rail", "axle_load": "14" }, "geometry": { "type": "LineString", "coordinates": [ [ 22.970538, 40.582088 ], [ 22.970494, 40.58228 ] ] } },
{ "type": "Feature", "properties": { "full_id": "w1340143827", "osm_id": "1340143827", "osm_type": "way", "railway": "subway", "covered": null, "bridge": null, "wikidata": null, "usage": null, "tunnel": null, "railway:traffic_mode": null, "railway:radio": null, "railway:preferred_direction": null, "railway:bidirectional": null, "railway:ballastless": null, "railway:atp": null, "passenger_lines": null, "operator": null, "name:zh-Hans": null, "name:ru": null, "name:ja": null, "name:it": null, "name:fr": null, "name:es": null, "name:en": null, "name:el": null, "name:de": null, "name": null, "maxspeed": null, "lit": null, "layer": null, "description": null, "voltage": "750", "service": "yard", "gauge": "1435", "frequency": "0", "electrified:rail": "bottom", "electrified": "rail", "axle_load": "14" }, "geometry": { "type": "LineString", "coordinates": [ [ 22.970647, 40.58215 ], [ 22.970672, 40.582279 ] ] } },
{ "type": "Feature", "properties": { "full_id": "w1340143804", "osm_id": "1340143804", "osm_type": "way", "railway": "subway", "covered": null, "bridge": "yes", "wikidata": null, "usage": null, "tunnel": null, "railway:traffic_mode": null, "railway:radio": null, "railway:preferred_direction": null, "railway:bidirectional": null, "railway:ballastless": null, "railway:atp": null, "passenger_lines": null, "operator": null, "name:zh-Hans": null, "name:ru": null, "name:ja": null, "name:it": null, "name:fr": null, "name:es": null, "name:en": null, "name:el": null, "name:de": null, "name": null, "maxspeed": null, "lit": null, "layer": "1", "description": null, "voltage": "750", "service": "yard", "gauge": "1435", "frequency": "0", "electrified:rail": "bottom", "electrified": "rail", "axle_load": "14" }, "geometry": { "type": "LineString", "coordinates": [ [ 22.97079, 40.581612 ], [ 22.970794, 40.581417 ], [ 22.970724, 40.581251 ], [ 22.970665, 40.581177 ], [ 22.970588, 40.581111 ], [ 22.970471, 40.581048 ], [ 22.970317, 40.580995 ], [ 22.970191, 40.580971 ], [ 22.969925, 40.58098 ], [ 22.969804, 40.581009 ], [ 22.969702, 40.581052 ], [ 22.969565, 40.581137 ], [ 22.96951, 40.581191 ], [ 22.969446, 40.581277 ], [ 22.969399, 40.581383 ] ] } },
{ "type": "Feature", "properties": { "full_id": "w551525996", "osm_id": "551525996", "osm_type": "way", "railway": "subway", "covered": null, "bridge": null, "wikidata": null, "usage": null, "tunnel": null, "railway:traffic_mode": null, "railway:radio": null, "railway:preferred_direction": null, "railway:bidirectional": null, "railway:ballastless": null, "railway:atp": null, "passenger_lines": null, "operator": null, "name:zh-Hans": null, "name:ru": null, "name:ja": null, "name:it": null, "name:fr": null, "name:es": null, "name:en": null, "name:el": null, "name:de": null, "name": null, "maxspeed": null, "lit": null, "layer": null, "description": null, "voltage": "750", "service": "yard", "gauge": "1435", "frequency": "0", "electrified:rail": "bottom", "electrified": "rail", "axle_load": "14" }, "geometry": { "type": "LineString", "coordinates": [ [ 22.970123, 40.581453 ], [ 22.970168, 40.582261 ], [ 22.969855, 40.582855 ] ] } },
{ "type": "Feature", "properties": { "full_id": "w551526023", "osm_id": "551526023", "osm_type": "way", "railway": "subway", "covered": null, "bridge": null, "wikidata": null, "usage": null, "tunnel": null, "railway:traffic_mode": null, "railway:radio": null, "railway:preferred_direction": null, "railway:bidirectional": null, "railway:ballastless": null, "railway:atp": null, "passenger_lines": null, "operator": null, "name:zh-Hans": null, "name:ru": null, "name:ja": null, "name:it": null, "name:fr": null, "name:es": null, "name:en": null, "name:el": null, "name:de": null, "name": null, "maxspeed": null, "lit": null, "layer": null, "description": null, "voltage": "750", "service": "yard", "gauge": "1435", "frequency": "0", "electrified:rail": "bottom", "electrified": "rail", "axle_load": "14" }, "geometry": { "type": "LineString", "coordinates": [ [ 22.970016, 40.581456 ], [ 22.970061, 40.582264 ], [ 22.969855, 40.582855 ] ] } },
{ "type": "Feature", "properties": { "full_id": "w482601147", "osm_id": "482601147", "osm_type": "way", "railway": "subway", "covered": null, "bridge": null, "wikidata": null, "usage": null, "tunnel": null, "railway:traffic_mode": null, "railway:radio": null, "railway:preferred_direction": null, "railway:bidirectional": null, "railway:ballastless": null, "railway:atp": null, "passenger_lines": null, "operator": null, "name:zh-Hans": null, "name:ru": null, "name:ja": null, "name:it": null, "name:fr": null, "name:es": null, "name:en": null, "name:el": null, "name:de": null, "name": null, "maxspeed": null, "lit": null, "layer": null, "description": null, "voltage": "750", "service": "yard", "gauge": "1435", "frequency": "0", "electrified:rail": "bottom", "electrified": "rail", "axle_load": "14" }, "geometry": { "type": "LineString", "coordinates": [ [ 22.96991, 40.581459 ], [ 22.969954, 40.582268 ], [ 22.969855, 40.582855 ] ] } },
{ "type": "Feature", "properties": { "full_id": "w551526028", "osm_id": "551526028", "osm_type": "way", "railway": "subway", "covered": null, "bridge": null, "wikidata": null, "usage": null, "tunnel": null, "railway:traffic_mode": null, "railway:radio": null, "railway:preferred_direction": null, "railway:bidirectional": null, "railway:ballastless": null, "railway:atp": null, "passenger_lines": null, "operator": null, "name:zh-Hans": null, "name:ru": null, "name:ja": null, "name:it": null, "name:fr": null, "name:es": null, "name:en": null, "name:el": null, "name:de": null, "name": null, "maxspeed": null, "lit": null, "layer": null, "description": null, "voltage": "750", "service": "yard", "gauge": "1435", "frequency": "0", "electrified:rail": "bottom", "electrified": "rail", "axle_load": "14" }, "geometry": { "type": "LineString", "coordinates": [ [ 22.969803, 40.581463 ], [ 22.969848, 40.582271 ], [ 22.969855, 40.582855 ] ] } },
{ "type": "Feature", "properties": { "full_id": "w551526019", "osm_id": "551526019", "osm_type": "way", "railway": "subway", "covered": null, "bridge": null, "wikidata": null, "usage": null, "tunnel": null, "railway:traffic_mode": null, "railway:radio": null, "railway:preferred_direction": null, "railway:bidirectional": null, "railway:ballastless": null, "railway:atp": null, "passenger_lines": null, "operator": null, "name:zh-Hans": null, "name:ru": null, "name:ja": null, "name:it": null, "name:fr": null, "name:es": null, "name:en": null, "name:el": null, "name:de": null, "name": null, "maxspeed": null, "lit": null, "layer": null, "description": null, "voltage": "750", "service": "yard", "gauge": "1435", "frequency": "0", "electrified:rail": "bottom", "electrified": "rail", "axle_load": "14" }, "geometry": { "type": "LineString", "coordinates": [ [ 22.969696, 40.581466 ], [ 22.969741, 40.582274 ], [ 22.969855, 40.582855 ] ] } },
{ "type": "Feature", "properties": { "full_id": "w1340143812", "osm_id": "1340143812", "osm_type": "way", "railway": "subway", "covered": null, "bridge": null, "wikidata": null, "usage": null, "tunnel": null, "railway:traffic_mode": null, "railway:radio": null, "railway:preferred_direction": null, "railway:bidirectional": null, "railway:ballastless": null, "railway:atp": null, "passenger_lines": null, "operator": null, "name:zh-Hans": null, "name:ru": null, "name:ja": null, "name:it": null, "name:fr": null, "name:es": null, "name:en": null, "name:el": null, "name:de": null, "name": null, "maxspeed": null, "lit": null, "layer": null, "description": null, "voltage": "750", "service": "yard", "gauge": "1435", "frequency": "0", "electrified:rail": "bottom", "electrified": "rail", "axle_load": "14" }, "geometry": { "type": "LineString", "coordinates": [ [ 22.970429, 40.58228 ], [ 22.970551, 40.582064 ] ] } },
{ "type": "Feature", "properties": { "full_id": "w551526006", "osm_id": "551526006", "osm_type": "way", "railway": "subway", "covered": null, "bridge": null, "wikidata": null, "usage": null, "tunnel": null, "railway:traffic_mode": null, "railway:radio": null, "railway:preferred_direction": null, "railway:bidirectional": null, "railway:ballastless": null, "railway:atp": null, "passenger_lines": null, "operator": null, "name:zh-Hans": null, "name:ru": null, "name:ja": null, "name:it": null, "name:fr": null, "name:es": null, "name:en": null, "name:el": null, "name:de": null, "name": null, "maxspeed": null, "lit": null, "layer": null, "description": null, "voltage": "750", "service": "yard", "gauge": "1435", "frequency": "0", "electrified:rail": "bottom", "electrified": "rail", "axle_load": "14" }, "geometry": { "type": "LineString", "coordinates": [ [ 22.970243, 40.581449 ], [ 22.970287, 40.582257 ], [ 22.969827, 40.583192 ] ] } },
{ "type": "Feature", "properties": { "full_id": "w551526010", "osm_id": "551526010", "osm_type": "way", "railway": "subway", "covered": null, "bridge": null, "wikidata": null, "usage": null, "tunnel": null, "railway:traffic_mode": null, "railway:radio": null, "railway:preferred_direction": null, "railway:bidirectional": null, "railway:ballastless": null, "railway:atp": null, "passenger_lines": null, "operator": null, "name:zh-Hans": null, "name:ru": null, "name:ja": null, "name:it": null, "name:fr": null, "name:es": null, "name:en": null, "name:el": null, "name:de": null, "name": null, "maxspeed": null, "lit": null, "layer": null, "description": null, "voltage": "750", "service": "yard", "gauge": "1435", "frequency": "0", "electrified:rail": "bottom", "electrified": "rail", "axle_load": "14" }, "geometry": { "type": "LineString", "coordinates": [ [ 22.970281, 40.581447 ], [ 22.970326, 40.582256 ], [ 22.969832, 40.58326 ] ] } },
{ "type": "Feature", "properties": { "full_id": "w551525997", "osm_id": "551525997", "osm_type": "way", "railway": "subway", "covered": null, "bridge": null, "wikidata": null, "usage": null, "tunnel": null, "railway:traffic_mode": null, "railway:radio": null, "railway:preferred_direction": null, "railway:bidirectional": null, "railway:ballastless": null, "railway:atp": null, "passenger_lines": null, "operator": null, "name:zh-Hans": null, "name:ru": null, "name:ja": null, "name:it": null, "name:fr": null, "name:es": null, "name:en": null, "name:el": null, "name:de": null, "name": null, "maxspeed": null, "lit": null, "layer": null, "description": null, "voltage": "750", "service": "yard", "gauge": "1435", "frequency": "0", "electrified:rail": "bottom", "electrified": "rail", "axle_load": "14" }, "geometry": { "type": "LineString", "coordinates": [ [ 22.970209, 40.582778 ], [ 22.970259, 40.58257 ], [ 22.970429, 40.58228 ] ] } },
{ "type": "Feature", "properties": { "full_id": "w1340143817", "osm_id": "1340143817", "osm_type": "way", "railway": "subway", "covered": null, "bridge": null, "wikidata": null, "usage": null, "tunnel": null, "railway:traffic_mode": null, "railway:radio": null, "railway:preferred_direction": null, "railway:bidirectional": null, "railway:ballastless": null, "railway:atp": null, "passenger_lines": null, "operator": null, "name:zh-Hans": null, "name:ru": null, "name:ja": null, "name:it": null, "name:fr": null, "name:es": null, "name:en": null, "name:el": null, "name:de": null, "name": null, "maxspeed": null, "lit": null, "layer": null, "description": null, "voltage": "750", "service": "yard", "gauge": "1435", "frequency": "0", "electrified:rail": "bottom", "electrified": "rail", "axle_load": "14" }, "geometry": { "type": "LineString", "coordinates": [ [ 22.970494, 40.58228 ], [ 22.970461, 40.582472 ], [ 22.970455, 40.582781 ] ] } },
{ "type": "Feature", "properties": { "full_id": "w1340143810", "osm_id": "1340143810", "osm_type": "way", "railway": "subway", "covered": null, "bridge": null, "wikidata": null, "usage": null, "tunnel": null, "railway:traffic_mode": null, "railway:radio": null, "railway:preferred_direction": null, "railway:bidirectional": null, "railway:ballastless": null, "railway:atp": null, "passenger_lines": null, "operator": null, "name:zh-Hans": null, "name:ru": null, "name:ja": null, "name:it": null, "name:fr": null, "name:es": null, "name:en": null, "name:el": null, "name:de": null, "name": null, "maxspeed": null, "lit": null, "layer": null, "description": null, "voltage": "750", "service": "yard", "gauge": "1435", "frequency": "0", "electrified:rail": "bottom", "electrified": "rail", "axle_load": "14" }, "geometry": { "type": "LineString", "coordinates": [ [ 22.970403, 40.582323 ], [ 22.970361, 40.582447 ], [ 22.970352, 40.58278 ] ] } },
{ "type": "Feature", "properties": { "full_id": "w1340143811", "osm_id": "1340143811", "osm_type": "way", "railway": "subway", "covered": null, "bridge": null, "wikidata": null, "usage": null, "tunnel": null, "railway:traffic_mode": null, "railway:radio": null, "railway:preferred_direction": null, "railway:bidirectional": null, "railway:ballastless": null, "railway:atp": null, "passenger_lines": null, "operator": null, "name:zh-Hans": null, "name:ru": null, "name:ja": null, "name:it": null, "name:fr": null, "name:es": null, "name:en": null, "name:el": null, "name:de": null, "name": null, "maxspeed": null, "lit": null, "layer": null, "description": null, "voltage": "750", "service": "yard", "gauge": "1435", "frequency": "0", "electrified:rail": "bottom", "electrified": "rail", "axle_load": "14" }, "geometry": { "type": "LineString", "coordinates": [ [ 22.970314, 40.582475 ], [ 22.970287, 40.582589 ], [ 22.970281, 40.582779 ] ] } },
{ "type": "Feature", "properties": { "full_id": "w551525998", "osm_id": "551525998", "osm_type": "way", "railway": "subway", "covered": null, "bridge": null, "wikidata": null, "usage": null, "tunnel": null, "railway:traffic_mode": null, "railway:radio": null, "railway:preferred_direction": null, "railway:bidirectional": null, "railway:ballastless": null, "railway:atp": null, "passenger_lines": null, "operator": null, "name:zh-Hans": null, "name:ru": null, "name:ja": null, "name:it": null, "name:fr": null, "name:es": null, "name:en": null, "name:el": null, "name:de": null, "name": null, "maxspeed": null, "lit": null, "layer": null, "description": null, "voltage": "750", "service": "yard", "gauge": "1435", "frequency": "0", "electrified:rail": "bottom", "electrified": "rail", "axle_load": "14" }, "geometry": { "type": "LineString", "coordinates": [ [ 22.969885, 40.584062 ], [ 22.969805, 40.582857 ], [ 22.969588, 40.58231 ], [ 22.969551, 40.581376 ] ] } },
{ "type": "Feature", "properties": { "full_id": "w1340143821", "osm_id": "1340143821", "osm_type": "way", "railway": "subway", "covered": null, "bridge": null, "wikidata": null, "usage": null, "tunnel": null, "railway:traffic_mode": null, "railway:radio": null, "railway:preferred_direction": null, "railway:bidirectional": null, "railway:ballastless": null, "railway:atp": null, "passenger_lines": null, "operator": null, "name:zh-Hans": null, "name:ru": null, "name:ja": null, "name:it": null, "name:fr": null, "name:es": null, "name:en": null, "name:el": null, "name:de": null, "name": null, "maxspeed": null, "lit": null, "layer": null, "description": null, "voltage": "750", "service": "yard", "gauge": "1435", "frequency": "0", "electrified:rail": "bottom", "electrified": "rail", "axle_load": "14" }, "geometry": { "type": "LineString", "coordinates": [ [ 22.970455, 40.582781 ], [ 22.970447, 40.583463 ] ] } },
{ "type": "Feature", "properties": { "full_id": "w1340143809", "osm_id": "1340143809", "osm_type": "way", "railway": "subway", "covered": null, "bridge": null, "wikidata": null, "usage": null, "tunnel": null, "railway:traffic_mode": null, "railway:radio": null, "railway:preferred_direction": null, "railway:bidirectional": null, "railway:ballastless": null, "railway:atp": null, "passenger_lines": null, "operator": null, "name:zh-Hans": null, "name:ru": null, "name:ja": null, "name:it": null, "name:fr": null, "name:es": null, "name:en": null, "name:el": null, "name:de": null, "name": null, "maxspeed": null, "lit": null, "layer": null, "description": null, "voltage": "750", "service": "yard", "gauge": "1435", "frequency": "0", "electrified:rail": "bottom", "electrified": "rail", "axle_load": "14" }, "geometry": { "type": "LineString", "coordinates": [ [ 22.970352, 40.58278 ], [ 22.970344, 40.583464 ] ] } },
{ "type": "Feature", "properties": { "full_id": "w1340143807", "osm_id": "1340143807", "osm_type": "way", "railway": "subway", "covered": null, "bridge": null, "wikidata": null, "usage": null, "tunnel": null, "railway:traffic_mode": null, "railway:radio": null, "railway:preferred_direction": null, "railway:bidirectional": null, "railway:ballastless": null, "railway:atp": null, "passenger_lines": null, "operator": null, "name:zh-Hans": null, "name:ru": null, "name:ja": null, "name:it": null, "name:fr": null, "name:es": null, "name:en": null, "name:el": null, "name:de": null, "name": null, "maxspeed": null, "lit": null, "layer": null, "description": null, "voltage": "750", "service": "yard", "gauge": "1435", "frequency": "0", "electrified:rail": "bottom", "electrified": "rail", "axle_load": "14" }, "geometry": { "type": "LineString", "coordinates": [ [ 22.970281, 40.582779 ], [ 22.970272, 40.583467 ] ] } },
{ "type": "Feature", "properties": { "full_id": "w1340143808", "osm_id": "1340143808", "osm_type": "way", "railway": "subway", "covered": null, "bridge": null, "wikidata": null, "usage": null, "tunnel": null, "railway:traffic_mode": null, "railway:radio": null, "railway:preferred_direction": null, "railway:bidirectional": null, "railway:ballastless": null, "railway:atp": null, "passenger_lines": null, "operator": null, "name:zh-Hans": null, "name:ru": null, "name:ja": null, "name:it": null, "name:fr": null, "name:es": null, "name:en": null, "name:el": null, "name:de": null, "name": null, "maxspeed": null, "lit": null, "layer": null, "description": null, "voltage": "750", "service": "yard", "gauge": "1435", "frequency": "0", "electrified:rail": "bottom", "electrified": "rail", "axle_load": "14" }, "geometry": { "type": "LineString", "coordinates": [ [ 22.970202, 40.583468 ], [ 22.970209, 40.582778 ] ] } },
{ "type": "Feature", "properties": { "full_id": "w1340143802", "osm_id": "1340143802", "osm_type": "way", "railway": "subway", "covered": null, "bridge": null, "wikidata": null, "usage": null, "tunnel": "yes", "railway:traffic_mode": null, "railway:radio": null, "railway:preferred_direction": null, "railway:bidirectional": null, "railway:ballastless": null, "railway:atp": null, "passenger_lines": null, "operator": null, "name:zh-Hans": null, "name:ru": null, "name:ja": null, "name:it": null, "name:fr": null, "name:es": null, "name:en": null, "name:el": null, "name:de": null, "name": null, "maxspeed": null, "lit": null, "layer": "-1", "description": null, "voltage": "750", "service": "yard", "gauge": "1435", "frequency": "0", "electrified:rail": "bottom", "electrified": "rail", "axle_load": "14" }, "geometry": { "type": "LineString", "coordinates": [ [ 22.969619, 40.582966 ], [ 22.969865, 40.583758 ] ] } },
{ "type": "Feature", "properties": { "full_id": "w551526003", "osm_id": "551526003", "osm_type": "way", "railway": "subway", "covered": null, "bridge": null, "wikidata": null, "usage": null, "tunnel": null, "railway:traffic_mode": null, "railway:radio": null, "railway:preferred_direction": null, "railway:bidirectional": null, "railway:ballastless": null, "railway:atp": null, "passenger_lines": null, "operator": null, "name:zh-Hans": null, "name:ru": null, "name:ja": null, "name:it": null, "name:fr": null, "name:es": null, "name:en": null, "name:el": null, "name:de": null, "name": null, "maxspeed": null, "lit": null, "layer": null, "description": null, "voltage": "750", "service": "yard", "gauge": "1435", "frequency": "0", "electrified:rail": "bottom", "electrified": "rail", "axle_load": "14" }, "geometry": { "type": "LineString", "coordinates": [ [ 22.969855, 40.582855 ], [ 22.969935, 40.58406 ] ] } },
{ "type": "Feature", "properties": { "full_id": "w1340143801", "osm_id": "1340143801", "osm_type": "way", "railway": "subway", "covered": null, "bridge": null, "wikidata": null, "usage": null, "tunnel": "yes", "railway:traffic_mode": null, "railway:radio": null, "railway:preferred_direction": null, "railway:bidirectional": null, "railway:ballastless": null, "railway:atp": null, "passenger_lines": null, "operator": null, "name:zh-Hans": null, "name:ru": null, "name:ja": null, "name:it": null, "name:fr": null, "name:es": null, "name:en": null, "name:el": null, "name:de": null, "name": null, "maxspeed": null, "lit": null, "layer": "-1", "description": null, "voltage": "750", "service": "yard", "gauge": "1435", "frequency": "0", "electrified:rail": "bottom", "electrified": "rail", "axle_load": "14" }, "geometry": { "type": "LineString", "coordinates": [ [ 22.969648, 40.583367 ], [ 22.969665, 40.583477 ], [ 22.96973, 40.583661 ], [ 22.969873, 40.583889 ], [ 22.969935, 40.58406 ] ] } },
{ "type": "Feature", "properties": { "full_id": "w1340143818", "osm_id": "1340143818", "osm_type": "way", "railway": "subway", "covered": null, "bridge": null, "wikidata": null, "usage": null, "tunnel": null, "railway:traffic_mode": null, "railway:radio": null, "railway:preferred_direction": null, "railway:bidirectional": null, "railway:ballastless": null, "railway:atp": null, "passenger_lines": null, "operator": null, "name:zh-Hans": null, "name:ru": null, "name:ja": null, "name:it": null, "name:fr": null, "name:es": null, "name:en": null, "name:el": null, "name:de": null, "name": null, "maxspeed": null, "lit": null, "layer": null, "description": null, "voltage": "750", "service": "yard", "gauge": "1435", "frequency": "0", "electrified:rail": "bottom", "electrified": "rail", "axle_load": "14" }, "geometry": { "type": "LineString", "coordinates": [ [ 22.970545, 40.582279 ], [ 22.970532, 40.58278 ] ] } },
{ "type": "Feature", "properties": { "full_id": "w1340143820", "osm_id": "1340143820", "osm_type": "way", "railway": "subway", "covered": null, "bridge": null, "wikidata": null, "usage": null, "tunnel": null, "railway:traffic_mode": null, "railway:radio": null, "railway:preferred_direction": null, "railway:bidirectional": null, "railway:ballastless": null, "railway:atp": null, "passenger_lines": null, "operator": null, "name:zh-Hans": null, "name:ru": null, "name:ja": null, "name:it": null, "name:fr": null, "name:es": null, "name:en": null, "name:el": null, "name:de": null, "name": null, "maxspeed": null, "lit": null, "layer": null, "description": null, "voltage": "750", "service": "yard", "gauge": "1435", "frequency": "0", "electrified:rail": "bottom", "electrified": "rail", "axle_load": "14" }, "geometry": { "type": "LineString", "coordinates": [ [ 22.970699, 40.582279 ], [ 22.970772, 40.582625 ], [ 22.970786, 40.582958 ] ] } },
{ "type": "Feature", "properties": { "full_id": "w1340143819", "osm_id": "1340143819", "osm_type": "way", "railway": "subway", "covered": null, "bridge": null, "wikidata": null, "usage": null, "tunnel": null, "railway:traffic_mode": null, "railway:radio": null, "railway:preferred_direction": null, "railway:bidirectional": null, "railway:ballastless": null, "railway:atp": null, "passenger_lines": null, "operator": null, "name:zh-Hans": null, "name:ru": null, "name:ja": null, "name:it": null, "name:fr": null, "name:es": null, "name:en": null, "name:el": null, "name:de": null, "name": null, "maxspeed": null, "lit": null, "layer": null, "description": null, "voltage": "750", "service": "yard", "gauge": "1435", "frequency": "0", "electrified:rail": "bottom", "electrified": "rail", "axle_load": "14" }, "geometry": { "type": "LineString", "coordinates": [ [ 22.970672, 40.582279 ], [ 22.970718, 40.582655 ], [ 22.970715, 40.582958 ] ] } },
{ "type": "Feature", "properties": { "full_id": "w1340143814", "osm_id": "1340143814", "osm_type": "way", "railway": "subway", "covered": null, "bridge": null, "wikidata": null, "usage": null, "tunnel": null, "railway:traffic_mode": null, "railway:radio": null, "railway:preferred_direction": null, "railway:bidirectional": null, "railway:ballastless": null, "railway:atp": null, "passenger_lines": null, "operator": null, "name:zh-Hans": null, "name:ru": null, "name:ja": null, "name:it": null, "name:fr": null, "name:es": null, "name:en": null, "name:el": null, "name:de": null, "name": null, "maxspeed": null, "lit": null, "layer": null, "description": null, "voltage": "750", "service": "yard", "gauge": "1435", "frequency": "0", "electrified:rail": "bottom", "electrified": "rail", "axle_load": "14" }, "geometry": { "type": "LineString", "coordinates": [ [ 22.970646, 40.582279 ], [ 22.970631, 40.582958 ] ] } },
{ "type": "Feature", "properties": { "full_id": "w1340143822", "osm_id": "1340143822", "osm_type": "way", "railway": "subway", "covered": null, "bridge": null, "wikidata": null, "usage": null, "tunnel": null, "railway:traffic_mode": null, "railway:radio": null, "railway:preferred_direction": null, "railway:bidirectional": null, "railway:ballastless": null, "railway:atp": null, "passenger_lines": null, "operator": null, "name:zh-Hans": null, "name:ru": null, "name:ja": null, "name:it": null, "name:fr": null, "name:es": null, "name:en": null, "name:el": null, "name:de": null, "name": null, "maxspeed": null, "lit": null, "layer": null, "description": null, "voltage": "750", "service": "yard", "gauge": "1435", "frequency": "0", "electrified:rail": "bottom", "electrified": "rail", "axle_load": "14" }, "geometry": { "type": "LineString", "coordinates": [ [ 22.970532, 40.58278 ], [ 22.970531, 40.583463 ] ] } },
{ "type": "Feature", "properties": { "full_id": "w1340143825", "osm_id": "1340143825", "osm_type": "way", "railway": "subway", "covered": null, "bridge": null, "wikidata": null, "usage": null, "tunnel": null, "railway:traffic_mode": null, "railway:radio": null, "railway:preferred_direction": null, "railway:bidirectional": null, "railway:ballastless": null, "railway:atp": null, "passenger_lines": null, "operator": null, "name:zh-Hans": null, "name:ru": null, "name:ja": null, "name:it": null, "name:fr": null, "name:es": null, "name:en": null, "name:el": null, "name:de": null, "name": null, "maxspeed": null, "lit": null, "layer": null, "description": null, "voltage": "750", "service": "yard", "gauge": "1435", "frequency": "0", "electrified:rail": "bottom", "electrified": "rail", "axle_load": "14" }, "geometry": { "type": "LineString", "coordinates": [ [ 22.970786, 40.582958 ], [ 22.97079, 40.583616 ] ] } },
{ "type": "Feature", "properties": { "full_id": "w1340143824", "osm_id": "1340143824", "osm_type": "way", "railway": "subway", "covered": null, "bridge": null, "wikidata": null, "usage": null, "tunnel": null, "railway:traffic_mode": null, "railway:radio": null, "railway:preferred_direction": null, "railway:bidirectional": null, "railway:ballastless": null, "railway:atp": null, "passenger_lines": null, "operator": null, "name:zh-Hans": null, "name:ru": null, "name:ja": null, "name:it": null, "name:fr": null, "name:es": null, "name:en": null, "name:el": null, "name:de": null, "name": null, "maxspeed": null, "lit": null, "layer": null, "description": null, "voltage": "750", "service": "yard", "gauge": "1435", "frequency": "0", "electrified:rail": "bottom", "electrified": "rail", "axle_load": "14" }, "geometry": { "type": "LineString", "coordinates": [ [ 22.970715, 40.582958 ], [ 22.970721, 40.583619 ] ] } },
{ "type": "Feature", "properties": { "full_id": "w1340143823", "osm_id": "1340143823", "osm_type": "way", "railway": "subway", "covered": null, "bridge": null, "wikidata": null, "usage": null, "tunnel": null, "railway:traffic_mode": null, "railway:radio": null, "railway:preferred_direction": null, "railway:bidirectional": null, "railway:ballastless": null, "railway:atp": null, "passenger_lines": null, "operator": null, "name:zh-Hans": null, "name:ru": null, "name:ja": null, "name:it": null, "name:fr": null, "name:es": null, "name:en": null, "name:el": null, "name:de": null, "name": null, "maxspeed": null, "lit": null, "layer": null, "description": null, "voltage": "750", "service": "yard", "gauge": "1435", "frequency": "0", "electrified:rail": "bottom", "electrified": "rail", "axle_load": "14" }, "geometry": { "type": "LineString", "coordinates": [ [ 22.970631, 40.582958 ], [ 22.970622, 40.583628 ] ] } },
{ "type": "Feature", "properties": { "full_id": "w551526038", "osm_id": "551526038", "osm_type": "way", "railway": "subway", "covered": null, "bridge": null, "wikidata": null, "usage": null, "tunnel": "yes", "railway:traffic_mode": null, "railway:radio": "TETRA", "railway:preferred_direction": null, "railway:bidirectional": null, "railway:ballastless": "yes", "railway:atp": "yes", "passenger_lines": null, "operator": null, "name:zh-Hans": null, "name:ru": null, "name:ja": null, "name:it": null, "name:fr": null, "name:es": null, "name:en": null, "name:el": null, "name:de": null, "name": null, "maxspeed": null, "lit": null, "layer": "-3", "description": null, "voltage": "750", "service": "yard", "gauge": "1435", "frequency": "0", "electrified:rail": "bottom", "electrified": "rail", "axle_load": "14" }, "geometry": { "type": "LineString", "coordinates": [ [ 22.969946, 40.59331 ], [ 22.970339, 40.593311 ], [ 22.970577, 40.593281 ], [ 22.970838, 40.593219 ], [ 22.971084, 40.593125 ], [ 22.971307, 40.593007 ], [ 22.971513, 40.592864 ], [ 22.971677, 40.592706 ], [ 22.971776, 40.592583 ], [ 22.971876, 40.592416 ], [ 22.971928, 40.592261 ], [ 22.971971, 40.592101 ], [ 22.97199, 40.591932 ], [ 22.971946, 40.591563 ], [ 22.971368, 40.588666 ], [ 22.971325, 40.58821 ], [ 22.971366, 40.587748 ], [ 22.971536, 40.586882 ], [ 22.971525, 40.586658 ], [ 22.971476, 40.586435 ], [ 22.97139, 40.586215 ], [ 22.97128, 40.586007 ], [ 22.971132, 40.58581 ], [ 22.970294, 40.584996 ], [ 22.970109, 40.584784 ], [ 22.969976, 40.584549 ], [ 22.969904, 40.584306 ], [ 22.969885, 40.584062 ] ] } },
{ "type": "Feature", "properties": { "full_id": "w551526036", "osm_id": "551526036", "osm_type": "way", "railway": "subway", "covered": null, "bridge": null, "wikidata": null, "usage": null, "tunnel": "yes", "railway:traffic_mode": null, "railway:radio": "TETRA", "railway:preferred_direction": null, "railway:bidirectional": null, "railway:ballastless": "yes", "railway:atp": "yes", "passenger_lines": null, "operator": null, "name:zh-Hans": null, "name:ru": null, "name:ja": null, "name:it": null, "name:fr": null, "name:es": null, "name:en": null, "name:el": null, "name:de": null, "name": null, "maxspeed": null, "lit": null, "layer": "-3", "description": null, "voltage": "750", "service": "yard", "gauge": "1435", "frequency": "0", "electrified:rail": "bottom", "electrified": "rail", "axle_load": "14" }, "geometry": { "type": "LineString", "coordinates": [ [ 22.969935, 40.58406 ], [ 22.969953, 40.584301 ], [ 22.970024, 40.584537 ], [ 22.970153, 40.584765 ], [ 22.970334, 40.584973 ], [ 22.971173, 40.585788 ], [ 22.971325, 40.585991 ], [ 22.971437, 40.586203 ], [ 22.971525, 40.586426 ], [ 22.971575, 40.586654 ], [ 22.971587, 40.586881 ], [ 22.971416, 40.587753 ], [ 22.971375, 40.588209 ], [ 22.971418, 40.588661 ], [ 22.971966, 40.591398 ], [ 22.97205, 40.591924 ], [ 22.972008, 40.592285 ], [ 22.971953, 40.59246 ], [ 22.971849, 40.592633 ], [ 22.971546, 40.592943 ], [ 22.971319, 40.593087 ], [ 22.971086, 40.593208 ], [ 22.970817, 40.59331 ], [ 22.97055, 40.593374 ], [ 22.970332, 40.593406 ], [ 22.969928, 40.593419 ] ] } },
{ "type": "Feature", "properties": { "full_id": "w1340143800", "osm_id": "1340143800", "osm_type": "way", "railway": "subway", "covered": null, "bridge": null, "wikidata": null, "usage": null, "tunnel": null, "railway:traffic_mode": null, "railway:radio": null, "railway:preferred_direction": null, "railway:bidirectional": null, "railway:ballastless": null, "railway:atp": null, "passenger_lines": null, "operator": null, "name:zh-Hans": null, "name:ru": null, "name:ja": null, "name:it": null, "name:fr": null, "name:es": null, "name:en": null, "name:el": null, "name:de": null, "name": null, "maxspeed": null, "lit": null, "layer": null, "description": null, "voltage": "750", "service": "crossover", "gauge": "1435", "frequency": "0", "electrified:rail": "bottom", "electrified": "rail", "axle_load": "14" }, "geometry": { "type": "LineString", "coordinates": [ [ 22.969383, 40.581608 ], [ 22.969324, 40.582008 ] ] } },
{ "type": "Feature", "properties": { "full_id": "w1340143799", "osm_id": "1340143799", "osm_type": "way", "railway": "subway", "covered": null, "bridge": null, "wikidata": null, "usage": null, "tunnel": null, "railway:traffic_mode": null, "railway:radio": null, "railway:preferred_direction": null, "railway:bidirectional": null, "railway:ballastless": null, "railway:atp": null, "passenger_lines": null, "operator": null, "name:zh-Hans": null, "name:ru": null, "name:ja": null, "name:it": null, "name:fr": null, "name:es": null, "name:en": null, "name:el": null, "name:de": null, "name": null, "maxspeed": null, "lit": null, "layer": null, "description": null, "voltage": "750", "service": "crossover", "gauge": "1435", "frequency": "0", "electrified:rail": "bottom", "electrified": "rail", "axle_load": "14" }, "geometry": { "type": "LineString", "coordinates": [ [ 22.969383, 40.582009 ], [ 22.969324, 40.581609 ] ] } },
{ "type": "Feature", "properties": { "full_id": "w551526015", "osm_id": "551526015", "osm_type": "way", "railway": "subway", "covered": null, "bridge": null, "wikidata": null, "usage": null, "tunnel": null, "railway:traffic_mode": null, "railway:radio": null, "railway:preferred_direction": null, "railway:bidirectional": null, "railway:ballastless": null, "railway:atp": null, "passenger_lines": null, "operator": null, "name:zh-Hans": null, "name:ru": null, "name:ja": null, "name:it": null, "name:fr": null, "name:es": null, "name:en": null, "name:el": null, "name:de": null, "name": null, "maxspeed": null, "lit": null, "layer": null, "description": null, "voltage": "750", "service": "yard", "gauge": "1435", "frequency": "0", "electrified:rail": "bottom", "electrified": "rail", "axle_load": "14" }, "geometry": { "type": "LineString", "coordinates": [ [ 22.96959, 40.58147 ], [ 22.969635, 40.582278 ], [ 22.969855, 40.582855 ] ] } },
{ "type": "Feature", "properties": { "full_id": "w1340143803", "osm_id": "1340143803", "osm_type": "way", "railway": "subway", "covered": null, "bridge": null, "wikidata": null, "usage": null, "tunnel": null, "railway:traffic_mode": null, "railway:radio": null, "railway:preferred_direction": null, "railway:bidirectional": null, "railway:ballastless": null, "railway:atp": null, "passenger_lines": null, "operator": null, "name:zh-Hans": null, "name:ru": null, "name:ja": null, "name:it": null, "name:fr": null, "name:es": null, "name:en": null, "name:el": null, "name:de": null, "name": null, "maxspeed": null, "lit": null, "layer": null, "description": null, "voltage": "750", "service": "yard", "gauge": "1435", "frequency": "0", "electrified:rail": "bottom", "electrified": "rail", "axle_load": "14" }, "geometry": { "type": "LineString", "coordinates": [ [ 22.969399, 40.581383 ], [ 22.969382, 40.581487 ], [ 22.969388, 40.582251 ], [ 22.969619, 40.582966 ] ] } },
{ "type": "Feature", "properties": { "full_id": "w1340143798", "osm_id": "1340143798", "osm_type": "way", "railway": "subway", "covered": null, "bridge": null, "wikidata": null, "usage": null, "tunnel": null, "railway:traffic_mode": null, "railway:radio": null, "railway:preferred_direction": null, "railway:bidirectional": null, "railway:ballastless": null, "railway:atp": null, "passenger_lines": null, "operator": null, "name:zh-Hans": null, "name:ru": null, "name:ja": null, "name:it": null, "name:fr": null, "name:es": null, "name:en": null, "name:el": null, "name:de": null, "name": null, "maxspeed": null, "lit": null, "layer": null, "description": null, "voltage": "750", "service": "yard", "gauge": "1435", "frequency": "0", "electrified:rail": "bottom", "electrified": "rail", "axle_load": "14" }, "geometry": { "type": "LineString", "coordinates": [ [ 22.969393, 40.581038 ], [ 22.969339, 40.581269 ], [ 22.969323, 40.581492 ], [ 22.969338, 40.582254 ], [ 22.969352, 40.582343 ], [ 22.969603, 40.583075 ], [ 22.969637, 40.583212 ], [ 22.969648, 40.583367 ] ] } },
{ "type": "Feature", "properties": { "full_id": "w551525999", "osm_id": "551525999", "osm_type": "way", "railway": "subway", "covered": null, "bridge": null, "wikidata": null, "usage": null, "tunnel": "yes", "railway:traffic_mode": null, "railway:radio": "TETRA", "railway:preferred_direction": null, "railway:bidirectional": null, "railway:ballastless": "yes", "railway:atp": "yes", "passenger_lines": null, "operator": null, "name:zh-Hans": null, "name:ru": null, "name:ja": null, "name:it": null, "name:fr": null, "name:es": null, "name:en": null, "name:el": null, "name:de": null, "name": null, "maxspeed": null, "lit": null, "layer": "-3", "description": null, "voltage": "750", "service": "crossover", "gauge": "1435", "frequency": "0", "electrified:rail": "bottom", "electrified": "rail", "axle_load": "14" }, "geometry": { "type": "LineString", "coordinates": [ [ 22.96837, 40.593177 ], [ 22.967372, 40.593143 ] ] } },
{ "type": "Feature", "properties": { "full_id": "w551526000", "osm_id": "551526000", "osm_type": "way", "railway": "subway", "covered": null, "bridge": null, "wikidata": null, "usage": null, "tunnel": "yes", "railway:traffic_mode": null, "railway:radio": "TETRA", "railway:preferred_direction": null, "railway:bidirectional": null, "railway:ballastless": "yes", "railway:atp": "yes", "passenger_lines": null, "operator": null, "name:zh-Hans": null, "name:ru": null, "name:ja": null, "name:it": null, "name:fr": null, "name:es": null, "name:en": null, "name:el": null, "name:de": null, "name": null, "maxspeed": null, "lit": null, "layer": "-3", "description": null, "voltage": "750", "service": "crossover", "gauge": "1435", "frequency": "0", "electrified:rail": "bottom", "electrified": "rail", "axle_load": "14" }, "geometry": { "type": "LineString", "coordinates": [ [ 22.967385, 40.593071 ], [ 22.968357, 40.593249 ] ] } },
{ "type": "Feature", "properties": { "full_id": "w551525990", "osm_id": "551525990", "osm_type": "way", "railway": "subway", "covered": null, "bridge": null, "wikidata": null, "usage": "main", "tunnel": "yes", "railway:traffic_mode": "passenger", "railway:radio": "TETRA", "railway:preferred_direction": "forward", "railway:bidirectional": "signals", "railway:ballastless": "yes", "railway:atp": "yes", "passenger_lines": "2", "operator": "Αστικές Συγκοινωνίες Θεσσαλονίκης", "name:zh-Hans": "一号线", "name:ru": "Линия 1", "name:ja": "1号線", "name:it": "Linea 1", "name:fr": "Ligne 1", "name:es": "Línea 1", "name:en": "Line 1", "name:el": "Γραμμή 1", "name:de": "Linie 1", "name": "Γραμμή 1", "maxspeed": "80", "lit": "yes", "layer": "-3", "description": "Δεξιός κλάδος", "voltage": "750", "service": null, "gauge": "1435", "frequency": "0", "electrified:rail": "bottom", "electrified": "rail", "axle_load": "14" }, "geometry": { "type": "LineString", "coordinates": [ [ 22.960308, 40.595894 ], [ 22.961006, 40.59393 ], [ 22.961139, 40.593735 ], [ 22.961312, 40.593573 ], [ 22.962277, 40.592982 ], [ 22.962923, 40.592722 ], [ 22.963193, 40.592664 ], [ 22.963476, 40.592649 ], [ 22.969473, 40.593297 ], [ 22.969946, 40.59331 ] ] } },
{ "type": "Feature", "properties": { "full_id": "w551525993", "osm_id": "551525993", "osm_type": "way", "railway": "subway", "covered": null, "bridge": null, "wikidata": null, "usage": "main", "tunnel": "yes", "railway:traffic_mode": "passenger", "railway:radio": "TETRA", "railway:preferred_direction": "backward", "railway:bidirectional": "signals", "railway:ballastless": "yes", "railway:atp": "yes", "passenger_lines": "2", "operator": "Αστικές Συγκοινωνίες Θεσσαλονίκης", "name:zh-Hans": "一号线", "name:ru": "Линия 1", "name:ja": "1号線", "name:it": "Linea 1", "name:fr": "Ligne 1", "name:es": "Línea 1", "name:en": "Line 1", "name:el": "Γραμμή 1", "name:de": "Linie 1", "name": "Γραμμή 1", "maxspeed": "80", "lit": "yes", "layer": "-3", "description": "Αριστερός κλάδος", "voltage": "750", "service": null, "gauge": "1435", "frequency": "0", "electrified:rail": "bottom", "electrified": "rail", "axle_load": "14" }, "geometry": { "type": "LineString", "coordinates": [ [ 22.960445, 40.595922 ], [ 22.961131, 40.593992 ], [ 22.961257, 40.593802 ], [ 22.961437, 40.593635 ], [ 22.962355, 40.593073 ], [ 22.962914, 40.592848 ], [ 22.963295, 40.592764 ], [ 22.963691, 40.592745 ], [ 22.969928, 40.593419 ] ] } },
{ "type": "Feature", "properties": { "full_id": "w551525991", "osm_id": "551525991", "osm_type": "way", "railway": "subway", "covered": null, "bridge": null, "wikidata": null, "usage": "main", "tunnel": "yes", "railway:traffic_mode": "passenger", "railway:radio": "TETRA", "railway:preferred_direction": "forward", "railway:bidirectional": "signals", "railway:ballastless": "yes", "railway:atp": "yes", "passenger_lines": "2", "operator": "Αστικές Συγκοινωνίες Θεσσαλονίκης", "name:zh-Hans": null, "name:ru": "Линия 1", "name:ja": "1号線", "name:it": "Linea 1", "name:fr": "Ligne 1", "name:es": "Línea 1", "name:en": "Line 1", "name:el": "Γραμμή 1", "name:de": "Linie 1", "name": "Γραμμή 1", "maxspeed": "80", "lit": "yes", "layer": "-4", "description": "Δεξιός κλάδος", "voltage": "750", "service": null, "gauge": "1435", "frequency": "0", "electrified:rail": "bottom", "electrified": "rail", "axle_load": "14" }, "geometry": { "type": "LineString", "coordinates": [ [ 22.958267, 40.600271 ], [ 22.957928, 40.599902 ], [ 22.957722, 40.599741 ], [ 22.957486, 40.599607 ], [ 22.957303, 40.599431 ], [ 22.957188, 40.599228 ], [ 22.957142, 40.599002 ], [ 22.957174, 40.59878 ], [ 22.957282, 40.598568 ], [ 22.957456, 40.598387 ], [ 22.957692, 40.598244 ], [ 22.95825, 40.598066 ], [ 22.958695, 40.597782 ], [ 22.959752, 40.596882 ], [ 22.960308, 40.595894 ] ] } },
{ "type": "Feature", "properties": { "full_id": "w551525992", "osm_id": "551525992", "osm_type": "way", "railway": "subway", "covered": null, "bridge": null, "wikidata": null, "usage": "main", "tunnel": "yes", "railway:traffic_mode": "passenger", "railway:radio": "TETRA", "railway:preferred_direction": "backward", "railway:bidirectional": "signals", "railway:ballastless": "yes", "railway:atp": "yes", "passenger_lines": "2", "operator": "Αστικές Συγκοινωνίες Θεσσαλονίκης", "name:zh-Hans": null, "name:ru": "Линия 1", "name:ja": "1号線", "name:it": "Linea 1", "name:fr": "Ligne 1", "name:es": "Línea 1", "name:en": "Line 1", "name:el": "Γραμμή 1", "name:de": "Linie 1", "name": "Γραμμή 1", "maxspeed": "80", "lit": "yes", "layer": "-4", "description": "Αριστερός κλάδος", "voltage": "750", "service": null, "gauge": "1435", "frequency": "0", "electrified:rail": "bottom", "electrified": "rail", "axle_load": "14" }, "geometry": { "type": "LineString", "coordinates": [ [ 22.958383, 40.600254 ], [ 22.95829, 40.599566 ], [ 22.958193, 40.599063 ], [ 22.958189, 40.598866 ], [ 22.958268, 40.598557 ], [ 22.958491, 40.598153 ], [ 22.958587, 40.598011 ], [ 22.959859, 40.596905 ], [ 22.960445, 40.595922 ] ] } },
{ "type": "Feature", "properties": { "full_id": "w551526039", "osm_id": "551526039", "osm_type": "way", "railway": "subway", "covered": null, "bridge": null, "wikidata": null, "usage": null, "tunnel": "yes", "railway:traffic_mode": null, "railway:radio": "TETRA", "railway:preferred_direction": null, "railway:bidirectional": null, "railway:ballastless": "yes", "railway:atp": "yes", "passenger_lines": null, "operator": null, "name:zh-Hans": null, "name:ru": null, "name:ja": null, "name:it": null, "name:fr": null, "name:es": null, "name:en": null, "name:el": null, "name:de": null, "name": null, "maxspeed": null, "lit": null, "layer": "-3", "description": null, "voltage": "750", "service": "crossover", "gauge": "1435", "frequency": "0", "electrified:rail": "bottom", "electrified": "rail", "axle_load": "14" }, "geometry": { "type": "LineString", "coordinates": [ [ 22.957998, 40.605845 ], [ 22.958112, 40.605092 ] ] } },
{ "type": "Feature", "properties": { "full_id": "w551526040", "osm_id": "551526040", "osm_type": "way", "railway": "subway", "covered": null, "bridge": null, "wikidata": null, "usage": null, "tunnel": "yes", "railway:traffic_mode": null, "railway:radio": "TETRA", "railway:preferred_direction": null, "railway:bidirectional": null, "railway:ballastless": "yes", "railway:atp": "yes", "passenger_lines": null, "operator": null, "name:zh-Hans": null, "name:ru": null, "name:ja": null, "name:it": null, "name:fr": null, "name:es": null, "name:en": null, "name:el": null, "name:de": null, "name": null, "maxspeed": null, "lit": null, "layer": "-3", "description": null, "voltage": "750", "service": "crossover", "gauge": "1435", "frequency": "0", "electrified:rail": "bottom", "electrified": "rail", "axle_load": "14" }, "geometry": { "type": "LineString", "coordinates": [ [ 22.957904, 40.60583 ], [ 22.958206, 40.605107 ] ] } },
{ "type": "Feature", "properties": { "full_id": "w551526247", "osm_id": "551526247", "osm_type": "way", "railway": "subway", "covered": null, "bridge": null, "wikidata": "Q1326567", "usage": "main", "tunnel": "yes", "railway:traffic_mode": "passenger", "railway:radio": "TETRA", "railway:preferred_direction": "forward", "railway:bidirectional": "signals", "railway:ballastless": "yes", "railway:atp": "yes", "passenger_lines": null, "operator": "Αστικές Συγκοινωνίες Θεσσαλονίκης", "name:zh-Hans": null, "name:ru": null, "name:ja": null, "name:it": null, "name:fr": null, "name:es": null, "name:en": null, "name:el": null, "name:de": null, "name": "Γραμμή 1", "maxspeed": "80", "lit": "yes", "layer": "-3", "description": "Δεξιός κλάδος", "voltage": "750", "service": null, "gauge": "1435", "frequency": "0", "electrified:rail": "bottom", "electrified": "rail", "axle_load": "14" }, "geometry": { "type": "LineString", "coordinates": [ [ 22.928711, 40.643918 ], [ 22.942086, 40.636941 ], [ 22.942968, 40.636446 ], [ 22.946429, 40.634615 ], [ 22.953413, 40.631032 ], [ 22.955384, 40.630305 ], [ 22.958381, 40.628717 ], [ 22.958801, 40.628419 ], [ 22.95916, 40.628071 ], [ 22.961848, 40.624499 ], [ 22.962069, 40.624088 ], [ 22.962217, 40.623664 ], [ 22.96314, 40.61883 ], [ 22.963041, 40.618294 ], [ 22.962806, 40.617789 ], [ 22.962446, 40.617325 ], [ 22.957599, 40.613864 ], [ 22.957397, 40.613691 ], [ 22.95729, 40.613485 ], [ 22.957231, 40.613266 ], [ 22.957204, 40.613043 ], [ 22.957685, 40.606734 ], [ 22.9578, 40.606199 ], [ 22.958776, 40.602741 ], [ 22.958799, 40.602523 ], [ 22.958782, 40.602299 ], [ 22.958267, 40.600271 ] ] } },
{ "type": "Feature", "properties": { "full_id": "w551526234", "osm_id": "551526234", "osm_type": "way", "railway": "subway", "covered": null, "bridge": null, "wikidata": "Q1326567", "usage": "main", "tunnel": "yes", "railway:traffic_mode": "passenger", "railway:radio": "TETRA", "railway:preferred_direction": "backward", "railway:bidirectional": "signals", "railway:ballastless": "yes", "railway:atp": "yes", "passenger_lines": null, "operator": "Αστικές Συγκοινωνίες Θεσσαλονίκης", "name:zh-Hans": null, "name:ru": "Линия 1", "name:ja": "1号線", "name:it": "Linea 1", "name:fr": "Ligne 1", "name:es": "Línea 1", "name:en": "Line 1", "name:el": "Γραμμή 1", "name:de": "Linie 1", "name": "Γραμμή 1", "maxspeed": "80", "lit": "yes", "layer": "-3", "description": "Αριστερός κλάδος", "voltage": "750", "service": null, "gauge": "1435", "frequency": "0", "electrified:rail": "bottom", "electrified": "rail", "axle_load": "14" }, "geometry": { "type": "LineString", "coordinates": [ [ 22.928792, 40.644007 ], [ 22.953485, 40.631126 ], [ 22.955456, 40.630398 ], [ 22.95849, 40.628792 ], [ 22.958911, 40.628492 ], [ 22.959268, 40.628145 ], [ 22.961953, 40.624576 ], [ 22.962176, 40.624169 ], [ 22.962331, 40.623741 ], [ 22.963257, 40.618843 ], [ 22.963128, 40.61823 ], [ 22.962896, 40.617719 ], [ 22.962544, 40.617247 ], [ 22.958178, 40.614149 ], [ 22.958115, 40.614078 ], [ 22.957523, 40.613658 ], [ 22.957418, 40.613493 ], [ 22.957339, 40.613276 ], [ 22.957312, 40.612601 ], [ 22.957398, 40.611988 ], [ 22.957781, 40.606613 ], [ 22.958886, 40.602698 ], [ 22.958929, 40.602489 ], [ 22.958892, 40.602258 ], [ 22.958383, 40.600254 ] ] } },
{ "type": "Feature", "properties": { "full_id": "w551526151", "osm_id": "551526151", "osm_type": "way", "railway": "subway", "covered": null, "bridge": null, "wikidata": null, "usage": null, "tunnel": "yes", "railway:traffic_mode": null, "railway:radio": "TETRA", "railway:preferred_direction": null, "railway:bidirectional": null, "railway:ballastless": "yes", "railway:atp": "yes", "passenger_lines": null, "operator": null, "name:zh-Hans": null, "name:ru": null, "name:ja": null, "name:it": null, "name:fr": null, "name:es": null, "name:en": null, "name:el": null, "name:de": null, "name": null, "maxspeed": null, "lit": null, "layer": "-3", "description": null, "voltage": "750", "service": "crossover", "gauge": "1435", "frequency": "0", "electrified:rail": "bottom", "electrified": "rail", "axle_load": "14" }, "geometry": { "type": "LineString", "coordinates": [ [ 22.957729, 40.629063 ], [ 22.956995, 40.629583 ] ] } },
{ "type": "Feature", "properties": { "full_id": "w551526152", "osm_id": "551526152", "osm_type": "way", "railway": "subway", "covered": null, "bridge": null, "wikidata": null, "usage": null, "tunnel": "yes", "railway:traffic_mode": null, "railway:radio": "TETRA", "railway:preferred_direction": null, "railway:bidirectional": null, "railway:ballastless": "yes", "railway:atp": "yes", "passenger_lines": null, "operator": null, "name:zh-Hans": null, "name:ru": null, "name:ja": null, "name:it": null, "name:fr": null, "name:es": null, "name:en": null, "name:el": null, "name:de": null, "name": null, "maxspeed": null, "lit": null, "layer": "-3", "description": null, "voltage": "750", "service": "crossover", "gauge": "1435", "frequency": "0", "electrified:rail": "bottom", "electrified": "rail", "axle_load": "14" }, "geometry": { "type": "LineString", "coordinates": [ [ 22.956913, 40.629495 ], [ 22.957811, 40.629151 ] ] } },
{ "type": "Feature", "properties": { "full_id": "w551526149", "osm_id": "551526149", "osm_type": "way", "railway": "subway", "covered": null, "bridge": null, "wikidata": null, "usage": null, "tunnel": "yes", "railway:traffic_mode": null, "railway:radio": "TETRA", "railway:preferred_direction": null, "railway:bidirectional": null, "railway:ballastless": "yes", "railway:atp": "yes", "passenger_lines": null, "operator": null, "name:zh-Hans": null, "name:ru": null, "name:ja": null, "name:it": null, "name:fr": null, "name:es": null, "name:en": null, "name:el": null, "name:de": null, "name": null, "maxspeed": null, "lit": null, "layer": "-3", "description": null, "voltage": "750", "service": "crossover", "gauge": "1435", "frequency": "0", "electrified:rail": "bottom", "electrified": "rail", "axle_load": "14" }, "geometry": { "type": "LineString", "coordinates": [ [ 22.92994, 40.643277 ], [ 22.929202, 40.643793 ] ] } },
{ "type": "Feature", "properties": { "full_id": "w551526150", "osm_id": "551526150", "osm_type": "way", "railway": "subway", "covered": null, "bridge": null, "wikidata": null, "usage": null, "tunnel": "yes", "railway:traffic_mode": null, "railway:radio": "TETRA", "railway:preferred_direction": null, "railway:bidirectional": null, "railway:ballastless": "yes", "railway:atp": "yes", "passenger_lines": null, "operator": null, "name:zh-Hans": null, "name:ru": null, "name:ja": null, "name:it": null, "name:fr": null, "name:es": null, "name:en": null, "name:el": null, "name:de": null, "name": null, "maxspeed": null, "lit": null, "layer": "-3", "description": null, "voltage": "750", "service": "crossover", "gauge": "1435", "frequency": "0", "electrified:rail": "bottom", "electrified": "rail", "axle_load": "14" }, "geometry": { "type": "LineString", "coordinates": [ [ 22.92912, 40.643705 ], [ 22.930021, 40.643366 ] ] } },
{ "type": "Feature", "properties": { "full_id": "w1339307180", "osm_id": "1339307180", "osm_type": "way", "railway": "subway", "covered": null, "bridge": null, "wikidata": "Q1326567", "usage": "main", "tunnel": "yes", "railway:traffic_mode": "passenger", "railway:radio": "TETRA", "railway:preferred_direction": "forward", "railway:bidirectional": "signals", "railway:ballastless": "yes", "railway:atp": "yes", "passenger_lines": null, "operator": "Αστικές Συγκοινωνίες Θεσσαλονίκης", "name:zh-Hans": null, "name:ru": null, "name:ja": null, "name:it": null, "name:fr": null, "name:es": null, "name:en": null, "name:el": null, "name:de": null, "name": "Γραμμή 1", "maxspeed": "80", "lit": "yes", "layer": "-3", "description": "Δεξιός κλάδος", "voltage": "750", "service": null, "gauge": "1435", "frequency": "0", "electrified:rail": "bottom", "electrified": "rail", "axle_load": "14" }, "geometry": { "type": "LineString", "coordinates": [ [ 22.926109, 40.645276 ], [ 22.928711, 40.643918 ] ] } },
{ "type": "Feature", "properties": { "full_id": "w1339307181", "osm_id": "1339307181", "osm_type": "way", "railway": "subway", "covered": null, "bridge": null, "wikidata": "Q1326567", "usage": "main", "tunnel": "yes", "railway:traffic_mode": "passenger", "railway:radio": "TETRA", "railway:preferred_direction": "backward", "railway:bidirectional": "signals", "railway:ballastless": "yes", "railway:atp": "yes", "passenger_lines": null, "operator": "Αστικές Συγκοινωνίες Θεσσαλονίκης", "name:zh-Hans": null, "name:ru": "Линия 1", "name:ja": "1号線", "name:it": "Linea 1", "name:fr": "Ligne 1", "name:es": "Línea 1", "name:en": "Line 1", "name:el": "Γραμμή 1", "name:de": "Linie 1", "name": "Γραμμή 1", "maxspeed": "80", "lit": "yes", "layer": "-3", "description": "Αριστερός κλάδος", "voltage": "750", "service": null, "gauge": "1435", "frequency": "0", "electrified:rail": "bottom", "electrified": "rail", "axle_load": "14" }, "geometry": { "type": "LineString", "coordinates": [ [ 22.926192, 40.645363 ], [ 22.928792, 40.644007 ] ] } }
]
}
