{
"type": "FeatureCollection",
"name": "metro_stations",
"crs": { "type": "name", "properties": { "name": "urn:ogc:def:crs:OGC:1.3:CRS84" } },
"xy_coordinate_resolution": 1e-06,
"features": [
{ "type": "Feature", "properties": { "full_id": "n5337666494", "osm_id": "5337666494", "osm_type": "node", "station": "subway", "construction": null, "proposed": "station", "short_name": null, "name:fr": null, "name:en": null, "name:el": null, "name:de": null, "website": null, "operator:wikidata": null, "operator:short": null, "operator": null, "network:wikidata": null, "network:en": null, "network:el": null, "network": null, "addr:street": null, "addr:city": null, "wikipedia": null, "wikidata": null, "wheelchair": "yes", "subway": "yes", "railway": "proposed", "public_transport": "station", "name": "Αεροδρόμιο \"Μακεδονία\"", "internet_access:fee": null, "internet_access": null, "int_name": null }, "geometry": { "type": "Point", "coordinates": [ 22.97864, 40.525395 ] } },
{ "type": "Feature", "properties": { "full_id": "n5337666509", "osm_id": "5337666509", "osm_type": "node", "station": "subway", "construction": null, "proposed": "station", "short_name": null, "name:fr": null, "name:en": null, "name:el": null, "name:de": null, "website": null, "operator:wikidata": null, "operator:short": null, "operator": null, "network:wikidata": null, "network:en": null, "network:el": null, "network": null, "addr:street": null, "addr:city": null, "wikipedia": null, "wikidata": null, "wheelchair": "yes", "subway": "yes", "railway": "proposed", "public_transport": "station", "name": "Πράσινα Φανάρια", "internet_access:fee": null, "internet_access": null, "int_name": null }, "geometry": { "type": "Point", "coordinates": [ 22.991347, 40.538329 ] } },
{ "type": "Feature", "properties": { "full_id": "n5337666510", "osm_id": "5337666510", "osm_type": "node", "station": "subway", "construction": null, "proposed": "station", "short_name": null, "name:fr": null, "name:en": null, "name:el": null, "name:de": null, "website": null, "operator:wikidata": null, "operator:short": null, "operator": null, "network:wikidata": null, "network:en": null, "network:el": null, "network": null, "addr:street": null, "addr:city": null, "wikipedia": null, "wikidata": null, "wheelchair": "yes", "subway": "yes", "railway": "proposed", "public_transport": "station", "name": "Απολλώνια Πολιτεία", "internet_access:fee": null, "internet_access": null, "int_name": null }, "geometry": { "type": "Point", "coordinates": [ 22.983172, 40.54887 ] } },
{ "type": "Feature", "properties": { "full_id": "n5337666511", "osm_id": "5337666511", "osm_type": "node", "station": "subway", "construction": null, "proposed": "station", "short_name": null, "name:fr": null, "name:en": null, "name:el": null, "name:de": null, "website": null, "operator:wikidata": null, "operator:short": null, "operator": null, "network:wikidata": null, "network:en": null, "network:el": null, "network": null, "addr:street": null, "addr:city": null, "wikipedia": null, "wikidata": null, "wheelchair": "yes", "subway": "yes", "railway": "proposed", "public_transport": "station", "name": "Α.ΔΙ.Σ.ΠΟ.", "internet_access:fee": null, "internet_access": null, "int_name": null }, "geometry": { "type": "Point", "coordinates": [ 22.976691, 40.56044 ] } },
{ "type": "Feature", "properties": { "full_id": "n5337486549", "osm_id": "5337486549", "osm_type": "node", "station": "subway", "construction": "station", "proposed": null, "short_name": null, "name:fr": null, "name:en": null, "name:el": null, "name:de": null, "website": null, "operator:wikidata": null, "operator:short": null, "operator": null, "network:wikidata": null, "network:en": null, "network:el": null, "network": null, "addr:street": null, "addr:city": null, "wikipedia": "en:Mikra station", "wikidata": "Q56279479", "wheelchair": "yes", "subway": "yes", "railway": "construction", "public_transport": "station", "name": "Μίκρα", "internet_access:fee": null, "internet_access": null, "int_name": "Mikra" }, "geometry": { "type": "Point", "coordinates": [ 22.966707, 40.567614 ] } },
{ "type": "Feature", "properties": { "full_id": "n5337486504", "osm_id": "5337486504", "osm_type": "node", "station": "subway", "construction": "station", "proposed": null, "short_name": null, "name:fr": null, "name:en": null, "name:el": null, "name:de": null, "website": null, "operator:wikidata": null, "operator:short": null, "operator": null, "network:wikidata": null, "network:en": null, "network:el": null, "network": null, "addr:street": null, "addr:city": null, "wikipedia": "en:Nea Krini station", "wikidata": "Q56280075", "wheelchair": "yes", "subway": "yes", "railway": "construction", "public_transport": "station", "name": "Νέα Κρήνη", "internet_access:fee": null, "internet_access": null, "int_name": "Nea Krini" }, "geometry": { "type": "Point", "coordinates": [ 22.961413, 40.57194 ] } },
{ "type": "Feature", "properties": { "full_id": "n5326339844", "osm_id": "5326339844", "osm_type": "node", "station": "subway", "construction": null, "proposed": null, "short_name": null, "name:fr": null, "name:en": null, "name:el": null, "name:de": null, "website": null, "operator:wikidata": null, "operator:short": null, "operator": null, "network:wikidata": null, "network:en": null, "network:el": null, "network": null, "addr:street": null, "addr:city": null, "wikipedia": "en:Nea Elvetia station", "wikidata": "Q56279480", "wheelchair": "yes", "subway": "yes", "railway": "station", "public_transport": "station", "name": "Νέα Ελβετία", "internet_access:fee": "no", "internet_access": "yes", "int_name": "Nea Elvetia" }, "geometry": { "type": "Point", "coordinates": [ 22.968856, 40.593266 ] } },
{ "type": "Feature", "properties": { "full_id": "n5326339858", "osm_id": "5326339858", "osm_type": "node", "station": "subway", "construction": null, "proposed": null, "short_name": null, "name:fr": null, "name:en": null, "name:el": null, "name:de": null, "website": null, "operator:wikidata": null, "operator:short": null, "operator": null, "network:wikidata": null, "network:en": null, "network:el": null, "network": null, "addr:street": null, "addr:city": null, "wikipedia": "en:Voulgari station", "wikidata": "Q56280021", "wheelchair": "yes", "subway": "yes", "railway": "station", "public_transport": "station", "name": "Βούλγαρη", "internet_access:fee": null, "internet_access": null, "int_name": "Voulgari" }, "geometry": { "type": "Point", "coordinates": [ 22.960684, 40.595041 ] } },
{ "type": "Feature", "properties": { "full_id": "n5326339871", "osm_id": "5326339871", "osm_type": "node", "station": "subway", "construction": null, "proposed": null, "short_name": null, "name:fr": null, "name:en": null, "name:el": null, "name:de": null, "website": null, "operator:wikidata": null, "operator:short": null, "operator": null, "network:wikidata": null, "network:en": null, "network:el": null, "network": null, "addr:street": "Σόλωνος", "addr:city": "Θεσσαλονίκη", "wikipedia": "en:25 Martiou station", "wikidata": "Q56279490", "wheelchair": "yes", "subway": "yes", "railway": "station", "public_transport": "station", "name": "25ης Μαρτίου", "internet_access:fee": null, "internet_access": "no", "int_name": "25th Martiou" }, "geometry": { "type": "Point", "coordinates": [ 22.958531, 40.601075 ] } },
{ "type": "Feature", "properties": { "full_id": "n5326339886", "osm_id": "5326339886", "osm_type": "node", "station": "subway", "construction": null, "proposed": null, "short_name": null, "name:fr": null, "name:en": null, "name:el": null, "name:de": null, "website": null, "operator:wikidata": null, "operator:short": null, "operator": null, "network:wikidata": null, "network:en": null, "network:el": null, "network": null, "addr:street": null, "addr:city": null, "wikipedia": null, "wikidata": "Q56280018", "wheelchair": "yes", "subway": "yes", "railway": "station", "public_transport": "station", "name": "Ανάληψη", "internet_access:fee": null, "internet_access": null, "int_name": "Analipsi" }, "geometry": { "type": "Point", "coordinates": [ 22.957846, 40.606206 ] } },
{ "type": "Feature", "properties": { "full_id": "n5337486519", "osm_id": "5337486519", "osm_type": "node", "station": "subway", "construction": "station", "proposed": null, "short_name": null, "name:fr": null, "name:en": null, "name:el": null, "name:de": null, "website": null, "operator:wikidata": null, "operator:short": null, "operator": null, "network:wikidata": null, "network:en": null, "network:el": null, "network": null, "addr:street": null, "addr:city": null, "wikipedia": "en:Aretsou station", "wikidata": "Q56280074", "wheelchair": "yes", "subway": "yes", "railway": "construction", "public_transport": "station", "name": "Αρετσού", "internet_access:fee": null, "internet_access": null, "int_name": "Aretsou" }, "geometry": { "type": "Point", "coordinates": [ 22.954467, 40.578399 ] } },
{ "type": "Feature", "properties": { "full_id": "n5337486529", "osm_id": "5337486529", "osm_type": "node", "station": "subway", "construction": "station", "proposed": null, "short_name": null, "name:fr": null, "name:en": null, "name:el": null, "name:de": null, "website": null, "operator:wikidata": null, "operator:short": null, "operator": null, "network:wikidata": null, "network:en": null, "network:el": null, "network": null, "addr:street": null, "addr:city": null, "wikipedia": "en:Kalamaria station", "wikidata": "Q56280072", "wheelchair": "yes", "subway": "yes", "railway": "construction", "public_transport": "station", "name": "Καλαμαριά", "internet_access:fee": null, "internet_access": null, "int_name": "Kalamaria" }, "geometry": { "type": "Point", "coordinates": [ 22.953094, 40.584719 ] } },
{ "type": "Feature", "properties": { "full_id": "n5337486556", "osm_id": "5337486556", "osm_type": "node", "station": "subway", "construction": "station", "proposed": null, "short_name": null, "name:fr": null, "name:en": null, "name:el": null, "name:de": null, "website": null, "operator:wikidata": null, "operator:short": null, "operator": null, "network:wikidata": null, "network:en": null, "network:el": null, "network": null, "addr:street": null, "addr:city": null, "wikipedia": "en:Nomarhia station", "wikidata": "Q56280070", "wheelchair": "yes", "subway": "yes", "railway": "construction", "public_transport": "station", "name": "Νομαρχία", "internet_access:fee": null, "internet_access": null, "int_name": "Nomarchia" }, "geometry": { "type": "Point", "coordinates": [ 22.957134, 40.591614 ] } },
{ "type": "Feature", "properties": { "full_id": "n5326339921", "osm_id": "5326339921", "osm_type": "node", "station": "subway", "construction": null, "proposed": null, "short_name": null, "name:fr": null, "name:en": null, "name:el": null, "name:de": null, "website": null, "operator:wikidata": null, "operator:short": null, "operator": null, "network:wikidata": null, "network:en": null, "network:el": null, "network": null, "addr:street": null, "addr:city": null, "wikipedia": "en:Fleming metro station", "wikidata": "Q56279944", "wheelchair": "yes", "subway": "yes", "railway": "station", "public_transport": "station", "name": "Φλέμινγκ", "internet_access:fee": null, "internet_access": null, "int_name": "Fleming" }, "geometry": { "type": "Point", "coordinates": [ 22.957338, 40.611985 ] } },
{ "type": "Feature", "properties": { "full_id": "n5326340066", "osm_id": "5326340066", "osm_type": "node", "station": "subway", "construction": null, "proposed": null, "short_name": null, "name:fr": null, "name:en": null, "name:el": null, "name:de": null, "website": null, "operator:wikidata": "Q130541063", "operator:short": "THEMA", "operator": "Thessaloniki Metro Automatic", "network:wikidata": "Q1326567", "network:en": "Thessaloniki Metro", "network:el": "Μετρό Θεσσαλονίκης", "network": "Μετρό Θεσσαλονίκης", "addr:street": null, "addr:city": null, "wikipedia": null, "wikidata": "Q56279893", "wheelchair": "yes", "subway": "yes", "railway": "station", "public_transport": "station", "name": "Σιντριβάνι", "internet_access:fee": null, "internet_access": null, "int_name": "Sintrivani" }, "geometry": { "type": "Point", "coordinates": [ 22.954191, 40.630804 ] } },
{ "type": "Feature", "properties": { "full_id": "n5326340095", "osm_id": "5326340095", "osm_type": "node", "station": "subway", "construction": null, "proposed": null, "short_name": null, "name:fr": null, "name:en": null, "name:el": null, "name:de": null, "website": null, "operator:wikidata": "Q130541063", "operator:short": "THEMA", "operator": "Thessaloniki Metro Automatic", "network:wikidata": "Q1326567", "network:en": "Thessaloniki Metro", "network:el": "Μετρό Θεσσαλονίκης", "network": "Μετρό Θεσσαλονίκης", "addr:street": null, "addr:city": null, "wikipedia": "en:Aghia Sofia station", "wikidata": "Q56279678", "wheelchair": "yes", "subway": "yes", "railway": "station", "public_transport": "station", "name": "Αγίας Σοφίας", "internet_access:fee": null, "internet_access": null, "int_name": "Agias Sofias" }, "geometry": { "type": "Point", "coordinates": [ 22.946521, 40.634693 ] } },
{ "type": "Feature", "properties": { "full_id": "n5326340226", "osm_id": "5326340226", "osm_type": "node", "station": "subway", "construction": null, "proposed": null, "short_name": null, "name:fr": null, "name:en": null, "name:el": null, "name:de": null, "website": null, "operator:wikidata": "Q130541063", "operator:short": "THEMA", "operator": "Thessaloniki Metro Automatic", "network:wikidata": "Q1326567", "network:en": "Thessaloniki Metro", "network:el": "Μετρό Θεσσαλονίκης", "network": "Μετρό Θεσσαλονίκης", "addr:street": null, "addr:city": null, "wikipedia": "en:Venizelou station", "wikidata": "Q56279567", "wheelchair": "yes", "subway": "yes", "railway": "station", "public_transport": "station", "name": "Βενιζέλου", "internet_access:fee": null, "internet_access": null, "int_name": "Venizelou" }, "geometry": { "type": "Point", "coordinates": [ 22.942126, 40.636985 ] } },
{ "type": "Feature", "properties": { "full_id": "n5326340250", "osm_id": "5326340250", "osm_type": "node", "station": "subway", "construction": null, "proposed": null, "short_name": null, "name:fr": null, "name:en": null, "name:el": null, "name:de": null, "website": "https://www.thessmetro.gr/", "operator:wikidata": "Q130541063", "operator:short": "THEMA", "operator": "Thessaloniki Metro Automatic", "network:wikidata": "Q1326567", "network:en": "Thessaloniki Metro", "network:el": "Μετρό Θεσσαλονίκης", "network": "Μετρό Θεσσαλονίκης", "addr:street": null, "addr:city": null, "wikipedia": "en:Dimokratias station", "wikidata": "Q56279482", "wheelchair": "yes", "subway": "yes", "railway": "station", "public_transport": "station", "name": "Δημοκρατίας", "internet_access:fee": null, "internet_access": null, "int_name": "Dimokratias" }, "geometry": { "type": "Point", "coordinates": [ 22.934453, 40.640979 ] } },
{ "type": "Feature", "properties": { "full_id": "n5326340273", "osm_id": "5326340273", "osm_type": "node", "station": "subway", "construction": null, "proposed": null, "short_name": "ΝΣΣ", "name:fr": "Nouvelle Gare de Thessalonique", "name:en": "Thessaloniki New Railway Station", "name:el": "Νέος Σιδηροδρομικός Σταθμός", "name:de": "Neuer Bahnhof Thessaloniki", "website": "https://www.thessmetro.gr/", "operator:wikidata": null, "operator:short": null, "operator": null, "network:wikidata": null, "network:en": null, "network:el": null, "network": null, "addr:street": null, "addr:city": null, "wikipedia": null, "wikidata": "Q56279478", "wheelchair": "yes", "subway": "yes", "railway": "station", "public_transport": "station", "name": "Νέος Σιδηροδρομικός Σταθμός", "internet_access:fee": null, "internet_access": null, "int_name": "Neos Sidirodromikos Stathmos" }, "geometry": { "type": "Point", "coordinates": [ 22.92875, 40.643959 ] } },
{ "type": "Feature", "properties": { "full_id": "n5326340304", "osm_id": "5326340304", "osm_type": "node", "station": "subway", "construction": null, "proposed": "station", "short_name": null, "name:fr": null, "name:en": null, "name:el": null, "name:de": null, "website": null, "operator:wikidata": null, "operator:short": null, "operator": null, "network:wikidata": null, "network:en": null, "network:el": null, "network": null, "addr:street": null, "addr:city": null, "wikipedia": null, "wikidata": null, "wheelchair": "yes", "subway": "yes", "railway": "proposed", "public_transport": "station", "name": "Νεάπολη", "internet_access:fee": null, "internet_access": null, "int_name": null }, "geometry": { "type": "Point", "coordinates": [ 22.93562, 40.64823 ] } },
{ "type": "Feature", "properties": { "full_id": "n5326339948", "osm_id": "5326339948", "osm_type": "node", "station": "subway", "construction": null, "proposed": null, "short_name": null, "name:fr": null, "name:en": null, "name:el": null, "name:de": null, "website": null, "operator:wikidata": null, "operator:short": null, "operator": null, "network:wikidata": null, "network:en": null, "network:el": null, "network": null, "addr:street": null, "addr:city": null, "wikipedia": "en:Efklidis metro station", "wikidata": "Q56279939", "wheelchair": "yes", "subway": "yes", "railway": "station", "public_transport": "station", "name": "Ευκλείδης", "internet_access:fee": null, "internet_access": null, "int_name": "Efkleidis" }, "geometry": { "type": "Point", "coordinates": [ 22.96046, 40.615834 ] } },
{ "type": "Feature", "properties": { "full_id": "n5326339973", "osm_id": "5326339973", "osm_type": "node", "station": "subway", "construction": null, "proposed": null, "short_name": null, "name:fr": null, "name:en": null, "name:el": null, "name:de": null, "website": null, "operator:wikidata": "Q130541063", "operator:short": "THEMA", "operator": "Thessaloniki Metro Automatic", "network:wikidata": "Q1326567", "network:en": "Thessaloniki Metro", "network:el": "Μετρό Θεσσαλονίκης", "network": "Μετρό Θεσσαλονίκης", "addr:street": null, "addr:city": null, "wikipedia": "en:Papafi metro station", "wikidata": "Q56279937", "wheelchair": "yes", "subway": "yes", "railway": "station", "public_transport": "station", "name": "Παπάφη", "internet_access:fee": null, "internet_access": null, "int_name": "Papafi" }, "geometry": { "type": "Point", "coordinates": [ 22.963032, 40.619715 ] } },
{ "type": "Feature", "properties": { "full_id": "n5326340020", "osm_id": "5326340020", "osm_type": "node", "station": "subway", "construction": null, "proposed": null, "short_name": null, "name:fr": null, "name:en": null, "name:el": null, "name:de": null, "website": null, "operator:wikidata": "Q130541063", "operator:short": "THEMA", "operator": "Thessaloniki Metro Automatic", "network:wikidata": "Q1326567", "network:en": "Thessaloniki Metro", "network:el": "Μετρό Θεσσαλονίκης", "network": "Μετρό Θεσσαλονίκης", "addr:street": null, "addr:city": null, "wikipedia": "en:Panepistimio metro station (Thessaloniki)", "wikidata": "Q56279483", "wheelchair": "yes", "subway": "yes", "railway": "station", "public_transport": "station", "name": "Πανεπιστήμιο", "internet_access:fee": null, "internet_access": null, "int_name": "Panepistimio" }, "geometry": { "type": "Point", "coordinates": [ 22.960588, 40.62628 ] } },
{ "type": "Feature", "properties": { "full_id": "n5326340305", "osm_id": "5326340305", "osm_type": "node", "station": "subway", "construction": null, "proposed": "station", "short_name": null, "name:fr": null, "name:en": null, "name:el": null, "name:de": null, "website": null, "operator:wikidata": null, "operator:short": null, "operator": null, "network:wikidata": null, "network:en": null, "network:el": null, "network": null, "addr:street": null, "addr:city": null, "wikipedia": null, "wikidata": null, "wheelchair": "yes", "subway": "yes", "railway": "proposed", "public_transport": "station", "name": "Αμπελόκηποι", "internet_access:fee": null, "internet_access": null, "int_name": null }, "geometry": { "type": "Point", "coordinates": [ 22.922836, 40.654588 ] } },
{ "type": "Feature", "properties": { "full_id": "n5326340303", "osm_id": "5326340303", "osm_type": "node", "station": "subway", "construction": null, "proposed": "station", "short_name": null, "name:fr": null, "name:en": null, "name:el": null, "name:de": null, "website": null, "operator:wikidata": null, "operator:short": null, "operator": null, "network:wikidata": null, "network:en": null, "network:el": null, "network": null, "addr:street": null, "addr:city": null, "wikipedia": null, "wikidata": null, "wheelchair": "yes", "subway": "yes", "railway": "proposed", "public_transport": "station", "name": "Παύλος Μελάς", "internet_access:fee": null, "internet_access": null, "int_name": null }, "geometry": { "type": "Point", "coordinates": [ 22.934674, 40.657282 ] } },
{ "type": "Feature", "properties": { "full_id": "n5326340306", "osm_id": "5326340306", "osm_type": "node", "station": "subway", "construction": null, "proposed": "station", "short_name": null, "name:fr": null, "name:en": null, "name:el": null, "name:de": null, "website": null, "operator:wikidata": null, "operator:short": null, "operator": null, "network:wikidata": null, "network:en": null, "network:el": null, "network": null, "addr:street": null, "addr:city": null, "wikipedia": null, "wikidata": null, "wheelchair": "yes", "subway": "yes", "railway": "proposed", "public_transport": "station", "name": "Μενεμένη", "internet_access:fee": null, "internet_access": null, "int_name": null }, "geometry": { "type": "Point", "coordinates": [ 22.912248, 40.661328 ] } }
]
}
