{
"type": "FeatureCollection",
"name": "playground_polygons",
"crs": { "type": "name", "properties": { "name": "urn:ogc:def:crs:OGC:1.3:CRS84" } },
"xy_coordinate_resolution": 1e-06,
"features": [
{ "type": "Feature", "properties": { "playground_source": "polygon", "name": null, "leisure": "playground", "operator": null, "access": null, "surface": null }, "geometry": { "type": "Polygon", "coordinates": [ [ [ 22.896607, 40.406769 ], [ 22.896512, 40.406671 ], [ 22.896397, 40.406735 ], [ 22.896492, 40.406833 ], [ 22.896607, 40.406769 ] ] ] } },
{ "type": "Feature", "properties": { "playground_source": "polygon", "name": null, "leisure": "playground", "operator": null, "access": null, "surface": null }, "geometry": { "type": "Polygon", "coordinates": [ [ [ 22.8619, 40.458873 ], [ 22.861802, 40.458826 ], [ 22.861659, 40.458998 ], [ 22.861757, 40.459045 ], [ 22.8619, 40.458873 ] ] ] } },
{ "type": "Feature", "properties": { "playground_source": "polygon", "name": null, "leisure": "playground", "operator": null, "access": null, "surface": null }, "geometry": { "type": "Polygon", "coordinates": [ [ [ 22.861751, 40.459061 ], [ 22.86168, 40.459028 ], [ 22.861518, 40.459227 ], [ 22.861589, 40.45926 ], [ 22.861751, 40.459061 ] ] ] } },
{ "type": "Feature", "properties": { "playground_source": "polygon", "name": null, "leisure": "playground", "operator": null, "access": null, "surface": null }, "geometry": { "type": "Polygon", "coordinates": [ [ [ 22.858157, 40.462994 ], [ 22.858257, 40.46285 ], [ 22.858194, 40.462825 ], [ 22.858049, 40.462851 ], [ 22.857997, 40.462931 ], [ 22.858157, 40.462994 ] ] ] } },
{ "type": "Feature", "properties": { "playground_source": "polygon", "name": null, "leisure": "playground", "operator": null, "access": null, "surface": null }, "geometry": { "type": "Polygon", "coordinates": [ [ [ 22.860605, 40.640742 ], [ 22.860127, 40.640534 ], [ 22.860022, 40.640888 ], [ 22.860605, 40.640742 ] ] ] } },
{ "type": "Feature", "properties": { "playground_source": "polygon", "name": null, "leisure": "playground", "operator": null, "access": null, "surface": null }, "geometry": { "type": "Polygon", "coordinates": [ [ [ 22.860717, 40.643561 ], [ 22.860779, 40.643578 ], [ 22.860856, 40.643559 ], [ 22.860915, 40.643492 ], [ 22.860942, 40.643416 ], [ 22.860926, 40.643331 ], [ 22.860891, 40.643272 ], [ 22.860848, 40.64325 ], [ 22.860819, 40.643246 ], [ 22.860757, 40.643272 ], [ 22.860687, 40.643323 ], [ 22.860652, 40.643406 ], [ 22.860658, 40.643462 ], [ 22.86068, 40.643525 ], [ 22.860717, 40.643561 ] ] ] } },
{ "type": "Feature", "properties": { "playground_source": "polygon", "name": null, "leisure": "playground", "operator": null, "access": "private", "surface": "ground" }, "geometry": { "type": "Polygon", "coordinates": [ [ [ 22.925452, 40.653625 ], [ 22.925453, 40.6536 ], [ 22.92557, 40.653506 ], [ 22.925462, 40.653403 ], [ 22.925206, 40.65358 ], [ 22.925357, 40.653697 ], [ 22.925452, 40.653625 ] ] ] } },
{ "type": "Feature", "properties": { "playground_source": "polygon", "name": null, "leisure": "playground", "operator": null, "access": null, "surface": null }, "geometry": { "type": "Polygon", "coordinates": [ [ [ 22.910219, 40.654486 ], [ 22.910525, 40.654523 ], [ 22.910136, 40.654102 ], [ 22.909941, 40.654202 ], [ 22.910219, 40.654486 ] ] ] } },
{ "type": "Feature", "properties": { "playground_source": "polygon", "name": null, "leisure": "playground", "operator": null, "access": null, "surface": null }, "geometry": { "type": "Polygon", "coordinates": [ [ [ 22.926927, 40.655079 ], [ 22.926776, 40.654912 ], [ 22.926595, 40.655006 ], [ 22.926747, 40.655172 ], [ 22.926927, 40.655079 ] ] ] } },
{ "type": "Feature", "properties": { "playground_source": "polygon", "name": null, "leisure": "playground", "operator": null, "access": null, "surface": null }, "geometry": { "type": "Polygon", "coordinates": [ [ [ 22.923755, 40.657548 ], [ 22.923803, 40.657597 ], [ 22.923822, 40.657643 ], [ 22.923842, 40.657656 ], [ 22.923869, 40.657654 ], [ 22.923943, 40.657619 ], [ 22.923818, 40.657484 ], [ 22.923775, 40.657504 ], [ 22.923768, 40.657523 ], [ 22.923753, 40.657523 ], [ 22.923755, 40.657548 ] ] ] } },
{ "type": "Feature", "properties": { "playground_source": "polygon", "name": null, "leisure": "playground", "operator": null, "access": null, "surface": null }, "geometry": { "type": "Polygon", "coordinates": [ [ [ 22.948652, 40.576711 ], [ 22.948947, 40.576535 ], [ 22.94866, 40.576274 ], [ 22.948518, 40.576367 ], [ 22.948386, 40.576455 ], [ 22.948652, 40.576711 ] ] ] } },
{ "type": "Feature", "properties": { "playground_source": "polygon", "name": null, "leisure": "playground", "operator": null, "access": null, "surface": null }, "geometry": { "type": "Polygon", "coordinates": [ [ [ 22.94517, 40.585236 ], [ 22.945308, 40.58513 ], [ 22.945267, 40.585099 ], [ 22.94519, 40.585041 ], [ 22.945052, 40.585147 ], [ 22.94517, 40.585236 ] ] ] } },
{ "type": "Feature", "properties": { "playground_source": "polygon", "name": null, "leisure": "playground", "operator": null, "access": null, "surface": null }, "geometry": { "type": "Polygon", "coordinates": [ [ [ 22.948515, 40.630765 ], [ 22.948496, 40.6308 ], [ 22.948494, 40.630837 ], [ 22.948508, 40.630872 ], [ 22.948537, 40.630902 ], [ 22.948577, 40.630923 ], [ 22.948624, 40.630932 ], [ 22.948673, 40.630929 ], [ 22.948723, 40.630916 ], [ 22.948551, 40.630735 ], [ 22.948515, 40.630765 ] ] ] } },
{ "type": "Feature", "properties": { "playground_source": "polygon", "name": null, "leisure": "playground", "operator": null, "access": "yes", "surface": null }, "geometry": { "type": "Polygon", "coordinates": [ [ [ 22.945604, 40.63683 ], [ 22.945666, 40.636838 ], [ 22.945721, 40.63682 ], [ 22.945751, 40.636812 ], [ 22.945773, 40.636779 ], [ 22.945776, 40.63671 ], [ 22.945741, 40.63667 ], [ 22.945523, 40.636768 ], [ 22.945575, 40.636819 ], [ 22.945604, 40.63683 ] ] ] } },
{ "type": "Feature", "properties": { "playground_source": "polygon", "name": null, "leisure": "playground", "operator": null, "access": "yes", "surface": null }, "geometry": { "type": "Polygon", "coordinates": [ [ [ 22.939842, 40.644641 ], [ 22.939798, 40.644583 ], [ 22.939688, 40.644631 ], [ 22.939666, 40.644603 ], [ 22.939544, 40.644657 ], [ 22.939563, 40.644682 ], [ 22.939521, 40.644761 ], [ 22.93955, 40.64477 ], [ 22.939842, 40.644641 ] ] ] } },
{ "type": "Feature", "properties": { "playground_source": "polygon", "name": null, "leisure": "playground", "operator": null, "access": null, "surface": null }, "geometry": { "type": "Polygon", "coordinates": [ [ [ 22.931123, 40.645503 ], [ 22.931446, 40.645701 ], [ 22.931655, 40.645505 ], [ 22.931331, 40.645307 ], [ 22.931123, 40.645503 ] ] ] } },
{ "type": "Feature", "properties": { "playground_source": "polygon", "name": null, "leisure": "playground", "operator": "Δήμος Νεάπολης - Συκεών", "access": null, "surface": null }, "geometry": { "type": "Polygon", "coordinates": [ [ [ 22.945621, 40.646279 ], [ 22.945618, 40.646352 ], [ 22.945616, 40.64639 ], [ 22.945762, 40.646387 ], [ 22.94582, 40.646364 ], [ 22.945845, 40.646304 ], [ 22.945707, 40.646198 ], [ 22.945621, 40.646279 ] ] ] } },
{ "type": "Feature", "properties": { "playground_source": "polygon", "name": null, "leisure": "playground", "operator": null, "access": null, "surface": null }, "geometry": { "type": "Polygon", "coordinates": [ [ [ 22.947076, 40.64832 ], [ 22.947081, 40.64826 ], [ 22.947067, 40.648287 ], [ 22.947033, 40.64829 ], [ 22.947023, 40.648315 ], [ 22.947076, 40.64832 ] ] ] } },
{ "type": "Feature", "properties": { "playground_source": "polygon", "name": null, "leisure": "playground", "operator": null, "access": "yes", "surface": null }, "geometry": { "type": "Polygon", "coordinates": [ [ [ 22.931513, 40.648888 ], [ 22.931612, 40.648782 ], [ 22.931434, 40.648697 ], [ 22.931374, 40.64876 ], [ 22.931372, 40.648911 ], [ 22.931457, 40.64895 ], [ 22.931513, 40.648888 ] ] ] } },
{ "type": "Feature", "properties": { "playground_source": "polygon", "name": null, "leisure": "playground", "operator": null, "access": null, "surface": null }, "geometry": { "type": "Polygon", "coordinates": [ [ [ 22.94453, 40.650125 ], [ 22.944632, 40.65004 ], [ 22.944397, 40.64994 ], [ 22.944195, 40.650101 ], [ 22.94453, 40.650125 ] ] ] } },
{ "type": "Feature", "properties": { "playground_source": "polygon", "name": null, "leisure": "playground", "operator": null, "access": "yes", "surface": null }, "geometry": { "type": "Polygon", "coordinates": [ [ [ 22.950316, 40.59535 ], [ 22.950508, 40.595325 ], [ 22.950722, 40.595301 ], [ 22.950446, 40.594952 ], [ 22.950247, 40.595052 ], [ 22.950316, 40.59535 ] ] ] } },
{ "type": "Feature", "properties": { "playground_source": "polygon", "name": null, "leisure": "playground", "operator": null, "access": "yes", "surface": null }, "geometry": { "type": "Polygon", "coordinates": [ [ [ 22.95086, 40.603549 ], [ 22.951177, 40.602743 ], [ 22.950736, 40.602661 ], [ 22.950611, 40.60311 ], [ 22.950689, 40.603521 ], [ 22.95086, 40.603549 ] ] ] } },
{ "type": "Feature", "properties": { "playground_source": "polygon", "name": null, "leisure": "playground", "operator": null, "access": "yes", "surface": null }, "geometry": { "type": "Polygon", "coordinates": [ [ [ 22.950527, 40.606971 ], [ 22.950888, 40.60694 ], [ 22.950804, 40.606544 ], [ 22.950733, 40.606553 ], [ 22.950737, 40.606719 ], [ 22.950484, 40.606714 ], [ 22.950527, 40.606971 ] ] ] } },
{ "type": "Feature", "properties": { "playground_source": "polygon", "name": null, "leisure": "playground", "operator": null, "access": "yes", "surface": null }, "geometry": { "type": "Polygon", "coordinates": [ [ [ 22.951632, 40.616447 ], [ 22.951836, 40.616423 ], [ 22.951812, 40.616305 ], [ 22.952463, 40.616216 ], [ 22.952458, 40.616126 ], [ 22.952176, 40.616135 ], [ 22.951597, 40.616183 ], [ 22.951632, 40.616447 ] ] ] } },
{ "type": "Feature", "properties": { "playground_source": "polygon", "name": null, "leisure": "playground", "operator": null, "access": "yes", "surface": null }, "geometry": { "type": "Polygon", "coordinates": [ [ [ 22.953521, 40.616445 ], [ 22.953467, 40.616216 ], [ 22.953258, 40.616244 ], [ 22.953162, 40.616257 ], [ 22.953215, 40.616486 ], [ 22.953521, 40.616445 ] ] ] } },
{ "type": "Feature", "properties": { "playground_source": "polygon", "name": null, "leisure": "playground", "operator": null, "access": null, "surface": null }, "geometry": { "type": "Polygon", "coordinates": [ [ [ 22.956758, 40.621231 ], [ 22.956697, 40.621223 ], [ 22.956644, 40.621199 ], [ 22.956605, 40.621163 ], [ 22.956583, 40.62112 ], [ 22.956568, 40.621124 ], [ 22.956556, 40.621214 ], [ 22.956537, 40.621363 ], [ 22.956582, 40.621374 ], [ 22.956574, 40.621395 ], [ 22.956771, 40.621447 ], [ 22.956809, 40.621363 ], [ 22.956876, 40.621225 ], [ 22.956844, 40.621215 ], [ 22.956819, 40.621223 ], [ 22.956758, 40.621231 ] ] ] } },
{ "type": "Feature", "properties": { "playground_source": "polygon", "name": null, "leisure": "playground", "operator": null, "access": "yes", "surface": null }, "geometry": { "type": "Polygon", "coordinates": [ [ [ 22.954637, 40.622362 ], [ 22.954589, 40.622445 ], [ 22.954626, 40.622517 ], [ 22.954656, 40.622528 ], [ 22.95468, 40.622533 ], [ 22.954707, 40.622539 ], [ 22.954731, 40.622542 ], [ 22.954756, 40.622542 ], [ 22.954781, 40.62254 ], [ 22.954806, 40.622536 ], [ 22.954826, 40.62253 ], [ 22.954843, 40.622524 ], [ 22.954864, 40.622514 ], [ 22.954885, 40.622502 ], [ 22.954899, 40.62249 ], [ 22.954915, 40.622475 ], [ 22.954929, 40.622454 ], [ 22.95494, 40.622433 ], [ 22.954945, 40.622412 ], [ 22.954947, 40.622388 ], [ 22.954944, 40.622365 ], [ 22.954936, 40.622343 ], [ 22.954922, 40.622319 ], [ 22.954906, 40.6223 ], [ 22.954885, 40.622283 ], [ 22.954859, 40.622268 ], [ 22.954834, 40.622258 ], [ 22.954801, 40.622248 ], [ 22.954766, 40.622243 ], [ 22.954737, 40.622243 ], [ 22.954715, 40.622245 ], [ 22.954696, 40.622249 ], [ 22.954675, 40.622256 ], [ 22.954655, 40.622265 ], [ 22.954637, 40.622362 ] ] ] } },
{ "type": "Feature", "properties": { "playground_source": "polygon", "name": null, "leisure": "playground", "operator": null, "access": "yes", "surface": "concrete" }, "geometry": { "type": "Polygon", "coordinates": [ [ [ 22.952081, 40.624464 ], [ 22.952115, 40.624493 ], [ 22.952136, 40.624502 ], [ 22.95216, 40.624512 ], [ 22.952209, 40.624519 ], [ 22.95226, 40.624514 ], [ 22.952306, 40.624498 ], [ 22.952342, 40.624471 ], [ 22.952366, 40.624438 ], [ 22.952375, 40.6244 ], [ 22.952368, 40.624362 ], [ 22.952343, 40.624325 ], [ 22.952315, 40.624305 ], [ 22.952303, 40.624297 ], [ 22.952254, 40.62428 ], [ 22.952199, 40.624277 ], [ 22.952147, 40.624288 ], [ 22.952116, 40.624304 ], [ 22.9521, 40.624315 ], [ 22.952071, 40.624346 ], [ 22.952056, 40.624385 ], [ 22.95206, 40.624426 ], [ 22.952081, 40.624464 ] ] ] } },
{ "type": "Feature", "properties": { "playground_source": "polygon", "name": null, "leisure": "playground", "operator": null, "access": null, "surface": null }, "geometry": { "type": "Polygon", "coordinates": [ [ [ 22.948753, 40.630624 ], [ 22.94876, 40.63051 ], [ 22.948709, 40.630464 ], [ 22.948493, 40.630592 ], [ 22.948606, 40.630705 ], [ 22.948753, 40.630624 ] ] ] } },
{ "type": "Feature", "properties": { "playground_source": "polygon", "name": null, "leisure": "playground", "operator": null, "access": null, "surface": null }, "geometry": { "type": "Polygon", "coordinates": [ [ [ 22.95669, 40.638151 ], [ 22.956704, 40.638144 ], [ 22.956717, 40.638116 ], [ 22.956719, 40.638087 ], [ 22.956711, 40.638061 ], [ 22.956693, 40.638044 ], [ 22.956649, 40.63805 ], [ 22.956624, 40.638063 ], [ 22.956517, 40.638119 ], [ 22.956506, 40.638125 ], [ 22.956555, 40.638176 ], [ 22.956595, 40.63818 ], [ 22.95665, 40.638169 ], [ 22.95669, 40.638151 ] ] ] } },
{ "type": "Feature", "properties": { "playground_source": "polygon", "name": null, "leisure": "playground", "operator": null, "access": "yes", "surface": null }, "geometry": { "type": "Polygon", "coordinates": [ [ [ 22.950538, 40.641812 ], [ 22.950478, 40.641865 ], [ 22.950518, 40.641935 ], [ 22.950621, 40.641916 ], [ 22.950538, 40.641812 ] ] ] } },
{ "type": "Feature", "properties": { "playground_source": "polygon", "name": null, "leisure": "playground", "operator": "Δήμος Νεάπολης-Συκεών", "access": "yes", "surface": "artificial_turf" }, "geometry": { "type": "Polygon", "coordinates": [ [ [ 22.956116, 40.644336 ], [ 22.95612, 40.644282 ], [ 22.956124, 40.644246 ], [ 22.955881, 40.644238 ], [ 22.955806, 40.644321 ], [ 22.955871, 40.644368 ], [ 22.956069, 40.644383 ], [ 22.956116, 40.644336 ] ] ] } },
{ "type": "Feature", "properties": { "playground_source": "polygon", "name": null, "leisure": "playground", "operator": null, "access": "yes", "surface": null }, "geometry": { "type": "Polygon", "coordinates": [ [ [ 22.952703, 40.645238 ], [ 22.952745, 40.645216 ], [ 22.952786, 40.645247 ], [ 22.952912, 40.645183 ], [ 22.952863, 40.645114 ], [ 22.952661, 40.645198 ], [ 22.952703, 40.645238 ] ] ] } },
{ "type": "Feature", "properties": { "playground_source": "polygon", "name": null, "leisure": "playground", "operator": null, "access": null, "surface": null }, "geometry": { "type": "Polygon", "coordinates": [ [ [ 22.948813, 40.64599 ], [ 22.948809, 40.645888 ], [ 22.948751, 40.645718 ], [ 22.948666, 40.645595 ], [ 22.948539, 40.645562 ], [ 22.94837, 40.645683 ], [ 22.948575, 40.645833 ], [ 22.948813, 40.64599 ] ] ] } },
{ "type": "Feature", "properties": { "playground_source": "polygon", "name": null, "leisure": "playground", "operator": null, "access": null, "surface": null }, "geometry": { "type": "Polygon", "coordinates": [ [ [ 22.952067, 40.646677 ], [ 22.951945, 40.646672 ], [ 22.951841, 40.646748 ], [ 22.951916, 40.646807 ], [ 22.952067, 40.646677 ] ] ] } },
{ "type": "Feature", "properties": { "playground_source": "polygon", "name": null, "leisure": "playground", "operator": null, "access": null, "surface": null }, "geometry": { "type": "Polygon", "coordinates": [ [ [ 22.949668, 40.648024 ], [ 22.949484, 40.647959 ], [ 22.949441, 40.648029 ], [ 22.949624, 40.648095 ], [ 22.949668, 40.648024 ] ] ] } },
{ "type": "Feature", "properties": { "playground_source": "polygon", "name": null, "leisure": "playground", "operator": null, "access": null, "surface": null }, "geometry": { "type": "Polygon", "coordinates": [ [ [ 22.955148, 40.648394 ], [ 22.955177, 40.648378 ], [ 22.955209, 40.648342 ], [ 22.955204, 40.648321 ], [ 22.955182, 40.648311 ], [ 22.955146, 40.648309 ], [ 22.955067, 40.648348 ], [ 22.955062, 40.64838 ], [ 22.955082, 40.648396 ], [ 22.955148, 40.648394 ] ] ] } },
{ "type": "Feature", "properties": { "playground_source": "polygon", "name": null, "leisure": "playground", "operator": null, "access": null, "surface": null }, "geometry": { "type": "Polygon", "coordinates": [ [ [ 22.954865, 40.648422 ], [ 22.95494, 40.648422 ], [ 22.954979, 40.64841 ], [ 22.955018, 40.648368 ], [ 22.955016, 40.648347 ], [ 22.954978, 40.648333 ], [ 22.954874, 40.648352 ], [ 22.954857, 40.648412 ], [ 22.954865, 40.648422 ] ] ] } },
{ "type": "Feature", "properties": { "playground_source": "polygon", "name": null, "leisure": "playground", "operator": null, "access": null, "surface": null }, "geometry": { "type": "Polygon", "coordinates": [ [ [ 22.956039, 40.649065 ], [ 22.956033, 40.649014 ], [ 22.956044, 40.649002 ], [ 22.956072, 40.648992 ], [ 22.956065, 40.648973 ], [ 22.955983, 40.648974 ], [ 22.955938, 40.648993 ], [ 22.955948, 40.649 ], [ 22.955966, 40.649025 ], [ 22.955966, 40.649064 ], [ 22.956039, 40.649065 ] ] ] } },
{ "type": "Feature", "properties": { "playground_source": "polygon", "name": null, "leisure": "playground", "operator": null, "access": null, "surface": null }, "geometry": { "type": "Polygon", "coordinates": [ [ [ 22.955966, 40.649025 ], [ 22.955948, 40.649 ], [ 22.955938, 40.648993 ], [ 22.955925, 40.648983 ], [ 22.955883, 40.648985 ], [ 22.95587, 40.648995 ], [ 22.955871, 40.649041 ], [ 22.955899, 40.649063 ], [ 22.955966, 40.649064 ], [ 22.955966, 40.649025 ] ] ] } },
{ "type": "Feature", "properties": { "playground_source": "polygon", "name": null, "leisure": "playground", "operator": null, "access": null, "surface": null }, "geometry": { "type": "Polygon", "coordinates": [ [ [ 22.945627, 40.653334 ], [ 22.945574, 40.653305 ], [ 22.945544, 40.653287 ], [ 22.945275, 40.653343 ], [ 22.94548, 40.653458 ], [ 22.945513, 40.653447 ], [ 22.945627, 40.653334 ] ] ] } },
{ "type": "Feature", "properties": { "playground_source": "polygon", "name": null, "leisure": "playground", "operator": null, "access": null, "surface": null }, "geometry": { "type": "Polygon", "coordinates": [ [ [ 22.946892, 40.653872 ], [ 22.946963, 40.653812 ], [ 22.947221, 40.653592 ], [ 22.946516, 40.653179 ], [ 22.946209, 40.653495 ], [ 22.946892, 40.653872 ] ] ] } },
{ "type": "Feature", "properties": { "playground_source": "polygon", "name": null, "leisure": "playground", "operator": null, "access": "yes", "surface": null }, "geometry": { "type": "Polygon", "coordinates": [ [ [ 22.944501, 40.653951 ], [ 22.944635, 40.653814 ], [ 22.944442, 40.653706 ], [ 22.944309, 40.653843 ], [ 22.944501, 40.653951 ] ] ] } },
{ "type": "Feature", "properties": { "playground_source": "polygon", "name": null, "leisure": "playground", "operator": null, "access": "yes", "surface": null }, "geometry": { "type": "Polygon", "coordinates": [ [ [ 22.928887, 40.656554 ], [ 22.928815, 40.656493 ], [ 22.92876, 40.656493 ], [ 22.928659, 40.656557 ], [ 22.928648, 40.656596 ], [ 22.928724, 40.656659 ], [ 22.928887, 40.656554 ] ] ] } },
{ "type": "Feature", "properties": { "playground_source": "polygon", "name": null, "leisure": "playground", "operator": null, "access": null, "surface": null }, "geometry": { "type": "Polygon", "coordinates": [ [ [ 22.938695, 40.656767 ], [ 22.938743, 40.65677 ], [ 22.938822, 40.6567 ], [ 22.938379, 40.656675 ], [ 22.93833, 40.656675 ], [ 22.938324, 40.656772 ], [ 22.938695, 40.656767 ] ] ] } },
{ "type": "Feature", "properties": { "playground_source": "polygon", "name": null, "leisure": "playground", "operator": null, "access": null, "surface": null }, "geometry": { "type": "Polygon", "coordinates": [ [ [ 22.945297, 40.657489 ], [ 22.945101, 40.657506 ], [ 22.945132, 40.657674 ], [ 22.945376, 40.657631 ], [ 22.945336, 40.657486 ], [ 22.945297, 40.657489 ] ] ] } },
{ "type": "Feature", "properties": { "playground_source": "polygon", "name": "Παιδική χαρά πλατείας Ρόδων", "leisure": "playground", "operator": "Δήμος Παύλου Μελά", "access": "yes", "surface": "tartan" }, "geometry": { "type": "Polygon", "coordinates": [ [ [ 22.932, 40.660041 ], [ 22.932039, 40.66011 ], [ 22.932067, 40.660136 ], [ 22.93212, 40.660118 ], [ 22.932133, 40.660113 ], [ 22.932047, 40.659962 ], [ 22.932033, 40.659964 ], [ 22.93193, 40.659999 ], [ 22.931959, 40.660053 ], [ 22.932, 40.660041 ] ] ] } },
{ "type": "Feature", "properties": { "playground_source": "polygon", "name": null, "leisure": "playground", "operator": null, "access": "yes", "surface": null }, "geometry": { "type": "Polygon", "coordinates": [ [ [ 22.946079, 40.660344 ], [ 22.946054, 40.660221 ], [ 22.945751, 40.660275 ], [ 22.945809, 40.660409 ], [ 22.946079, 40.660344 ] ] ] } },
{ "type": "Feature", "properties": { "playground_source": "polygon", "name": "Παιδική Χαρά Γωγούση", "leisure": "playground", "operator": null, "access": "yes", "surface": "tartan" }, "geometry": { "type": "Polygon", "coordinates": [ [ [ 22.927708, 40.660313 ], [ 22.927627, 40.660293 ], [ 22.9276, 40.660323 ], [ 22.927636, 40.660415 ], [ 22.927704, 40.660551 ], [ 22.927935, 40.660458 ], [ 22.927917, 40.660411 ], [ 22.927923, 40.660366 ], [ 22.927708, 40.660313 ] ] ] } },
{ "type": "Feature", "properties": { "playground_source": "polygon", "name": "Πάρκο Ζέρβα", "leisure": "playground", "operator": "Δήμος Παύλου Μελά", "access": "yes", "surface": "tartan" }, "geometry": { "type": "Polygon", "coordinates": [ [ [ 22.932619, 40.662937 ], [ 22.932663, 40.662898 ], [ 22.932555, 40.662568 ], [ 22.932041, 40.662727 ], [ 22.932619, 40.662937 ] ] ] } },
{ "type": "Feature", "properties": { "playground_source": "polygon", "name": null, "leisure": "playground", "operator": null, "access": null, "surface": null }, "geometry": { "type": "Polygon", "coordinates": [ [ [ 22.925817, 40.660039 ], [ 22.925823, 40.660046 ], [ 22.925916, 40.660047 ], [ 22.925953, 40.660046 ], [ 22.925863, 40.659946 ], [ 22.925773, 40.65999 ], [ 22.925817, 40.660039 ] ] ] } },
{ "type": "Feature", "properties": { "playground_source": "polygon", "name": null, "leisure": "playground", "operator": null, "access": null, "surface": null }, "geometry": { "type": "Polygon", "coordinates": [ [ [ 22.913177, 40.662162 ], [ 22.913205, 40.662026 ], [ 22.913003, 40.662002 ], [ 22.912975, 40.662139 ], [ 22.913177, 40.662162 ] ] ] } },
{ "type": "Feature", "properties": { "playground_source": "polygon", "name": null, "leisure": "playground", "operator": null, "access": "yes", "surface": null }, "geometry": { "type": "Polygon", "coordinates": [ [ [ 22.899451, 40.66411 ], [ 22.899474, 40.664147 ], [ 22.899529, 40.664174 ], [ 22.899811, 40.664047 ], [ 22.899546, 40.663976 ], [ 22.899451, 40.66411 ] ] ] } },
{ "type": "Feature", "properties": { "playground_source": "polygon", "name": null, "leisure": "playground", "operator": null, "access": null, "surface": null }, "geometry": { "type": "Polygon", "coordinates": [ [ [ 22.919075, 40.665734 ], [ 22.919074, 40.665635 ], [ 22.918681, 40.665644 ], [ 22.91869, 40.66574 ], [ 22.919075, 40.665734 ] ] ] } },
{ "type": "Feature", "properties": { "playground_source": "polygon", "name": null, "leisure": "playground", "operator": null, "access": null, "surface": null }, "geometry": { "type": "Polygon", "coordinates": [ [ [ 22.807518, 40.666007 ], [ 22.807567, 40.665781 ], [ 22.807176, 40.665784 ], [ 22.807153, 40.66596 ], [ 22.807518, 40.666007 ] ] ] } },
{ "type": "Feature", "properties": { "playground_source": "polygon", "name": null, "leisure": "playground", "operator": null, "access": null, "surface": null }, "geometry": { "type": "Polygon", "coordinates": [ [ [ 22.802905, 40.666115 ], [ 22.802965, 40.665904 ], [ 22.802803, 40.665877 ], [ 22.802743, 40.666088 ], [ 22.802905, 40.666115 ] ] ] } },
{ "type": "Feature", "properties": { "playground_source": "polygon", "name": "Παιδική Χαρά Κωνσταντίνου Καραμανλή", "leisure": "playground", "operator": null, "access": "yes", "surface": null }, "geometry": { "type": "Polygon", "coordinates": [ [ [ 22.899431, 40.66753 ], [ 22.899222, 40.667301 ], [ 22.89882, 40.667512 ], [ 22.899028, 40.667741 ], [ 22.899431, 40.66753 ] ] ] } },
{ "type": "Feature", "properties": { "playground_source": "polygon", "name": null, "leisure": "playground", "operator": null, "access": "yes", "surface": null }, "geometry": { "type": "Polygon", "coordinates": [ [ [ 22.923378, 40.670245 ], [ 22.923381, 40.669955 ], [ 22.923239, 40.669954 ], [ 22.923235, 40.670245 ], [ 22.923378, 40.670245 ] ] ] } },
{ "type": "Feature", "properties": { "playground_source": "polygon", "name": null, "leisure": "playground", "operator": null, "access": null, "surface": "sand" }, "geometry": { "type": "Polygon", "coordinates": [ [ [ 22.892055, 40.670447 ], [ 22.892046, 40.670481 ], [ 22.892085, 40.670515 ], [ 22.892392, 40.670526 ], [ 22.892272, 40.670177 ], [ 22.892055, 40.670447 ] ] ] } },
{ "type": "Feature", "properties": { "playground_source": "polygon", "name": null, "leisure": "playground", "operator": null, "access": "yes", "surface": "sand" }, "geometry": { "type": "Polygon", "coordinates": [ [ [ 22.899715, 40.670381 ], [ 22.899673, 40.670803 ], [ 22.899832, 40.670716 ], [ 22.899934, 40.670654 ], [ 22.900004, 40.670596 ], [ 22.900028, 40.670544 ], [ 22.900033, 40.670523 ], [ 22.899817, 40.670316 ], [ 22.899782, 40.670329 ], [ 22.899715, 40.670381 ] ] ] } },
{ "type": "Feature", "properties": { "playground_source": "polygon", "name": null, "leisure": "playground", "operator": null, "access": "yes", "surface": "tartan" }, "geometry": { "type": "Polygon", "coordinates": [ [ [ 22.93599, 40.664463 ], [ 22.935979, 40.664325 ], [ 22.935835, 40.664331 ], [ 22.935846, 40.66447 ], [ 22.93599, 40.664463 ] ] ] } },
{ "type": "Feature", "properties": { "playground_source": "polygon", "name": null, "leisure": "playground", "operator": null, "access": null, "surface": null }, "geometry": { "type": "Polygon", "coordinates": [ [ [ 22.935382, 40.664591 ], [ 22.935388, 40.664439 ], [ 22.934657, 40.664422 ], [ 22.934651, 40.664574 ], [ 22.935382, 40.664591 ] ] ] } },
{ "type": "Feature", "properties": { "playground_source": "polygon", "name": null, "leisure": "playground", "operator": null, "access": null, "surface": null }, "geometry": { "type": "Polygon", "coordinates": [ [ [ 22.94795, 40.664759 ], [ 22.947975, 40.66477 ], [ 22.948038, 40.664804 ], [ 22.948146, 40.664823 ], [ 22.948235, 40.664779 ], [ 22.948006, 40.664653 ], [ 22.947902, 40.664731 ], [ 22.94795, 40.664759 ] ] ] } },
{ "type": "Feature", "properties": { "playground_source": "polygon", "name": null, "leisure": "playground", "operator": null, "access": null, "surface": null }, "geometry": { "type": "Polygon", "coordinates": [ [ [ 22.932339, 40.667072 ], [ 22.932317, 40.666998 ], [ 22.931926, 40.667059 ], [ 22.931944, 40.66712 ], [ 22.932339, 40.667072 ] ] ] } },
{ "type": "Feature", "properties": { "playground_source": "polygon", "name": "Παιδική χαρά πάρκου Δενδροποτάμου", "leisure": "playground", "operator": null, "access": null, "surface": null }, "geometry": { "type": "Polygon", "coordinates": [ [ [ 22.935949, 40.667806 ], [ 22.935994, 40.667838 ], [ 22.936513, 40.667744 ], [ 22.936504, 40.667687 ], [ 22.936287, 40.667518 ], [ 22.936113, 40.667648 ], [ 22.935953, 40.667781 ], [ 22.935949, 40.667806 ] ] ] } },
{ "type": "Feature", "properties": { "playground_source": "polygon", "name": null, "leisure": "playground", "operator": null, "access": null, "surface": null }, "geometry": { "type": "Polygon", "coordinates": [ [ [ 22.929463, 40.670307 ], [ 22.929378, 40.670232 ], [ 22.929106, 40.670409 ], [ 22.929191, 40.670485 ], [ 22.929463, 40.670307 ] ] ] } },
{ "type": "Feature", "properties": { "playground_source": "polygon", "name": "Παιδική Χαρά Μεγ. Αλεξάνδρου", "leisure": "playground", "operator": null, "access": null, "surface": null }, "geometry": { "type": "Polygon", "coordinates": [ [ [ 22.945916, 40.671053 ], [ 22.945915, 40.671336 ], [ 22.946187, 40.671337 ], [ 22.946187, 40.671054 ], [ 22.945916, 40.671053 ] ] ] } },
{ "type": "Feature", "properties": { "playground_source": "polygon", "name": "Παιδική χαρά Παστέρ", "leisure": "playground", "operator": null, "access": "yes", "surface": null }, "geometry": { "type": "Polygon", "coordinates": [ [ [ 22.935508, 40.672247 ], [ 22.935878, 40.672186 ], [ 22.935838, 40.67208 ], [ 22.935473, 40.672141 ], [ 22.935508, 40.672247 ] ] ] } },
{ "type": "Feature", "properties": { "playground_source": "polygon", "name": null, "leisure": "playground", "operator": null, "access": null, "surface": null }, "geometry": { "type": "Polygon", "coordinates": [ [ [ 22.927599, 40.67223 ], [ 22.927759, 40.672089 ], [ 22.927663, 40.672026 ], [ 22.927475, 40.672189 ], [ 22.927599, 40.67223 ] ] ] } },
{ "type": "Feature", "properties": { "playground_source": "polygon", "name": null, "leisure": "playground", "operator": null, "access": null, "surface": null }, "geometry": { "type": "Polygon", "coordinates": [ [ [ 22.928042, 40.674118 ], [ 22.928152, 40.674004 ], [ 22.928087, 40.673966 ], [ 22.928111, 40.673941 ], [ 22.928076, 40.67392 ], [ 22.928036, 40.673898 ], [ 22.927899, 40.674035 ], [ 22.928042, 40.674118 ] ] ] } },
{ "type": "Feature", "properties": { "playground_source": "polygon", "name": null, "leisure": "playground", "operator": null, "access": null, "surface": null }, "geometry": { "type": "Polygon", "coordinates": [ [ [ 22.800275, 40.669864 ], [ 22.79988, 40.669843 ], [ 22.79992, 40.670061 ], [ 22.800315, 40.670081 ], [ 22.800275, 40.669864 ] ] ] } },
{ "type": "Feature", "properties": { "playground_source": "polygon", "name": null, "leisure": "playground", "operator": null, "access": null, "surface": "sand" }, "geometry": { "type": "Polygon", "coordinates": [ [ [ 22.895311, 40.671155 ], [ 22.895329, 40.67102 ], [ 22.895434, 40.671027 ], [ 22.895472, 40.670817 ], [ 22.89529, 40.670801 ], [ 22.895248, 40.671107 ], [ 22.895244, 40.671149 ], [ 22.895311, 40.671155 ] ] ] } },
{ "type": "Feature", "properties": { "playground_source": "polygon", "name": null, "leisure": "playground", "operator": null, "access": null, "surface": null }, "geometry": { "type": "Polygon", "coordinates": [ [ [ 22.810122, 40.671237 ], [ 22.81033, 40.671187 ], [ 22.810149, 40.670756 ], [ 22.809942, 40.670806 ], [ 22.810122, 40.671237 ] ] ] } },
{ "type": "Feature", "properties": { "playground_source": "polygon", "name": null, "leisure": "playground", "operator": null, "access": null, "surface": null }, "geometry": { "type": "Polygon", "coordinates": [ [ [ 22.911874, 40.673261 ], [ 22.911986, 40.673262 ], [ 22.911989, 40.673161 ], [ 22.911877, 40.67316 ], [ 22.911874, 40.673261 ] ] ] } },
{ "type": "Feature", "properties": { "playground_source": "polygon", "name": null, "leisure": "playground", "operator": null, "access": "yes", "surface": null }, "geometry": { "type": "Polygon", "coordinates": [ [ [ 22.915055, 40.673485 ], [ 22.915054, 40.673262 ], [ 22.914847, 40.673263 ], [ 22.914853, 40.673486 ], [ 22.915055, 40.673485 ] ] ] } },
{ "type": "Feature", "properties": { "playground_source": "polygon", "name": null, "leisure": "playground", "operator": null, "access": "yes", "surface": null }, "geometry": { "type": "Polygon", "coordinates": [ [ [ 22.912119, 40.67447 ], [ 22.912127, 40.674124 ], [ 22.911918, 40.674132 ], [ 22.911932, 40.674472 ], [ 22.912119, 40.67447 ] ] ] } },
{ "type": "Feature", "properties": { "playground_source": "polygon", "name": null, "leisure": "playground", "operator": null, "access": null, "surface": "ground" }, "geometry": { "type": "Polygon", "coordinates": [ [ [ 22.898894, 40.675796 ], [ 22.898885, 40.675705 ], [ 22.898713, 40.675715 ], [ 22.898722, 40.675806 ], [ 22.898894, 40.675796 ] ] ] } },
{ "type": "Feature", "properties": { "playground_source": "polygon", "name": null, "leisure": "playground", "operator": null, "access": null, "surface": null }, "geometry": { "type": "Polygon", "coordinates": [ [ [ 22.923922, 40.684615 ], [ 22.923928, 40.684867 ], [ 22.924211, 40.684865 ], [ 22.924204, 40.684611 ], [ 22.923922, 40.684615 ] ] ] } },
{ "type": "Feature", "properties": { "playground_source": "polygon", "name": null, "leisure": "playground", "operator": null, "access": null, "surface": null }, "geometry": { "type": "Polygon", "coordinates": [ [ [ 22.861556, 40.684821 ], [ 22.861449, 40.68469 ], [ 22.861051, 40.684877 ], [ 22.861158, 40.685008 ], [ 22.861556, 40.684821 ] ] ] } },
{ "type": "Feature", "properties": { "playground_source": "polygon", "name": null, "leisure": "playground", "operator": null, "access": null, "surface": null }, "geometry": { "type": "Polygon", "coordinates": [ [ [ 22.861562, 40.686596 ], [ 22.861463, 40.686478 ], [ 22.861079, 40.686663 ], [ 22.861178, 40.686781 ], [ 22.861562, 40.686596 ] ] ] } },
{ "type": "Feature", "properties": { "playground_source": "polygon", "name": null, "leisure": "playground", "operator": null, "access": null, "surface": null }, "geometry": { "type": "Polygon", "coordinates": [ [ [ 22.936893, 40.674963 ], [ 22.937101, 40.67496 ], [ 22.937099, 40.67484 ], [ 22.936891, 40.674843 ], [ 22.936893, 40.674963 ] ] ] } },
{ "type": "Feature", "properties": { "playground_source": "polygon", "name": null, "leisure": "playground", "operator": null, "access": null, "surface": null }, "geometry": { "type": "Polygon", "coordinates": [ [ [ 22.940619, 40.676581 ], [ 22.940796, 40.676272 ], [ 22.940457, 40.676228 ], [ 22.940287, 40.676472 ], [ 22.940619, 40.676581 ] ] ] } },
{ "type": "Feature", "properties": { "playground_source": "polygon", "name": "Παιδική χαρά Κάτω Νικόπολης", "leisure": "playground", "operator": null, "access": null, "surface": null }, "geometry": { "type": "Polygon", "coordinates": [ [ [ 22.934154, 40.678459 ], [ 22.934159, 40.677881 ], [ 22.933886, 40.677881 ], [ 22.933881, 40.67846 ], [ 22.934154, 40.678459 ] ] ] } },
{ "type": "Feature", "properties": { "playground_source": "polygon", "name": "Πάρκο Ευξείνου Πόντου", "leisure": "playground", "operator": null, "access": null, "surface": null }, "geometry": { "type": "Polygon", "coordinates": [ [ [ 22.944225, 40.680758 ], [ 22.944551, 40.68058 ], [ 22.944085, 40.680529 ], [ 22.94407, 40.680536 ], [ 22.944051, 40.680551 ], [ 22.944046, 40.680564 ], [ 22.944225, 40.680758 ] ] ] } },
{ "type": "Feature", "properties": { "playground_source": "polygon", "name": null, "leisure": "playground", "operator": null, "access": null, "surface": null }, "geometry": { "type": "Polygon", "coordinates": [ [ [ 22.944478, 40.682485 ], [ 22.944556, 40.682448 ], [ 22.94486, 40.682404 ], [ 22.944568, 40.682093 ], [ 22.944257, 40.682247 ], [ 22.944478, 40.682485 ] ] ] } },
{ "type": "Feature", "properties": { "playground_source": "polygon", "name": "Παιδική χαρά Άνω Νικόπολης", "leisure": "playground", "operator": null, "access": null, "surface": null }, "geometry": { "type": "Polygon", "coordinates": [ [ [ 22.934095, 40.68463 ], [ 22.934362, 40.684682 ], [ 22.934435, 40.684472 ], [ 22.934156, 40.684417 ], [ 22.933885, 40.684364 ], [ 22.933813, 40.684574 ], [ 22.934095, 40.68463 ] ] ] } },
{ "type": "Feature", "properties": { "playground_source": "polygon", "name": null, "leisure": "playground", "operator": null, "access": null, "surface": "rubbercrumb" }, "geometry": { "type": "Polygon", "coordinates": [ [ [ 22.946198, 40.684829 ], [ 22.946576, 40.685224 ], [ 22.94678, 40.68511 ], [ 22.946403, 40.684711 ], [ 22.946198, 40.684829 ] ] ] } },
{ "type": "Feature", "properties": { "playground_source": "polygon", "name": null, "leisure": "playground", "operator": null, "access": null, "surface": null }, "geometry": { "type": "Polygon", "coordinates": [ [ [ 22.859954, 40.692532 ], [ 22.859818, 40.692475 ], [ 22.859763, 40.692551 ], [ 22.859898, 40.692608 ], [ 22.859954, 40.692532 ] ] ] } },
{ "type": "Feature", "properties": { "playground_source": "polygon", "name": null, "leisure": "playground", "operator": null, "access": null, "surface": null }, "geometry": { "type": "Polygon", "coordinates": [ [ [ 22.8584, 40.692687 ], [ 22.858274, 40.692644 ], [ 22.858195, 40.692779 ], [ 22.85832, 40.692821 ], [ 22.8584, 40.692687 ] ] ] } },
{ "type": "Feature", "properties": { "playground_source": "polygon", "name": null, "leisure": "playground", "operator": null, "access": "yes", "surface": null }, "geometry": { "type": "Polygon", "coordinates": [ [ [ 22.609452, 40.701527 ], [ 22.609431, 40.700925 ], [ 22.609275, 40.700888 ], [ 22.609312, 40.701529 ], [ 22.609452, 40.701527 ] ] ] } },
{ "type": "Feature", "properties": { "playground_source": "polygon", "name": null, "leisure": "playground", "operator": null, "access": null, "surface": null }, "geometry": { "type": "Polygon", "coordinates": [ [ [ 22.914214, 40.720009 ], [ 22.91425, 40.719648 ], [ 22.91389, 40.719838 ], [ 22.913787, 40.719856 ], [ 22.913789, 40.719882 ], [ 22.913885, 40.719869 ], [ 22.913883, 40.719895 ], [ 22.913888, 40.720011 ], [ 22.914214, 40.720009 ] ] ] } },
{ "type": "Feature", "properties": { "playground_source": "polygon", "name": null, "leisure": "playground", "operator": null, "access": null, "surface": null }, "geometry": { "type": "Polygon", "coordinates": [ [ [ 22.902586, 40.722725 ], [ 22.90258, 40.722668 ], [ 22.902439, 40.722661 ], [ 22.902447, 40.722737 ], [ 22.902586, 40.722725 ] ] ] } },
{ "type": "Feature", "properties": { "playground_source": "polygon", "name": null, "leisure": "playground", "operator": null, "access": null, "surface": null }, "geometry": { "type": "Polygon", "coordinates": [ [ [ 22.902055, 40.722877 ], [ 22.902043, 40.722845 ], [ 22.901984, 40.722851 ], [ 22.902004, 40.722882 ], [ 22.902055, 40.722877 ] ] ] } },
{ "type": "Feature", "properties": { "playground_source": "polygon", "name": "Πάρκο του Βορρά", "leisure": "playground", "operator": "Δήμος Ωραιοκάστρου", "access": "yes", "surface": "ground" }, "geometry": { "type": "Polygon", "coordinates": [ [ [ 22.854907, 40.747523 ], [ 22.855312, 40.747192 ], [ 22.855189, 40.747072 ], [ 22.855118, 40.747079 ], [ 22.855025, 40.747099 ], [ 22.854969, 40.747116 ], [ 22.854906, 40.747144 ], [ 22.854877, 40.747159 ], [ 22.854841, 40.747194 ], [ 22.854809, 40.747232 ], [ 22.854788, 40.74727 ], [ 22.854765, 40.747323 ], [ 22.854735, 40.747395 ], [ 22.854907, 40.747523 ] ] ] } },
{ "type": "Feature", "properties": { "playground_source": "polygon", "name": null, "leisure": "playground", "operator": null, "access": null, "surface": null }, "geometry": { "type": "Polygon", "coordinates": [ [ [ 23.087336, 40.443386 ], [ 23.087389, 40.443307 ], [ 23.087298, 40.443271 ], [ 23.087244, 40.443351 ], [ 23.087336, 40.443386 ] ] ] } },
{ "type": "Feature", "properties": { "playground_source": "polygon", "name": null, "leisure": "playground", "operator": null, "access": null, "surface": null }, "geometry": { "type": "Polygon", "coordinates": [ [ [ 23.089776, 40.473644 ], [ 23.08976, 40.473579 ], [ 23.089659, 40.473594 ], [ 23.089676, 40.473659 ], [ 23.089776, 40.473644 ] ] ] } },
{ "type": "Feature", "properties": { "playground_source": "polygon", "name": null, "leisure": "playground", "operator": null, "access": null, "surface": null }, "geometry": { "type": "Polygon", "coordinates": [ [ [ 23.04875, 40.481642 ], [ 23.048615, 40.481394 ], [ 23.048408, 40.481432 ], [ 23.048493, 40.481651 ], [ 23.04875, 40.481642 ] ] ] } },
{ "type": "Feature", "properties": { "playground_source": "polygon", "name": null, "leisure": "playground", "operator": null, "access": "customers", "surface": "artificial_turf" }, "geometry": { "type": "Polygon", "coordinates": [ [ [ 23.133684, 40.488319 ], [ 23.133636, 40.488231 ], [ 23.133412, 40.488298 ], [ 23.133491, 40.488359 ], [ 23.133684, 40.488319 ] ] ] } },
{ "type": "Feature", "properties": { "playground_source": "polygon", "name": null, "leisure": "playground", "operator": null, "access": null, "surface": null }, "geometry": { "type": "Polygon", "coordinates": [ [ [ 23.221404, 40.521817 ], [ 23.221424, 40.521789 ], [ 23.221361, 40.521732 ], [ 23.221197, 40.521627 ], [ 23.221098, 40.521755 ], [ 23.221404, 40.521817 ] ] ] } },
{ "type": "Feature", "properties": { "playground_source": "polygon", "name": null, "leisure": "playground", "operator": null, "access": null, "surface": null }, "geometry": { "type": "Polygon", "coordinates": [ [ [ 23.018781, 40.546286 ], [ 23.018795, 40.546093 ], [ 23.018589, 40.546096 ], [ 23.018519, 40.546192 ], [ 23.018593, 40.546293 ], [ 23.018781, 40.546286 ] ] ] } },
{ "type": "Feature", "properties": { "playground_source": "polygon", "name": null, "leisure": "playground", "operator": null, "access": "yes", "surface": null }, "geometry": { "type": "Polygon", "coordinates": [ [ [ 23.16417, 40.549249 ], [ 23.164354, 40.549496 ], [ 23.164273, 40.549536 ], [ 23.164393, 40.549668 ], [ 23.164605, 40.549617 ], [ 23.164341, 40.549182 ], [ 23.16417, 40.549249 ] ] ] } },
{ "type": "Feature", "properties": { "playground_source": "polygon", "name": "Πάρκο", "leisure": "playground", "operator": null, "access": "yes", "surface": "sand,_concrete" }, "geometry": { "type": "Polygon", "coordinates": [ [ [ 23.018896, 40.548874 ], [ 23.019112, 40.548936 ], [ 23.019392, 40.549012 ], [ 23.019463, 40.548828 ], [ 23.019327, 40.548788 ], [ 23.019099, 40.548726 ], [ 23.018823, 40.548636 ], [ 23.018738, 40.548818 ], [ 23.018896, 40.548874 ] ] ] } },
{ "type": "Feature", "properties": { "playground_source": "polygon", "name": "Παιδική χαρά δυτικά της Θέρμης", "leisure": "playground", "operator": null, "access": "yes", "surface": null }, "geometry": { "type": "Polygon", "coordinates": [ [ [ 23.022499, 40.552907 ], [ 23.022576, 40.552865 ], [ 23.022661, 40.552783 ], [ 23.022704, 40.552712 ], [ 23.022729, 40.552669 ], [ 23.022465, 40.552594 ], [ 23.022437, 40.552662 ], [ 23.022448, 40.552666 ], [ 23.022442, 40.552676 ], [ 23.022439, 40.552685 ], [ 23.022426, 40.552682 ], [ 23.022388, 40.552747 ], [ 23.022362, 40.552808 ], [ 23.022499, 40.552907 ] ] ] } },
{ "type": "Feature", "properties": { "playground_source": "polygon", "name": null, "leisure": "playground", "operator": null, "access": "yes", "surface": null }, "geometry": { "type": "Polygon", "coordinates": [ [ [ 23.03332, 40.556005 ], [ 23.033338, 40.55601 ], [ 23.033356, 40.556011 ], [ 23.033375, 40.556007 ], [ 23.033392, 40.555999 ], [ 23.033403, 40.555987 ], [ 23.033409, 40.555973 ], [ 23.033408, 40.555958 ], [ 23.033401, 40.555944 ], [ 23.033388, 40.555933 ], [ 23.033371, 40.555925 ], [ 23.033351, 40.555923 ], [ 23.033333, 40.555925 ], [ 23.033316, 40.555932 ], [ 23.033303, 40.555942 ], [ 23.033295, 40.555955 ], [ 23.033293, 40.555969 ], [ 23.033297, 40.555983 ], [ 23.033306, 40.555995 ], [ 23.03332, 40.556005 ] ] ] } },
{ "type": "Feature", "properties": { "playground_source": "polygon", "name": null, "leisure": "playground", "operator": null, "access": null, "surface": null }, "geometry": { "type": "Polygon", "coordinates": [ [ [ 23.011256, 40.413761 ], [ 23.011243, 40.41389 ], [ 23.011397, 40.413892 ], [ 23.011395, 40.413763 ], [ 23.011256, 40.413761 ] ] ] } },
{ "type": "Feature", "properties": { "playground_source": "polygon", "name": null, "leisure": "playground", "operator": null, "access": null, "surface": null }, "geometry": { "type": "Polygon", "coordinates": [ [ [ 22.962056, 40.564752 ], [ 22.961785, 40.564874 ], [ 22.961864, 40.564977 ], [ 22.961915, 40.564954 ], [ 22.961891, 40.564924 ], [ 22.962112, 40.564825 ], [ 22.962056, 40.564752 ] ] ] } },
{ "type": "Feature", "properties": { "playground_source": "polygon", "name": null, "leisure": "playground", "operator": null, "access": null, "surface": null }, "geometry": { "type": "Polygon", "coordinates": [ [ [ 22.963007, 40.568805 ], [ 22.963277, 40.568695 ], [ 22.963216, 40.568609 ], [ 22.962946, 40.568719 ], [ 22.963007, 40.568805 ] ] ] } },
{ "type": "Feature", "properties": { "playground_source": "polygon", "name": null, "leisure": "playground", "operator": null, "access": null, "surface": null }, "geometry": { "type": "Polygon", "coordinates": [ [ [ 22.962449, 40.573067 ], [ 22.96263, 40.572921 ], [ 22.962477, 40.572812 ], [ 22.962296, 40.572957 ], [ 22.962449, 40.573067 ] ] ] } },
{ "type": "Feature", "properties": { "playground_source": "polygon", "name": null, "leisure": "playground", "operator": null, "access": null, "surface": null }, "geometry": { "type": "Polygon", "coordinates": [ [ [ 22.966187, 40.573067 ], [ 22.96625, 40.573153 ], [ 22.9664, 40.573087 ], [ 22.966481, 40.572943 ], [ 22.966391, 40.572921 ], [ 22.966187, 40.573067 ] ] ] } },
{ "type": "Feature", "properties": { "playground_source": "polygon", "name": null, "leisure": "playground", "operator": null, "access": null, "surface": null }, "geometry": { "type": "Polygon", "coordinates": [ [ [ 22.962148, 40.575247 ], [ 22.962201, 40.57537 ], [ 22.962313, 40.575342 ], [ 22.962264, 40.575227 ], [ 22.96226, 40.575219 ], [ 22.962148, 40.575247 ] ] ] } },
{ "type": "Feature", "properties": { "playground_source": "polygon", "name": "Παιδική Χαρά Βρυούλων", "leisure": "playground", "operator": null, "access": "yes", "surface": null }, "geometry": { "type": "Polygon", "coordinates": [ [ [ 22.963485, 40.575912 ], [ 22.963289, 40.575479 ], [ 22.963023, 40.575523 ], [ 22.963085, 40.575717 ], [ 22.963176, 40.57599 ], [ 22.963485, 40.575912 ] ] ] } },
{ "type": "Feature", "properties": { "playground_source": "polygon", "name": null, "leisure": "playground", "operator": null, "access": null, "surface": null }, "geometry": { "type": "Polygon", "coordinates": [ [ [ 23.01017, 40.578645 ], [ 23.00999, 40.578662 ], [ 23.010025, 40.578881 ], [ 23.010205, 40.578864 ], [ 23.01017, 40.578645 ] ] ] } },
{ "type": "Feature", "properties": { "playground_source": "polygon", "name": null, "leisure": "playground", "operator": null, "access": "yes", "surface": null }, "geometry": { "type": "Polygon", "coordinates": [ [ [ 22.959286, 40.582227 ], [ 22.959358, 40.582238 ], [ 22.959511, 40.581891 ], [ 22.959244, 40.581815 ], [ 22.959084, 40.582174 ], [ 22.959286, 40.582227 ] ] ] } },
{ "type": "Feature", "properties": { "playground_source": "polygon", "name": null, "leisure": "playground", "operator": null, "access": "yes", "surface": "dirt/sand" }, "geometry": { "type": "Polygon", "coordinates": [ [ [ 22.96607, 40.585539 ], [ 22.966012, 40.585626 ], [ 22.966189, 40.585581 ], [ 22.966203, 40.585568 ], [ 22.96619, 40.585369 ], [ 22.96607, 40.585539 ] ] ] } },
{ "type": "Feature", "properties": { "playground_source": "polygon", "name": null, "leisure": "playground", "operator": null, "access": null, "surface": null }, "geometry": { "type": "Polygon", "coordinates": [ [ [ 22.95505, 40.572045 ], [ 22.955114, 40.571995 ], [ 22.954981, 40.571897 ], [ 22.954918, 40.571947 ], [ 22.95505, 40.572045 ] ] ] } },
{ "type": "Feature", "properties": { "playground_source": "polygon", "name": null, "leisure": "playground", "operator": null, "access": null, "surface": null }, "geometry": { "type": "Polygon", "coordinates": [ [ [ 22.957702, 40.572454 ], [ 22.957813, 40.572398 ], [ 22.957834, 40.572356 ], [ 22.957676, 40.572263 ], [ 22.957615, 40.572324 ], [ 22.957633, 40.572338 ], [ 22.957609, 40.572351 ], [ 22.957507, 40.572406 ], [ 22.95759, 40.572511 ], [ 22.957702, 40.572454 ] ] ] } },
{ "type": "Feature", "properties": { "playground_source": "polygon", "name": null, "leisure": "playground", "operator": null, "access": "yes", "surface": null }, "geometry": { "type": "Polygon", "coordinates": [ [ [ 22.952332, 40.572355 ], [ 22.952233, 40.572415 ], [ 22.952347, 40.572523 ], [ 22.952446, 40.572463 ], [ 22.952332, 40.572355 ] ] ] } },
{ "type": "Feature", "properties": { "playground_source": "polygon", "name": null, "leisure": "playground", "operator": null, "access": null, "surface": null }, "geometry": { "type": "Polygon", "coordinates": [ [ [ 22.950741, 40.573405 ], [ 22.950521, 40.573543 ], [ 22.950604, 40.57362 ], [ 22.950824, 40.573481 ], [ 22.950741, 40.573405 ] ] ] } },
{ "type": "Feature", "properties": { "playground_source": "polygon", "name": null, "leisure": "playground", "operator": null, "access": "yes", "surface": null }, "geometry": { "type": "Polygon", "coordinates": [ [ [ 22.95579, 40.580901 ], [ 22.955617, 40.581323 ], [ 22.955792, 40.581375 ], [ 22.955944, 40.580944 ], [ 22.95579, 40.580901 ] ] ] } },
{ "type": "Feature", "properties": { "playground_source": "polygon", "name": "Δήμος Καλαμαριάς παιδική χαρά πάρκο Πασσαλιδη", "leisure": "playground", "operator": "Δήμος Καλαμαριάς", "access": "yes", "surface": null }, "geometry": { "type": "Polygon", "coordinates": [ [ [ 22.956442, 40.583097 ], [ 22.956456, 40.583088 ], [ 22.956581, 40.582808 ], [ 22.95631, 40.582733 ], [ 22.955999, 40.582656 ], [ 22.955725, 40.582585 ], [ 22.955687, 40.582706 ], [ 22.956442, 40.583097 ] ] ] } },
{ "type": "Feature", "properties": { "playground_source": "polygon", "name": null, "leisure": "playground", "operator": null, "access": "yes", "surface": "sand" }, "geometry": { "type": "Polygon", "coordinates": [ [ [ 22.95631, 40.582918 ], [ 22.956325, 40.582932 ], [ 22.95634, 40.582939 ], [ 22.956363, 40.582943 ], [ 22.956387, 40.582941 ], [ 22.956407, 40.582933 ], [ 22.956423, 40.58292 ], [ 22.956432, 40.582904 ], [ 22.956433, 40.582886 ], [ 22.956428, 40.582873 ], [ 22.956415, 40.582858 ], [ 22.956387, 40.582845 ], [ 22.956364, 40.582843 ], [ 22.956342, 40.582847 ], [ 22.95633, 40.582852 ], [ 22.956314, 40.582864 ], [ 22.956304, 40.58288 ], [ 22.956302, 40.582902 ], [ 22.95631, 40.582918 ] ] ] } },
{ "type": "Feature", "properties": { "playground_source": "polygon", "name": null, "leisure": "playground", "operator": null, "access": "yes", "surface": null }, "geometry": { "type": "Polygon", "coordinates": [ [ [ 22.951936, 40.586222 ], [ 22.951948, 40.586194 ], [ 22.951972, 40.586142 ], [ 22.951715, 40.586076 ], [ 22.95168, 40.586155 ], [ 22.951936, 40.586222 ] ] ] } },
{ "type": "Feature", "properties": { "playground_source": "polygon", "name": null, "leisure": "playground", "operator": null, "access": null, "surface": null }, "geometry": { "type": "Polygon", "coordinates": [ [ [ 22.953871, 40.587583 ], [ 22.953987, 40.58762 ], [ 22.954017, 40.58762 ], [ 22.954084, 40.587508 ], [ 22.953967, 40.587439 ], [ 22.953871, 40.587583 ] ] ] } },
{ "type": "Feature", "properties": { "playground_source": "polygon", "name": null, "leisure": "playground", "operator": null, "access": null, "surface": null }, "geometry": { "type": "Polygon", "coordinates": [ [ [ 22.954774, 40.587897 ], [ 22.954835, 40.587859 ], [ 22.954729, 40.587762 ], [ 22.954697, 40.587782 ], [ 22.954668, 40.5878 ], [ 22.954774, 40.587897 ] ] ] } },
{ "type": "Feature", "properties": { "playground_source": "polygon", "name": null, "leisure": "playground", "operator": null, "access": "yes", "surface": null }, "geometry": { "type": "Polygon", "coordinates": [ [ [ 23.033418, 40.556114 ], [ 23.033437, 40.556112 ], [ 23.033453, 40.556105 ], [ 23.033466, 40.556095 ], [ 23.033473, 40.556082 ], [ 23.033474, 40.556068 ], [ 23.033469, 40.556054 ], [ 23.033459, 40.556043 ], [ 23.033444, 40.556035 ], [ 23.033426, 40.556031 ], [ 23.033408, 40.556031 ], [ 23.033392, 40.556036 ], [ 23.033378, 40.556045 ], [ 23.033369, 40.556056 ], [ 23.033364, 40.556069 ], [ 23.033366, 40.556083 ], [ 23.033373, 40.556095 ], [ 23.033385, 40.556105 ], [ 23.033401, 40.556112 ], [ 23.033418, 40.556114 ] ] ] } },
{ "type": "Feature", "properties": { "playground_source": "polygon", "name": null, "leisure": "playground", "operator": null, "access": "yes", "surface": null }, "geometry": { "type": "Polygon", "coordinates": [ [ [ 23.033445, 40.556231 ], [ 23.033463, 40.556229 ], [ 23.033479, 40.556223 ], [ 23.033492, 40.556212 ], [ 23.033499, 40.5562 ], [ 23.033501, 40.556185 ], [ 23.033496, 40.556172 ], [ 23.033485, 40.55616 ], [ 23.03347, 40.556152 ], [ 23.033452, 40.556148 ], [ 23.033434, 40.556149 ], [ 23.033418, 40.556154 ], [ 23.033404, 40.556162 ], [ 23.033395, 40.556174 ], [ 23.033391, 40.556187 ], [ 23.033392, 40.5562 ], [ 23.0334, 40.556212 ], [ 23.033412, 40.556222 ], [ 23.033427, 40.556229 ], [ 23.033445, 40.556231 ] ] ] } },
{ "type": "Feature", "properties": { "playground_source": "polygon", "name": null, "leisure": "playground", "operator": null, "access": "yes", "surface": null }, "geometry": { "type": "Polygon", "coordinates": [ [ [ 23.03349, 40.556405 ], [ 23.033506, 40.556405 ], [ 23.033521, 40.556401 ], [ 23.033534, 40.556393 ], [ 23.033542, 40.556383 ], [ 23.033546, 40.556371 ], [ 23.033544, 40.556359 ], [ 23.033538, 40.556348 ], [ 23.033527, 40.556339 ], [ 23.033513, 40.556333 ], [ 23.033497, 40.556331 ], [ 23.033481, 40.556333 ], [ 23.033467, 40.556339 ], [ 23.033456, 40.556348 ], [ 23.033449, 40.556359 ], [ 23.033448, 40.556372 ], [ 23.033452, 40.556384 ], [ 23.033461, 40.556394 ], [ 23.033474, 40.556402 ], [ 23.03349, 40.556405 ] ] ] } },
{ "type": "Feature", "properties": { "playground_source": "polygon", "name": null, "leisure": "playground", "operator": null, "access": null, "surface": null }, "geometry": { "type": "Polygon", "coordinates": [ [ [ 23.034286, 40.560512 ], [ 23.03431, 40.560496 ], [ 23.034322, 40.560472 ], [ 23.034325, 40.560448 ], [ 23.034318, 40.560425 ], [ 23.034301, 40.560404 ], [ 23.034277, 40.560389 ], [ 23.034247, 40.56038 ], [ 23.034215, 40.560379 ], [ 23.034185, 40.560386 ], [ 23.034159, 40.560401 ], [ 23.03414, 40.56042 ], [ 23.034131, 40.560443 ], [ 23.034132, 40.560468 ], [ 23.034143, 40.56049 ], [ 23.034164, 40.560509 ], [ 23.034192, 40.560522 ], [ 23.034224, 40.560527 ], [ 23.034257, 40.560524 ], [ 23.034286, 40.560512 ] ] ] } },
{ "type": "Feature", "properties": { "playground_source": "polygon", "name": null, "leisure": "playground", "operator": null, "access": null, "surface": null }, "geometry": { "type": "Polygon", "coordinates": [ [ [ 23.034482, 40.560512 ], [ 23.034444, 40.560491 ], [ 23.0344, 40.560481 ], [ 23.034353, 40.560483 ], [ 23.03431, 40.560496 ], [ 23.034275, 40.560518 ], [ 23.034251, 40.560548 ], [ 23.034242, 40.560583 ], [ 23.034247, 40.560617 ], [ 23.034267, 40.560649 ], [ 23.034299, 40.560674 ], [ 23.03434, 40.56069 ], [ 23.034386, 40.560695 ], [ 23.034432, 40.560688 ], [ 23.034472, 40.56067 ], [ 23.034503, 40.560643 ], [ 23.03452, 40.56061 ], [ 23.034522, 40.560575 ], [ 23.034509, 40.560541 ], [ 23.034482, 40.560512 ] ] ] } },
{ "type": "Feature", "properties": { "playground_source": "polygon", "name": null, "leisure": "playground", "operator": null, "access": null, "surface": null }, "geometry": { "type": "Polygon", "coordinates": [ [ [ 23.020259, 40.599605 ], [ 23.02012, 40.59946 ], [ 23.020007, 40.599512 ], [ 23.020015, 40.599636 ], [ 23.020088, 40.599707 ], [ 23.020149, 40.599738 ], [ 23.020275, 40.599747 ], [ 23.020259, 40.599605 ] ] ] } },
{ "type": "Feature", "properties": { "playground_source": "polygon", "name": null, "leisure": "playground", "operator": null, "access": null, "surface": null }, "geometry": { "type": "Polygon", "coordinates": [ [ [ 23.037327, 40.605114 ], [ 23.037342, 40.605048 ], [ 23.03731, 40.604974 ], [ 23.037279, 40.604925 ], [ 23.037227, 40.604857 ], [ 23.037179, 40.604827 ], [ 23.037077, 40.604844 ], [ 23.037048, 40.604889 ], [ 23.037095, 40.604946 ], [ 23.037079, 40.604996 ], [ 23.037039, 40.605065 ], [ 23.03708, 40.605107 ], [ 23.037133, 40.605138 ], [ 23.037166, 40.605179 ], [ 23.037229, 40.605164 ], [ 23.037327, 40.605114 ] ] ] } },
{ "type": "Feature", "properties": { "playground_source": "polygon", "name": null, "leisure": "playground", "operator": null, "access": "yes", "surface": null }, "geometry": { "type": "Polygon", "coordinates": [ [ [ 23.105594, 40.608371 ], [ 23.105476, 40.60826 ], [ 23.105258, 40.608385 ], [ 23.105376, 40.608445 ], [ 23.105594, 40.608371 ] ] ] } },
{ "type": "Feature", "properties": { "playground_source": "polygon", "name": "Παιδότοπος", "leisure": "playground", "operator": null, "access": null, "surface": null }, "geometry": { "type": "Polygon", "coordinates": [ [ [ 23.248546, 40.62659 ], [ 23.248562, 40.626489 ], [ 23.248126, 40.62645 ], [ 23.248119, 40.626498 ], [ 23.24818, 40.626504 ], [ 23.248172, 40.626557 ], [ 23.248546, 40.62659 ] ] ] } },
{ "type": "Feature", "properties": { "playground_source": "polygon", "name": null, "leisure": "playground", "operator": null, "access": null, "surface": null }, "geometry": { "type": "Polygon", "coordinates": [ [ [ 23.03958, 40.628889 ], [ 23.039636, 40.629183 ], [ 23.03982, 40.629153 ], [ 23.039746, 40.628858 ], [ 23.03958, 40.628889 ] ] ] } },
{ "type": "Feature", "properties": { "playground_source": "polygon", "name": null, "leisure": "playground", "operator": null, "access": null, "surface": null }, "geometry": { "type": "Polygon", "coordinates": [ [ [ 22.960935, 40.587052 ], [ 22.961161, 40.586905 ], [ 22.961029, 40.586778 ], [ 22.960778, 40.586998 ], [ 22.960935, 40.587052 ] ] ] } },
{ "type": "Feature", "properties": { "playground_source": "polygon", "name": null, "leisure": "playground", "operator": null, "access": null, "surface": null }, "geometry": { "type": "Polygon", "coordinates": [ [ [ 22.963159, 40.589949 ], [ 22.963258, 40.589786 ], [ 22.963095, 40.589721 ], [ 22.962969, 40.589889 ], [ 22.963159, 40.589949 ] ] ] } },
{ "type": "Feature", "properties": { "playground_source": "polygon", "name": null, "leisure": "playground", "operator": null, "access": null, "surface": null }, "geometry": { "type": "Polygon", "coordinates": [ [ [ 22.963591, 40.59 ], [ 22.963612, 40.58999 ], [ 22.963634, 40.589947 ], [ 22.963555, 40.589923 ], [ 22.963527, 40.589981 ], [ 22.963591, 40.59 ] ] ] } },
{ "type": "Feature", "properties": { "playground_source": "polygon", "name": null, "leisure": "playground", "operator": null, "access": "yes", "surface": null }, "geometry": { "type": "Polygon", "coordinates": [ [ [ 22.97922, 40.591735 ], [ 22.979344, 40.59157 ], [ 22.979366, 40.591544 ], [ 22.979151, 40.591465 ], [ 22.979125, 40.591495 ], [ 22.97899, 40.59165 ], [ 22.97922, 40.591735 ] ] ] } },
{ "type": "Feature", "properties": { "playground_source": "polygon", "name": null, "leisure": "playground", "operator": null, "access": null, "surface": null }, "geometry": { "type": "Polygon", "coordinates": [ [ [ 22.968795, 40.599213 ], [ 22.968851, 40.59909 ], [ 22.968679, 40.599044 ], [ 22.968622, 40.599167 ], [ 22.968795, 40.599213 ] ] ] } },
{ "type": "Feature", "properties": { "playground_source": "polygon", "name": null, "leisure": "playground", "operator": null, "access": null, "surface": null }, "geometry": { "type": "Polygon", "coordinates": [ [ [ 22.991288, 40.600615 ], [ 22.991404, 40.600591 ], [ 22.991344, 40.600423 ], [ 22.991301, 40.600424 ], [ 22.991243, 40.600607 ], [ 22.991288, 40.600615 ] ] ] } },
{ "type": "Feature", "properties": { "playground_source": "polygon", "name": null, "leisure": "playground", "operator": null, "access": "yes", "surface": null }, "geometry": { "type": "Polygon", "coordinates": [ [ [ 22.966277, 40.601794 ], [ 22.966386, 40.601838 ], [ 22.966503, 40.60167 ], [ 22.9664, 40.601629 ], [ 22.966327, 40.601599 ], [ 22.96621, 40.601768 ], [ 22.966277, 40.601794 ] ] ] } },
{ "type": "Feature", "properties": { "playground_source": "polygon", "name": null, "leisure": "playground", "operator": null, "access": null, "surface": null }, "geometry": { "type": "Polygon", "coordinates": [ [ [ 22.98903, 40.603806 ], [ 22.988987, 40.603628 ], [ 22.988867, 40.603612 ], [ 22.988849, 40.60372 ], [ 22.988822, 40.603737 ], [ 22.988938, 40.603856 ], [ 22.98903, 40.603806 ] ] ] } },
{ "type": "Feature", "properties": { "playground_source": "polygon", "name": null, "leisure": "playground", "operator": null, "access": "yes", "surface": null }, "geometry": { "type": "Polygon", "coordinates": [ [ [ 22.970359, 40.605157 ], [ 22.970575, 40.605065 ], [ 22.970505, 40.604968 ], [ 22.970448, 40.604888 ], [ 22.970249, 40.604961 ], [ 22.970359, 40.605157 ] ] ] } },
{ "type": "Feature", "properties": { "playground_source": "polygon", "name": null, "leisure": "playground", "operator": null, "access": "yes", "surface": null }, "geometry": { "type": "Polygon", "coordinates": [ [ [ 22.962727, 40.607809 ], [ 22.962638, 40.607704 ], [ 22.96236, 40.607839 ], [ 22.962449, 40.607945 ], [ 22.962727, 40.607809 ] ] ] } },
{ "type": "Feature", "properties": { "playground_source": "polygon", "name": "Πλατεία Τσάκωνα", "leisure": "playground", "operator": null, "access": "yes", "surface": "sand" }, "geometry": { "type": "Polygon", "coordinates": [ [ [ 22.984033, 40.609918 ], [ 22.984218, 40.609793 ], [ 22.984336, 40.609712 ], [ 22.984143, 40.60951 ], [ 22.983911, 40.609683 ], [ 22.98383, 40.609744 ], [ 22.984033, 40.609918 ] ] ] } },
{ "type": "Feature", "properties": { "playground_source": "polygon", "name": null, "leisure": "playground", "operator": null, "access": null, "surface": null }, "geometry": { "type": "Polygon", "coordinates": [ [ [ 22.975295, 40.61091 ], [ 22.97541, 40.6107 ], [ 22.974935, 40.610552 ], [ 22.974825, 40.61076 ], [ 22.975295, 40.61091 ] ] ] } },
{ "type": "Feature", "properties": { "playground_source": "polygon", "name": null, "leisure": "playground", "operator": null, "access": "yes", "surface": null }, "geometry": { "type": "Polygon", "coordinates": [ [ [ 22.982667, 40.611388 ], [ 22.98287, 40.611319 ], [ 22.983101, 40.61124 ], [ 22.982739, 40.610898 ], [ 22.98255, 40.610994 ], [ 22.982397, 40.611071 ], [ 22.982667, 40.611388 ] ] ] } },
{ "type": "Feature", "properties": { "playground_source": "polygon", "name": null, "leisure": "playground", "operator": null, "access": null, "surface": null }, "geometry": { "type": "Polygon", "coordinates": [ [ [ 22.988968, 40.612224 ], [ 22.988892, 40.612153 ], [ 22.98839, 40.612375 ], [ 22.988427, 40.612424 ], [ 22.988968, 40.612224 ] ] ] } },
{ "type": "Feature", "properties": { "playground_source": "polygon", "name": null, "leisure": "playground", "operator": null, "access": null, "surface": null }, "geometry": { "type": "Polygon", "coordinates": [ [ [ 22.985022, 40.613501 ], [ 22.985325, 40.613399 ], [ 22.984999, 40.613084 ], [ 22.984755, 40.613189 ], [ 22.985022, 40.613501 ] ] ] } },
{ "type": "Feature", "properties": { "playground_source": "polygon", "name": null, "leisure": "playground", "operator": null, "access": null, "surface": null }, "geometry": { "type": "Polygon", "coordinates": [ [ [ 22.978246, 40.613678 ], [ 22.978322, 40.613886 ], [ 22.978512, 40.613821 ], [ 22.978331, 40.613539 ], [ 22.978246, 40.613678 ] ] ] } },
{ "type": "Feature", "properties": { "playground_source": "polygon", "name": null, "leisure": "playground", "operator": null, "access": null, "surface": null }, "geometry": { "type": "Polygon", "coordinates": [ [ [ 22.989615, 40.615864 ], [ 22.989622, 40.615661 ], [ 22.989536, 40.615663 ], [ 22.989513, 40.615715 ], [ 22.989482, 40.615786 ], [ 22.989503, 40.615876 ], [ 22.9895, 40.615997 ], [ 22.98959, 40.616004 ], [ 22.989615, 40.615864 ] ] ] } },
{ "type": "Feature", "properties": { "playground_source": "polygon", "name": null, "leisure": "playground", "operator": null, "access": null, "surface": null }, "geometry": { "type": "Polygon", "coordinates": [ [ [ 22.969965, 40.62074 ], [ 22.96999, 40.620732 ], [ 22.970009, 40.620719 ], [ 22.970247, 40.620207 ], [ 22.970163, 40.620212 ], [ 22.969842, 40.620233 ], [ 22.969783, 40.620236 ], [ 22.969787, 40.620289 ], [ 22.969794, 40.620398 ], [ 22.969582, 40.620387 ], [ 22.969611, 40.620694 ], [ 22.969965, 40.62074 ] ] ] } },
{ "type": "Feature", "properties": { "playground_source": "polygon", "name": null, "leisure": "playground", "operator": null, "access": "yes", "surface": "tartan" }, "geometry": { "type": "Polygon", "coordinates": [ [ [ 22.96633, 40.630575 ], [ 22.966416, 40.630538 ], [ 22.966335, 40.630438 ], [ 22.966244, 40.630469 ], [ 22.96633, 40.630575 ] ] ] } },
{ "type": "Feature", "properties": { "playground_source": "polygon", "name": "Παιδική Χαρά 40 Εκκλησιών", "leisure": "playground", "operator": null, "access": "yes", "surface": null }, "geometry": { "type": "Polygon", "coordinates": [ [ [ 22.963337, 40.631753 ], [ 22.96343, 40.631748 ], [ 22.963413, 40.631551 ], [ 22.963239, 40.63156 ], [ 22.963257, 40.631757 ], [ 22.963337, 40.631753 ] ] ] } },
{ "type": "Feature", "properties": { "playground_source": "polygon", "name": "Παιδική χαρά Ευαγγελίστριας", "leisure": "playground", "operator": null, "access": "yes", "surface": null }, "geometry": { "type": "Polygon", "coordinates": [ [ [ 22.958682, 40.635769 ], [ 22.958745, 40.635868 ], [ 22.958778, 40.635907 ], [ 22.958832, 40.635969 ], [ 22.958902, 40.636018 ], [ 22.958957, 40.635995 ], [ 22.958869, 40.63581 ], [ 22.958831, 40.635782 ], [ 22.958813, 40.635769 ], [ 22.958682, 40.635769 ] ] ] } },
{ "type": "Feature", "properties": { "playground_source": "polygon", "name": null, "leisure": "playground", "operator": null, "access": "yes", "surface": null }, "geometry": { "type": "Polygon", "coordinates": [ [ [ 22.959081, 40.641658 ], [ 22.958857, 40.641658 ], [ 22.958857, 40.641693 ], [ 22.958847, 40.64174 ], [ 22.95894, 40.641741 ], [ 22.959064, 40.641755 ], [ 22.959081, 40.641658 ] ] ] } },
{ "type": "Feature", "properties": { "playground_source": "polygon", "name": null, "leisure": "playground", "operator": null, "access": null, "surface": null }, "geometry": { "type": "Polygon", "coordinates": [ [ [ 22.960227, 40.642054 ], [ 22.960469, 40.642234 ], [ 22.960523, 40.642077 ], [ 22.960185, 40.641847 ], [ 22.960086, 40.641949 ], [ 22.960227, 40.642054 ] ] ] } },
{ "type": "Feature", "properties": { "playground_source": "polygon", "name": null, "leisure": "playground", "operator": null, "access": null, "surface": null }, "geometry": { "type": "Polygon", "coordinates": [ [ [ 22.96496, 40.643326 ], [ 22.96498, 40.643279 ], [ 22.96466, 40.643203 ], [ 22.964641, 40.64325 ], [ 22.96496, 40.643326 ] ] ] } },
{ "type": "Feature", "properties": { "playground_source": "polygon", "name": null, "leisure": "playground", "operator": null, "access": null, "surface": null }, "geometry": { "type": "Polygon", "coordinates": [ [ [ 22.956592, 40.650809 ], [ 22.956553, 40.650737 ], [ 22.956396, 40.650763 ], [ 22.956416, 40.650839 ], [ 22.956592, 40.650809 ] ] ] } },
{ "type": "Feature", "properties": { "playground_source": "polygon", "name": "Παιδική Χαρά Αγίας Τριάδος", "leisure": "playground", "operator": null, "access": null, "surface": null }, "geometry": { "type": "Polygon", "coordinates": [ [ [ 22.999558, 40.65515 ], [ 22.999632, 40.655087 ], [ 22.999689, 40.655041 ], [ 22.99975, 40.655 ], [ 22.999837, 40.654943 ], [ 22.999863, 40.654878 ], [ 22.999867, 40.654855 ], [ 22.999866, 40.654834 ], [ 22.999491, 40.654621 ], [ 22.999438, 40.654623 ], [ 22.999265, 40.654723 ], [ 22.99909, 40.654832 ], [ 22.999331, 40.654995 ], [ 22.999558, 40.65515 ] ] ] } },
{ "type": "Feature", "properties": { "playground_source": "polygon", "name": null, "leisure": "playground", "operator": null, "access": null, "surface": null }, "geometry": { "type": "Polygon", "coordinates": [ [ [ 22.995044, 40.658057 ], [ 22.995251, 40.658106 ], [ 22.995342, 40.658122 ], [ 22.995512, 40.658142 ], [ 22.995535, 40.657989 ], [ 22.995297, 40.65794 ], [ 22.995124, 40.657897 ], [ 22.995013, 40.657858 ], [ 22.99491, 40.657982 ], [ 22.995044, 40.658057 ] ] ] } },
{ "type": "Feature", "properties": { "playground_source": "polygon", "name": null, "leisure": "playground", "operator": null, "access": null, "surface": null }, "geometry": { "type": "Polygon", "coordinates": [ [ [ 22.95575, 40.64912 ], [ 22.955961, 40.649157 ], [ 22.955982, 40.649155 ], [ 22.956001, 40.649134 ], [ 22.955953, 40.649102 ], [ 22.9559, 40.6491 ], [ 22.95578, 40.649067 ], [ 22.955734, 40.649086 ], [ 22.955728, 40.649105 ], [ 22.955744, 40.649115 ], [ 22.95575, 40.64912 ] ] ] } },
{ "type": "Feature", "properties": { "playground_source": "polygon", "name": null, "leisure": "playground", "operator": null, "access": null, "surface": null }, "geometry": { "type": "Polygon", "coordinates": [ [ [ 22.949295, 40.655328 ], [ 22.949212, 40.655364 ], [ 22.94924, 40.655481 ], [ 22.949269, 40.655495 ], [ 22.949307, 40.655503 ], [ 22.949335, 40.655508 ], [ 22.949373, 40.655508 ], [ 22.949395, 40.655501 ], [ 22.94943, 40.655477 ], [ 22.949295, 40.655328 ] ] ] } },
{ "type": "Feature", "properties": { "playground_source": "polygon", "name": null, "leisure": "playground", "operator": null, "access": null, "surface": null }, "geometry": { "type": "Polygon", "coordinates": [ [ [ 22.951196, 40.661904 ], [ 22.951153, 40.661902 ], [ 22.95111, 40.661965 ], [ 22.951386, 40.6621 ], [ 22.951414, 40.662092 ], [ 22.951412, 40.661917 ], [ 22.951196, 40.661904 ] ] ] } },
{ "type": "Feature", "properties": { "playground_source": "polygon", "name": null, "leisure": "playground", "operator": null, "access": null, "surface": null }, "geometry": { "type": "Polygon", "coordinates": [ [ [ 22.951176, 40.666607 ], [ 22.951257, 40.66684 ], [ 22.951487, 40.666794 ], [ 22.951403, 40.666534 ], [ 22.951198, 40.666575 ], [ 22.951176, 40.666607 ] ] ] } },
{ "type": "Feature", "properties": { "playground_source": "polygon", "name": null, "leisure": "playground", "operator": null, "access": null, "surface": null }, "geometry": { "type": "Polygon", "coordinates": [ [ [ 22.950735, 40.668399 ], [ 22.950806, 40.668594 ], [ 22.951145, 40.668523 ], [ 22.951074, 40.668328 ], [ 22.950735, 40.668399 ] ] ] } },
{ "type": "Feature", "properties": { "playground_source": "polygon", "name": null, "leisure": "playground", "operator": null, "access": null, "surface": null }, "geometry": { "type": "Polygon", "coordinates": [ [ [ 22.950586, 40.681092 ], [ 22.950562, 40.680991 ], [ 22.95023, 40.681036 ], [ 22.950254, 40.681137 ], [ 22.950586, 40.681092 ] ] ] } },
{ "type": "Feature", "properties": { "playground_source": "polygon", "name": null, "leisure": "playground", "operator": null, "access": null, "surface": null }, "geometry": { "type": "Polygon", "coordinates": [ [ [ 22.954677, 40.681625 ], [ 22.954672, 40.681499 ], [ 22.954493, 40.681381 ], [ 22.954264, 40.681384 ], [ 22.954272, 40.681628 ], [ 22.954677, 40.681625 ] ] ] } },
{ "type": "Feature", "properties": { "playground_source": "polygon", "name": null, "leisure": "playground", "operator": null, "access": null, "surface": null }, "geometry": { "type": "Polygon", "coordinates": [ [ [ 23.247158, 40.63724 ], [ 23.246855, 40.637148 ], [ 23.246719, 40.637286 ], [ 23.246952, 40.637496 ], [ 23.247158, 40.63724 ] ] ] } },
{ "type": "Feature", "properties": { "playground_source": "polygon", "name": null, "leisure": "playground", "operator": null, "access": null, "surface": null }, "geometry": { "type": "Polygon", "coordinates": [ [ [ 23.694769, 40.688474 ], [ 23.694688, 40.68812 ], [ 23.693905, 40.688219 ], [ 23.694011, 40.688614 ], [ 23.694769, 40.688474 ] ] ] } },
{ "type": "Feature", "properties": { "playground_source": "polygon", "name": null, "leisure": "playground", "operator": null, "access": null, "surface": null }, "geometry": { "type": "Polygon", "coordinates": [ [ [ 23.21422, 40.694388 ], [ 23.214442, 40.694555 ], [ 23.214535, 40.694514 ], [ 23.214299, 40.694328 ], [ 23.21422, 40.694388 ] ] ] } },
{ "type": "Feature", "properties": { "playground_source": "polygon", "name": null, "leisure": "playground", "operator": null, "access": null, "surface": null }, "geometry": { "type": "Polygon", "coordinates": [ [ [ 23.701435, 40.704735 ], [ 23.701327, 40.704577 ], [ 23.701268, 40.70453 ], [ 23.701186, 40.704507 ], [ 23.701167, 40.704576 ], [ 23.701181, 40.70463 ], [ 23.701284, 40.704795 ], [ 23.701435, 40.704735 ] ] ] } },
{ "type": "Feature", "properties": { "playground_source": "polygon", "name": null, "leisure": "playground", "operator": null, "access": null, "surface": null }, "geometry": { "type": "Polygon", "coordinates": [ [ [ 23.699109, 40.706287 ], [ 23.699343, 40.706198 ], [ 23.699187, 40.705962 ], [ 23.698953, 40.706051 ], [ 23.699109, 40.706287 ] ] ] } },
{ "type": "Feature", "properties": { "playground_source": "polygon", "name": null, "leisure": "playground", "operator": null, "access": null, "surface": null }, "geometry": { "type": "Polygon", "coordinates": [ [ [ 23.705777, 40.71468 ], [ 23.705754, 40.714642 ], [ 23.705689, 40.714664 ], [ 23.705712, 40.714702 ], [ 23.705777, 40.71468 ] ] ] } },
{ "type": "Feature", "properties": { "playground_source": "polygon", "name": null, "leisure": "playground", "operator": null, "access": "yes", "surface": null }, "geometry": { "type": "Polygon", "coordinates": [ [ [ 23.060068, 40.747279 ], [ 23.060083, 40.746904 ], [ 23.05978, 40.746897 ], [ 23.059765, 40.747273 ], [ 23.060068, 40.747279 ] ] ] } },
{ "type": "Feature", "properties": { "playground_source": "polygon", "name": null, "leisure": "playground", "operator": null, "access": null, "surface": null }, "geometry": { "type": "Polygon", "coordinates": [ [ [ 23.222565, 40.773976 ], [ 23.222511, 40.773869 ], [ 23.222259, 40.773822 ], [ 23.222289, 40.773922 ], [ 23.222369, 40.774015 ], [ 23.222565, 40.773976 ] ] ] } },
{ "type": "Feature", "properties": { "playground_source": "polygon", "name": null, "leisure": "playground", "operator": null, "access": null, "surface": null }, "geometry": { "type": "Polygon", "coordinates": [ [ [ 23.278827, 40.812905 ], [ 23.279083, 40.81274 ], [ 23.279051, 40.812487 ], [ 23.278657, 40.812747 ], [ 23.278827, 40.812905 ] ] ] } },
{ "type": "Feature", "properties": { "playground_source": "polygon", "name": null, "leisure": "playground", "operator": null, "access": null, "surface": null }, "geometry": { "type": "Polygon", "coordinates": [ [ [ 23.353697, 40.816872 ], [ 23.353619, 40.81682 ], [ 23.353541, 40.81676 ], [ 23.353463, 40.816828 ], [ 23.353495, 40.81689 ], [ 23.353538, 40.816933 ], [ 23.353597, 40.816971 ], [ 23.353697, 40.816872 ] ] ] } },
{ "type": "Feature", "properties": { "playground_source": "polygon", "name": null, "leisure": "playground", "operator": null, "access": null, "surface": null }, "geometry": { "type": "Polygon", "coordinates": [ [ [ 23.03148, 40.820566 ], [ 23.031292, 40.820507 ], [ 23.031229, 40.820624 ], [ 23.031417, 40.820682 ], [ 23.03148, 40.820566 ] ] ] } },
{ "type": "Feature", "properties": { "playground_source": "polygon", "name": null, "leisure": "playground", "operator": null, "access": null, "surface": null }, "geometry": { "type": "Polygon", "coordinates": [ [ [ 23.025064, 40.822835 ], [ 23.024875, 40.822845 ], [ 23.024659, 40.822828 ], [ 23.024637, 40.822973 ], [ 23.025031, 40.823017 ], [ 23.025064, 40.822835 ] ] ] } },
{ "type": "Feature", "properties": { "playground_source": "polygon", "name": null, "leisure": "playground", "operator": null, "access": null, "surface": null }, "geometry": { "type": "Polygon", "coordinates": [ [ [ 23.026235, 40.825024 ], [ 23.026018, 40.825037 ], [ 23.02595, 40.825041 ], [ 23.025957, 40.825109 ], [ 23.025975, 40.825268 ], [ 23.026257, 40.825244 ], [ 23.026235, 40.825024 ] ] ] } },
{ "type": "Feature", "properties": { "playground_source": "polygon", "name": null, "leisure": "playground", "operator": null, "access": null, "surface": null }, "geometry": { "type": "Polygon", "coordinates": [ [ [ 23.225277, 40.883945 ], [ 23.225522, 40.883848 ], [ 23.225408, 40.883699 ], [ 23.225277, 40.883945 ] ] ] } },
{ "type": "Feature", "properties": { "playground_source": "polygon", "name": null, "leisure": "playground", "operator": null, "access": null, "surface": null }, "geometry": { "type": "Polygon", "coordinates": [ [ [ 23.206431, 40.966046 ], [ 23.206849, 40.965993 ], [ 23.206778, 40.965767 ], [ 23.206341, 40.965882 ], [ 23.206431, 40.966046 ] ] ] } }
]
}
