{
"type": "FeatureCollection",
"name": "taxi_spots",
"crs": { "type": "name", "properties": { "name": "urn:ogc:def:crs:OGC:1.3:CRS84" } },
"xy_coordinate_resolution": 1e-06,
"features": [
{ "type": "Feature", "properties": { "full_id": "n9246199382", "osm_id": "9246199382", "osm_type": "node", "amenity": "taxi", "source_layer": "taxi_spots_2", "addr_house": null, "addr_city": null, "addr_postc": null, "check_date": null, "shop": null, "int_name": null, "layer": null, "name": null, "addr_stree": null, "capacity": null }, "geometry": { "type": "Point", "coordinates": [ 22.988299, 40.497789 ] } },
{ "type": "Feature", "properties": { "full_id": "n493574150", "osm_id": "493574150", "osm_type": "node", "amenity": "taxi", "source_layer": "taxi_spots_2", "addr_house": null, "addr_city": null, "addr_postc": null, "check_date": null, "shop": null, "int_name": null, "layer": "1", "name": "Πιάτσα Αεροδρόμιου", "addr_stree": null, "capacity": null }, "geometry": { "type": "Point", "coordinates": [ 22.976675, 40.523934 ] } },
{ "type": "Feature", "properties": { "full_id": "n3738900172", "osm_id": "3738900172", "osm_type": "node", "amenity": "taxi", "source_layer": "taxi_spots_2", "addr_house": null, "addr_city": null, "addr_postc": null, "check_date": null, "shop": null, "int_name": null, "layer": null, "name": null, "addr_stree": null, "capacity": "20" }, "geometry": { "type": "Point", "coordinates": [ 22.985452, 40.548158 ] } },
{ "type": "Feature", "properties": { "full_id": "n12672930993", "osm_id": "12672930993", "osm_type": "node", "amenity": "taxi", "source_layer": "taxi_spots_2", "addr_house": null, "addr_city": null, "addr_postc": null, "check_date": null, "shop": null, "int_name": null, "layer": null, "name": null, "addr_stree": null, "capacity": null }, "geometry": { "type": "Point", "coordinates": [ 22.983307, 40.575031 ] } },
{ "type": "Feature", "properties": { "full_id": "w910851742", "osm_id": "910851742", "osm_type": "way", "amenity": "taxi", "source_layer": "taxi_spots_1", "addr_house": null, "addr_city": null, "addr_postc": null, "check_date": null, "shop": null, "int_name": null, "layer": null, "name": null, "addr_stree": null, "capacity": null }, "geometry": { "type": "Point", "coordinates": [ 23.021407, 40.584607 ] } },
{ "type": "Feature", "properties": { "full_id": "n2311101785", "osm_id": "2311101785", "osm_type": "node", "amenity": "taxi", "source_layer": "taxi_spots_2", "addr_house": null, "addr_city": null, "addr_postc": null, "check_date": null, "shop": null, "int_name": null, "layer": null, "name": null, "addr_stree": null, "capacity": null }, "geometry": { "type": "Point", "coordinates": [ 23.021428, 40.584614 ] } },
{ "type": "Feature", "properties": { "full_id": "n7579860666", "osm_id": "7579860666", "osm_type": "node", "amenity": "taxi", "source_layer": "taxi_spots_2", "addr_house": null, "addr_city": "Πανόραμα", "addr_postc": "552 36", "check_date": null, "shop": null, "int_name": null, "layer": null, "name": "Πιάτσα ταξί Πανοράματος", "addr_stree": "Αναλήψεως", "capacity": null }, "geometry": { "type": "Point", "coordinates": [ 23.033604, 40.5913 ] } },
{ "type": "Feature", "properties": { "full_id": "n4301397892", "osm_id": "4301397892", "osm_type": "node", "amenity": "taxi", "source_layer": "taxi_spots_2", "addr_house": null, "addr_city": null, "addr_postc": null, "check_date": null, "shop": null, "int_name": null, "layer": null, "name": null, "addr_stree": null, "capacity": "10" }, "geometry": { "type": "Point", "coordinates": [ 23.032152, 40.59198 ] } },
{ "type": "Feature", "properties": { "full_id": "n2311109441", "osm_id": "2311109441", "osm_type": "node", "amenity": "taxi", "source_layer": "taxi_spots_2", "addr_house": null, "addr_city": null, "addr_postc": "55535", "check_date": null, "shop": null, "int_name": null, "layer": null, "name": null, "addr_stree": "Προφήτη Ηλία", "capacity": null }, "geometry": { "type": "Point", "coordinates": [ 22.986653, 40.600775 ] } },
{ "type": "Feature", "properties": { "full_id": "n493555851", "osm_id": "493555851", "osm_type": "node", "amenity": "taxi", "source_layer": "taxi_spots_2", "addr_house": null, "addr_city": null, "addr_postc": null, "check_date": null, "shop": null, "int_name": null, "layer": null, "name": "Πιάτσα Ταξί Χαριλάου", "addr_stree": "Αλεξάνδρου Παπαναστασίου", "capacity": null }, "geometry": { "type": "Point", "coordinates": [ 22.969327, 40.602815 ] } },
{ "type": "Feature", "properties": { "full_id": "n1683996910", "osm_id": "1683996910", "osm_type": "node", "amenity": "taxi", "source_layer": "taxi_spots_2", "addr_house": null, "addr_city": null, "addr_postc": null, "check_date": null, "shop": null, "int_name": null, "layer": null, "name": "TAXI Περαια", "addr_stree": null, "capacity": null }, "geometry": { "type": "Point", "coordinates": [ 22.926757, 40.506549 ] } },
{ "type": "Feature", "properties": { "full_id": "n12311594642", "osm_id": "12311594642", "osm_type": "node", "amenity": "taxi", "source_layer": "taxi_spots_2", "addr_house": null, "addr_city": null, "addr_postc": null, "check_date": null, "shop": null, "int_name": null, "layer": null, "name": null, "addr_stree": null, "capacity": null }, "geometry": { "type": "Point", "coordinates": [ 22.941915, 40.633435 ] } },
{ "type": "Feature", "properties": { "full_id": "n6163966105", "osm_id": "6163966105", "osm_type": "node", "amenity": "taxi", "source_layer": "taxi_spots_2", "addr_house": "13", "addr_city": "Θεσσαλονίκη", "addr_postc": "54624", "check_date": null, "shop": null, "int_name": null, "layer": null, "name": null, "addr_stree": "Μητροπόλεως", "capacity": "10" }, "geometry": { "type": "Point", "coordinates": [ 22.938778, 40.634296 ] } },
{ "type": "Feature", "properties": { "full_id": "n7123644641", "osm_id": "7123644641", "osm_type": "node", "amenity": "taxi", "source_layer": "taxi_spots_2", "addr_house": null, "addr_city": null, "addr_postc": null, "check_date": "2025-08-31", "shop": null, "int_name": null, "layer": null, "name": null, "addr_stree": null, "capacity": null }, "geometry": { "type": "Point", "coordinates": [ 22.944073, 40.636072 ] } },
{ "type": "Feature", "properties": { "full_id": "n1239367675", "osm_id": "1239367675", "osm_type": "node", "amenity": "taxi", "source_layer": "taxi_spots_2", "addr_house": null, "addr_city": null, "addr_postc": null, "check_date": null, "shop": "kiosk", "int_name": null, "layer": null, "name": null, "addr_stree": null, "capacity": "15" }, "geometry": { "type": "Point", "coordinates": [ 22.929081, 40.644094 ] } },
{ "type": "Feature", "properties": { "full_id": "n2259958319", "osm_id": "2259958319", "osm_type": "node", "amenity": "taxi", "source_layer": "taxi_spots_2", "addr_house": null, "addr_city": null, "addr_postc": null, "check_date": null, "shop": null, "int_name": null, "layer": null, "name": "Radiotaxi MERCEDES CLUB", "addr_stree": null, "capacity": null }, "geometry": { "type": "Point", "coordinates": [ 22.920675, 40.647476 ] } },
{ "type": "Feature", "properties": { "full_id": "n1928707460", "osm_id": "1928707460", "osm_type": "node", "amenity": "taxi", "source_layer": "taxi_spots_2", "addr_house": null, "addr_city": null, "addr_postc": null, "check_date": "2024-02-02", "shop": null, "int_name": null, "layer": null, "name": null, "addr_stree": null, "capacity": null }, "geometry": { "type": "Point", "coordinates": [ 22.922814, 40.65341 ] } },
{ "type": "Feature", "properties": { "full_id": "n447874797", "osm_id": "447874797", "osm_type": "node", "amenity": "taxi", "source_layer": "taxi_spots_2", "addr_house": null, "addr_city": null, "addr_postc": null, "check_date": null, "shop": null, "int_name": null, "layer": null, "name": null, "addr_stree": null, "capacity": null }, "geometry": { "type": "Point", "coordinates": [ 22.902095, 40.653707 ] } },
{ "type": "Feature", "properties": { "full_id": "n5796784632", "osm_id": "5796784632", "osm_type": "node", "amenity": "taxi", "source_layer": "taxi_spots_2", "addr_house": null, "addr_city": null, "addr_postc": null, "check_date": null, "shop": null, "int_name": null, "layer": null, "name": "Σταυρούπολη", "addr_stree": null, "capacity": null }, "geometry": { "type": "Point", "coordinates": [ 22.936109, 40.664133 ] } },
{ "type": "Feature", "properties": { "full_id": "n12631253137", "osm_id": "12631253137", "osm_type": "node", "amenity": "taxi", "source_layer": "taxi_spots_2", "addr_house": null, "addr_city": "Εύοσμος, Θεσσαλονίκη", "addr_postc": null, "check_date": null, "shop": null, "int_name": null, "layer": null, "name": null, "addr_stree": null, "capacity": null }, "geometry": { "type": "Point", "coordinates": [ 22.91205, 40.667255 ] } },
{ "type": "Feature", "properties": { "full_id": "n3738893721", "osm_id": "3738893721", "osm_type": "node", "amenity": "taxi", "source_layer": "taxi_spots_2", "addr_house": null, "addr_city": null, "addr_postc": null, "check_date": null, "shop": null, "int_name": null, "layer": null, "name": null, "addr_stree": null, "capacity": null }, "geometry": { "type": "Point", "coordinates": [ 22.954315, 40.571199 ] } },
{ "type": "Feature", "properties": { "full_id": "n2046446943", "osm_id": "2046446943", "osm_type": "node", "amenity": "taxi", "source_layer": "taxi_spots_2", "addr_house": null, "addr_city": null, "addr_postc": null, "check_date": null, "shop": null, "int_name": null, "layer": null, "name": null, "addr_stree": null, "capacity": null }, "geometry": { "type": "Point", "coordinates": [ 22.948572, 40.582518 ] } },
{ "type": "Feature", "properties": { "full_id": "n2311110123", "osm_id": "2311110123", "osm_type": "node", "amenity": "taxi", "source_layer": "taxi_spots_2", "addr_house": null, "addr_city": null, "addr_postc": null, "check_date": null, "shop": null, "int_name": null, "layer": null, "name": null, "addr_stree": null, "capacity": null }, "geometry": { "type": "Point", "coordinates": [ 22.955686, 40.596852 ] } },
{ "type": "Feature", "properties": { "full_id": "n2311109633", "osm_id": "2311109633", "osm_type": "node", "amenity": "taxi", "source_layer": "taxi_spots_2", "addr_house": null, "addr_city": null, "addr_postc": null, "check_date": null, "shop": null, "int_name": null, "layer": null, "name": null, "addr_stree": null, "capacity": null }, "geometry": { "type": "Point", "coordinates": [ 22.955569, 40.598159 ] } },
{ "type": "Feature", "properties": { "full_id": "n3738897833", "osm_id": "3738897833", "osm_type": "node", "amenity": "taxi", "source_layer": "taxi_spots_2", "addr_house": null, "addr_city": null, "addr_postc": null, "check_date": "2025-11-01", "shop": null, "int_name": null, "layer": null, "name": null, "addr_stree": null, "capacity": null }, "geometry": { "type": "Point", "coordinates": [ 22.959466, 40.600747 ] } },
{ "type": "Feature", "properties": { "full_id": "n3067323638", "osm_id": "3067323638", "osm_type": "node", "amenity": "taxi", "source_layer": "taxi_spots_2", "addr_house": null, "addr_city": null, "addr_postc": null, "check_date": null, "shop": null, "int_name": null, "layer": null, "name": null, "addr_stree": null, "capacity": null }, "geometry": { "type": "Point", "coordinates": [ 22.961195, 40.612461 ] } },
{ "type": "Feature", "properties": { "full_id": "n854004195", "osm_id": "854004195", "osm_type": "node", "amenity": "taxi", "source_layer": "taxi_spots_2", "addr_house": null, "addr_city": null, "addr_postc": null, "check_date": null, "shop": null, "int_name": null, "layer": null, "name": null, "addr_stree": null, "capacity": "5" }, "geometry": { "type": "Point", "coordinates": [ 22.954068, 40.621252 ] } },
{ "type": "Feature", "properties": { "full_id": "n5337045779", "osm_id": "5337045779", "osm_type": "node", "amenity": "taxi", "source_layer": "taxi_spots_2", "addr_house": null, "addr_city": null, "addr_postc": null, "check_date": null, "shop": null, "int_name": null, "layer": null, "name": "TAXI Stand", "addr_stree": null, "capacity": null }, "geometry": { "type": "Point", "coordinates": [ 22.948249, 40.62762 ] } },
{ "type": "Feature", "properties": { "full_id": "n3738896837", "osm_id": "3738896837", "osm_type": "node", "amenity": "taxi", "source_layer": "taxi_spots_2", "addr_house": null, "addr_city": null, "addr_postc": null, "check_date": null, "shop": null, "int_name": null, "layer": null, "name": "TAXI Stand", "addr_stree": null, "capacity": null }, "geometry": { "type": "Point", "coordinates": [ 22.944661, 40.630908 ] } },
{ "type": "Feature", "properties": { "full_id": "n493560814", "osm_id": "493560814", "osm_type": "node", "amenity": "taxi", "source_layer": "taxi_spots_2", "addr_house": null, "addr_city": null, "addr_postc": null, "check_date": null, "shop": null, "int_name": null, "layer": null, "name": null, "addr_stree": null, "capacity": null }, "geometry": { "type": "Point", "coordinates": [ 22.951596, 40.631932 ] } },
{ "type": "Feature", "properties": { "full_id": "n434537800", "osm_id": "434537800", "osm_type": "node", "amenity": "taxi", "source_layer": "taxi_spots_2", "addr_house": null, "addr_city": null, "addr_postc": null, "check_date": null, "shop": null, "int_name": null, "layer": null, "name": null, "addr_stree": null, "capacity": "3" }, "geometry": { "type": "Point", "coordinates": [ 22.951837, 40.631975 ] } },
{ "type": "Feature", "properties": { "full_id": "w149549795", "osm_id": "149549795", "osm_type": "way", "amenity": "taxi", "source_layer": "taxi_spots_1", "addr_house": null, "addr_city": null, "addr_postc": null, "check_date": null, "shop": null, "int_name": null, "layer": null, "name": null, "addr_stree": null, "capacity": null }, "geometry": { "type": "Point", "coordinates": [ 22.944078, 40.635776 ] } },
{ "type": "Feature", "properties": { "full_id": "w149549796", "osm_id": "149549796", "osm_type": "way", "amenity": "taxi", "source_layer": "taxi_spots_1", "addr_house": null, "addr_city": null, "addr_postc": null, "check_date": null, "shop": null, "int_name": null, "layer": null, "name": null, "addr_stree": null, "capacity": null }, "geometry": { "type": "Point", "coordinates": [ 22.94442, 40.635852 ] } },
{ "type": "Feature", "properties": { "full_id": "n3738897609", "osm_id": "3738897609", "osm_type": "node", "amenity": "taxi", "source_layer": "taxi_spots_2", "addr_house": null, "addr_city": null, "addr_postc": null, "check_date": "2025-10-21", "shop": null, "int_name": null, "layer": null, "name": null, "addr_stree": null, "capacity": null }, "geometry": { "type": "Point", "coordinates": [ 22.948078, 40.638149 ] } },
{ "type": "Feature", "properties": { "full_id": "n1704887733", "osm_id": "1704887733", "osm_type": "node", "amenity": "taxi", "source_layer": "taxi_spots_2", "addr_house": null, "addr_city": null, "addr_postc": null, "check_date": null, "shop": null, "int_name": null, "layer": null, "name": null, "addr_stree": null, "capacity": null }, "geometry": { "type": "Point", "coordinates": [ 22.944303, 40.640202 ] } },
{ "type": "Feature", "properties": { "full_id": "n11970567351", "osm_id": "11970567351", "osm_type": "node", "amenity": "taxi", "source_layer": "taxi_spots_2", "addr_house": null, "addr_city": null, "addr_postc": null, "check_date": null, "shop": null, "int_name": null, "layer": null, "name": null, "addr_stree": null, "capacity": null }, "geometry": { "type": "Point", "coordinates": [ 22.946505, 40.661352 ] } },
{ "type": "Feature", "properties": { "full_id": "n980126191", "osm_id": "980126191", "osm_type": "node", "amenity": "taxi", "source_layer": "taxi_spots_2", "addr_house": null, "addr_city": null, "addr_postc": null, "check_date": null, "shop": null, "int_name": "Klimatariá", "layer": null, "name": "Κληματαριά", "addr_stree": null, "capacity": null }, "geometry": { "type": "Point", "coordinates": [ 22.976451, 40.607952 ] } },
{ "type": "Feature", "properties": { "full_id": "n4723305980", "osm_id": "4723305980", "osm_type": "node", "amenity": "taxi", "source_layer": "taxi_spots_2", "addr_house": null, "addr_city": null, "addr_postc": null, "check_date": null, "shop": null, "int_name": null, "layer": null, "name": null, "addr_stree": null, "capacity": null }, "geometry": { "type": "Point", "coordinates": [ 22.985457, 40.611719 ] } },
{ "type": "Feature", "properties": { "full_id": "n445003302", "osm_id": "445003302", "osm_type": "node", "amenity": "taxi", "source_layer": "taxi_spots_2", "addr_house": null, "addr_city": null, "addr_postc": null, "check_date": null, "shop": null, "int_name": null, "layer": null, "name": null, "addr_stree": null, "capacity": null }, "geometry": { "type": "Point", "coordinates": [ 23.246659, 40.635802 ] } },
{ "type": "Feature", "properties": { "full_id": "n2282234992", "osm_id": "2282234992", "osm_type": "node", "amenity": "taxi", "source_layer": "taxi_spots_2", "addr_house": null, "addr_city": null, "addr_postc": null, "check_date": "2025-09-05", "shop": null, "int_name": null, "layer": null, "name": null, "addr_stree": null, "capacity": null }, "geometry": { "type": "Point", "coordinates": [ 22.987503, 40.656992 ] } },
{ "type": "Feature", "properties": { "full_id": "n3197259885", "osm_id": "3197259885", "osm_type": "node", "amenity": "taxi", "source_layer": "taxi_spots_2", "addr_house": null, "addr_city": null, "addr_postc": null, "check_date": "2025-08-30", "shop": null, "int_name": null, "layer": null, "name": null, "addr_stree": null, "capacity": null }, "geometry": { "type": "Point", "coordinates": [ 23.706392, 40.720032 ] } },
{ "type": "Feature", "properties": { "full_id": "n932474079", "osm_id": "932474079", "osm_type": "node", "amenity": "taxi", "source_layer": "taxi_spots_2", "addr_house": null, "addr_city": null, "addr_postc": null, "check_date": null, "shop": null, "int_name": null, "layer": null, "name": null, "addr_stree": null, "capacity": null }, "geometry": { "type": "Point", "coordinates": [ 23.066457, 40.749711 ] } },
{ "type": "Feature", "properties": { "full_id": "n1758232472", "osm_id": "1758232472", "osm_type": "node", "amenity": "taxi", "source_layer": "taxi_spots_2", "addr_house": null, "addr_city": null, "addr_postc": null, "check_date": null, "shop": null, "int_name": null, "layer": null, "name": null, "addr_stree": null, "capacity": null }, "geometry": { "type": "Point", "coordinates": [ 22.807516, 40.670204 ] } },
{ "type": "Feature", "properties": { "full_id": "n10271882821", "osm_id": "10271882821", "osm_type": "node", "amenity": "taxi", "source_layer": "taxi_spots_2", "addr_house": null, "addr_city": null, "addr_postc": null, "check_date": null, "shop": null, "int_name": null, "layer": null, "name": null, "addr_stree": null, "capacity": null }, "geometry": { "type": "Point", "coordinates": [ 22.928795, 40.673337 ] } },
{ "type": "Feature", "properties": { "full_id": "n3167245657", "osm_id": "3167245657", "osm_type": "node", "amenity": "taxi", "source_layer": "taxi_spots_2", "addr_house": null, "addr_city": null, "addr_postc": null, "check_date": null, "shop": null, "int_name": null, "layer": null, "name": null, "addr_stree": null, "capacity": null }, "geometry": { "type": "Point", "coordinates": [ 22.934066, 40.68317 ] } },
{ "type": "Feature", "properties": { "full_id": "n1930763483", "osm_id": "1930763483", "osm_type": "node", "amenity": "taxi", "source_layer": "taxi_spots_2", "addr_house": null, "addr_city": null, "addr_postc": null, "check_date": null, "shop": null, "int_name": null, "layer": null, "name": null, "addr_stree": null, "capacity": null }, "geometry": { "type": "Point", "coordinates": [ 22.858221, 40.685065 ] } },
{ "type": "Feature", "properties": { "full_id": "n683583791", "osm_id": "683583791", "osm_type": "node", "amenity": "taxi", "source_layer": "taxi_spots_2", "addr_house": null, "addr_city": null, "addr_postc": null, "check_date": null, "shop": null, "int_name": null, "layer": null, "name": null, "addr_stree": null, "capacity": null }, "geometry": { "type": "Point", "coordinates": [ 22.928648, 40.712288 ] } },
{ "type": "Feature", "properties": { "full_id": "n3654799766", "osm_id": "3654799766", "osm_type": "node", "amenity": "taxi", "source_layer": "taxi_spots_2", "addr_house": null, "addr_city": null, "addr_postc": null, "check_date": null, "shop": null, "int_name": null, "layer": null, "name": "Πιάτσα Ταξί", "addr_stree": null, "capacity": null }, "geometry": { "type": "Point", "coordinates": [ 22.601896, 40.732377 ] } }
]
}
